{
  "type": "FeatureCollection",
  "features": [
    {
      "type": "Feature",
      "geometry": {
        "type": "Point",
        "coordinates": [
          -0.540623,
          47.44852
        ]
      },
      "properties": {
        "addr:postcode": "49000",
        "addr:city": "Angers",
        "alt_name": "Angers",
        "brand": "Feuillette",
        "email": "feuilletteangers@gmail.com",
        "fixme": "Check address and opening hours, then delete the fixme, fixme:addr and fixme:oh",
        "fixme:addr": "2 boulevard Blanchoin",
        "fixme:oh": "Ouvert 7j/7 de 6h \u00e0 21h\r\n",
        "name": "Boulangerie Feuillette",
        "ref:FR:Feuillette:extranet": "32",
        "ref:FR:Feuillette:id": "1963",
        "shop": "bakery",
        "addr:housenumber": "2",
        "addr:street": "boulevard Blanchoin",
        "phone": "+33 2 41 91 05 90"
      }
    },
    {
      "type": "Feature",
      "geometry": {
        "type": "Point",
        "coordinates": [
          3.56504,
          47.806
        ]
      },
      "properties": {
        "addr:postcode": "89000",
        "addr:city": "Auxerre",
        "alt_name": "Auxerre",
        "brand": "Feuillette",
        "email": "auxerre@feuillette.fr",
        "fixme": "Check address and opening hours, then delete the fixme, fixme:addr and fixme:oh",
        "fixme:addr": "29 Avenue Charles de Gaulle",
        "fixme:oh": "Ouvert tous les jours de 6h \u00e0 20h\r\n",
        "name": "Boulangerie Feuillette",
        "ref:FR:Feuillette:extranet": "61",
        "ref:FR:Feuillette:id": "4925",
        "shop": "bakery",
        "addr:housenumber": "29",
        "addr:street": "Avenue Charles de Gaulle",
        "start_date": "2023-09-05"
      }
    },
    {
      "type": "Feature",
      "geometry": {
        "type": "Point",
        "coordinates": [
          2.113192,
          49.416494
        ]
      },
      "properties": {
        "addr:postcode": "60000",
        "addr:city": "Beauvais",
        "alt_name": "Beauvais",
        "brand": "Feuillette",
        "email": "beauvais@feuillette.fr",
        "fixme": "Check address and opening hours, then delete the fixme, fixme:addr and fixme:oh",
        "fixme:addr": "26 avenue Blaise Pascal",
        "fixme:oh": "Ouvert de 6h \u00e0 20h du lundi au samedi et de 7h \u00e0 20h le dimanche\r\n",
        "name": "Boulangerie Feuillette",
        "ref:FR:Feuillette:extranet": "1",
        "ref:FR:Feuillette:id": "738",
        "shop": "bakery",
        "addr:housenumber": "26",
        "addr:street": "avenue Blaise Pascal",
        "phone": "+33 3 64 19 82 57"
      }
    },
    {
      "type": "Feature",
      "geometry": {
        "type": "Point",
        "coordinates": [
          2.118014,
          49.438142
        ]
      },
      "properties": {
        "addr:postcode": "60000",
        "addr:city": "Beauvais",
        "alt_name": "Beauvais (Leroy Merlin)",
        "brand": "Feuillette",
        "email": "beauvais@feuillette.fr",
        "fixme": "Check address and opening hours, then delete the fixme, fixme:addr and fixme:oh",
        "fixme:addr": "Rue Jean Baptiste Godin - PAE du Haut-Vill\u00e9",
        "fixme:oh": "Ouvert de 9h \u00e0 20h du lundi au samedi et de 9h \u00e0 18h le dimanche\r\n",
        "name": "Boulangerie Feuillette",
        "ref:FR:Feuillette:extranet": "1",
        "ref:FR:Feuillette:id": "3981",
        "shop": "bakery",
        "addr:street": "Rue Jean Baptiste Godin - PAE du Haut-Vill\u00e9",
        "start_date": "2021-08-30",
        "phone": "+33 3 74 09 10 28"
      }
    },
    {
      "type": "Feature",
      "geometry": {
        "type": "Point",
        "coordinates": [
          1.324283,
          47.598194
        ]
      },
      "properties": {
        "addr:postcode": "41000",
        "addr:city": "Blois",
        "alt_name": "Blois",
        "brand": "Feuillette",
        "email": "blois@feuillette.fr",
        "fixme": "Check address and opening hours, then delete the fixme, fixme:addr and fixme:oh",
        "fixme:addr": "37 avenue de Vend\u00f4me",
        "fixme:oh": "Ouvert tous les jours de 7h \u00e0 20h",
        "name": "Boulangerie Feuillette",
        "ref:FR:Feuillette:extranet": "37",
        "ref:FR:Feuillette:id": "2039",
        "shop": "bakery",
        "addr:housenumber": "37",
        "addr:street": "avenue de Vend\u00f4me",
        "start_date": "2020-08-25",
        "phone": "+33 2 42 44 00 95"
      }
    },
    {
      "type": "Feature",
      "geometry": {
        "type": "Point",
        "coordinates": [
          1.352477,
          47.605175
        ]
      },
      "properties": {
        "addr:postcode": "41260",
        "addr:city": "La Chauss\u00e9e-Saint- Victor",
        "alt_name": "Blois (La Chauss\u00e9e Saint-Victor)",
        "brand": "Feuillette",
        "email": "lachaussee@feuillette.fr",
        "fixme": "Check address and opening hours, then delete the fixme, fixme:addr and fixme:oh",
        "fixme:addr": "7B route nationale",
        "fixme:oh": "Ouvert tous les jours de 6h \u00e0 20h",
        "name": "Boulangerie Feuillette",
        "ref:FR:Feuillette:extranet": "2",
        "ref:FR:Feuillette:id": "726",
        "shop": "bakery",
        "addr:housenumber": "7B",
        "addr:street": "route nationale",
        "phone": "+33 2 54 58 85 56"
      }
    },
    {
      "type": "Feature",
      "geometry": {
        "type": "Point",
        "coordinates": [
          1.364083,
          47.567518
        ]
      },
      "properties": {
        "addr:postcode": "41350",
        "addr:city": "Saint-Gervais-la- For\u00eat",
        "alt_name": "Blois (Saint-Gervais-La-For\u00eat)",
        "brand": "Feuillette",
        "email": "stgervais@feuillette.fr",
        "fixme": "Check address and opening hours, then delete the fixme, fixme:addr and fixme:oh",
        "fixme:addr": "69 route nationale",
        "fixme:oh": "Ouvert tous les jours de 7h \u00e0 20h",
        "name": "Boulangerie Feuillette",
        "ref:FR:Feuillette:extranet": "3",
        "ref:FR:Feuillette:id": "727",
        "shop": "bakery",
        "addr:housenumber": "69",
        "addr:street": "route nationale",
        "phone": "+33 2 54 42 28 78"
      }
    },
    {
      "type": "Feature",
      "geometry": {
        "type": "Point",
        "coordinates": [
          2.370344,
          47.066066
        ]
      },
      "properties": {
        "addr:postcode": "18000",
        "addr:city": "Bourges",
        "alt_name": "Bourges",
        "brand": "Feuillette",
        "email": "bourges@feuillette.fr",
        "fixme": "Check address and opening hours, then delete the fixme, fixme:addr and fixme:oh",
        "fixme:addr": "144 avenue d\u2019Issoudun",
        "fixme:oh": "Ouvert toute l'ann\u00e9e, 7j/7 de 6h \u00e0 21h\r\n",
        "name": "Boulangerie Feuillette",
        "ref:FR:Feuillette:extranet": "5",
        "ref:FR:Feuillette:id": "729",
        "shop": "bakery",
        "addr:housenumber": "144",
        "addr:street": "avenue d\u2019Issoudun",
        "phone": "+33 2 48 64 13 74"
      }
    },
    {
      "type": "Feature",
      "geometry": {
        "type": "Point",
        "coordinates": [
          1.50484,
          45.15221
        ]
      },
      "properties": {
        "addr:postcode": "19100",
        "addr:city": "Brive-la-Gaillarde",
        "alt_name": "Brive-la-Gaillarde",
        "brand": "Feuillette",
        "email": "brivelagaillarde@feuillette.fr",
        "fixme": "Check address and opening hours, then delete the fixme, fixme:addr and fixme:oh",
        "fixme:addr": "15 Avenue Guynemer",
        "fixme:oh": "Ouvert tous les jours de 6h \u00e0 20h\r\n",
        "name": "Boulangerie Feuillette",
        "ref:FR:Feuillette:extranet": "64",
        "ref:FR:Feuillette:id": "4926",
        "shop": "bakery",
        "addr:housenumber": "15",
        "addr:street": "Avenue Guynemer",
        "start_date": "2023-09-05",
        "phone": "+33 5 19 08 11 19"
      }
    },
    {
      "type": "Feature",
      "geometry": {
        "type": "Point",
        "coordinates": [
          -0.322678,
          49.170101
        ]
      },
      "properties": {
        "addr:postcode": "14120",
        "addr:city": "Mondeville",
        "alt_name": "Caen (Mondeville)",
        "brand": "Feuillette",
        "email": "caen@feuillette.fr",
        "fixme": "Check address and opening hours, then delete the fixme, fixme:addr and fixme:oh",
        "fixme:addr": "81 route de Paris",
        "fixme:oh": "Ouvert toute l'ann\u00e9e, 7J/7, de 7h \u00e0 20h.\r\n",
        "name": "Boulangerie Feuillette",
        "ref:FR:Feuillette:extranet": "6",
        "ref:FR:Feuillette:id": "730",
        "shop": "bakery",
        "addr:housenumber": "81",
        "addr:street": "route de Paris",
        "phone": "+33 2 31 72 26 80"
      }
    },
    {
      "type": "Feature",
      "geometry": {
        "type": "Point",
        "coordinates": [
          1.486446,
          48.44448
        ]
      },
      "properties": {
        "addr:postcode": "28000",
        "addr:city": "Chartres",
        "alt_name": "Chartres (centre ville)",
        "brand": "Feuillette",
        "email": "centreville.feuillette.chartres@gmail.com",
        "fixme": "Check address and opening hours, then delete the fixme, fixme:addr and fixme:oh",
        "fixme:addr": "1 rue du Bois Merrain",
        "fixme:oh": "Ouvert de 9h \u00e0 19h30\r\n",
        "name": "Boulangerie Feuillette",
        "ref:FR:Feuillette:extranet": "43",
        "ref:FR:Feuillette:id": "2304",
        "shop": "bakery",
        "addr:housenumber": "1",
        "addr:street": "rue du Bois Merrain",
        "phone": "+33 2 37 22 42 37"
      }
    },
    {
      "type": "Feature",
      "geometry": {
        "type": "Point",
        "coordinates": [
          1.468969,
          48.434741
        ]
      },
      "properties": {
        "addr:postcode": "28110",
        "addr:city": "Luc\u00e9",
        "alt_name": "Chartres (Luc\u00e9)",
        "brand": "Feuillette",
        "email": "feuillette.chartres@gmail.com",
        "fixme": "Check address and opening hours, then delete the fixme, fixme:addr and fixme:oh",
        "fixme:addr": "34 rue du Mar\u00e9chal Leclerc",
        "fixme:oh": "Ouvert 7j/7 de 7h \u00e0 20h\r\n",
        "name": "Boulangerie Feuillette",
        "ref:FR:Feuillette:extranet": "7",
        "ref:FR:Feuillette:id": "731",
        "shop": "bakery",
        "addr:housenumber": "34",
        "addr:street": "rue du Mar\u00e9chal Leclerc",
        "phone": "+33 2 34 40 11 70"
      }
    },
    {
      "type": "Feature",
      "geometry": {
        "type": "Point",
        "coordinates": [
          1.729315,
          46.796576
        ]
      },
      "properties": {
        "addr:postcode": "36330",
        "addr:city": "Le Poin\u00e7onnet",
        "alt_name": "Chateauroux (Le Poin\u00e7onnet)",
        "brand": "Feuillette",
        "email": "poinconnet@feuillette.fr",
        "fixme": "Check address and opening hours, then delete the fixme, fixme:addr and fixme:oh",
        "fixme:addr": "Route de Montlu\u00e7on",
        "fixme:oh": "Ouvert tous les jours de 7h \u00e0 20h",
        "name": "Boulangerie Feuillette",
        "ref:FR:Feuillette:extranet": "13",
        "ref:FR:Feuillette:id": "1609",
        "shop": "bakery",
        "addr:street": "Route de Montlu\u00e7on",
        "phone": "+33 2 42 05 00 90"
      }
    },
    {
      "type": "Feature",
      "geometry": {
        "type": "Point",
        "coordinates": [
          -0.860215,
          47.055644
        ]
      },
      "properties": {
        "addr:postcode": "49300",
        "addr:city": "Cholet",
        "alt_name": "Cholet",
        "brand": "Feuillette",
        "email": "cholet@feuillette.fr",
        "fixme": "Check address and opening hours, then delete the fixme, fixme:addr and fixme:oh",
        "fixme:addr": "172 rue de Lorraine",
        "fixme:oh": "Ouvert tous les jours de 7h \u00e0 20h",
        "name": "Boulangerie Feuillette",
        "ref:FR:Feuillette:extranet": "45",
        "ref:FR:Feuillette:id": "732",
        "shop": "bakery",
        "addr:housenumber": "172",
        "addr:street": "rue de Lorraine",
        "phone": "+33 9 66 92 11 02"
      }
    },
    {
      "type": "Feature",
      "geometry": {
        "type": "Point",
        "coordinates": [
          3.06468,
          45.886016
        ]
      },
      "properties": {
        "addr:postcode": "63200",
        "addr:city": "Malauzat",
        "alt_name": "Clermont-Ferrand (Malauzat)",
        "brand": "Feuillette",
        "email": "espacemozac@feuillette.fr",
        "fixme": "Check address and opening hours, then delete the fixme, fixme:addr and fixme:oh",
        "fixme:addr": "Rue des gardelles - Rond-point Usine des Eaux de Volvic",
        "fixme:oh": "Espace Mozac\r\nOuvert tous les jours de 7h \u00e0 20h\r\n\r\n",
        "name": "Boulangerie Feuillette",
        "ref:FR:Feuillette:extranet": "33",
        "ref:FR:Feuillette:id": "2453",
        "shop": "bakery",
        "addr:street": "Rue des gardelles - Rond-point Usine des Eaux de Volvic",
        "start_date": "2020-08-18",
        "phone": "+33 4 73 63 28 32"
      }
    },
    {
      "type": "Feature",
      "geometry": {
        "type": "Point",
        "coordinates": [
          3.11797,
          45.79332
        ]
      },
      "properties": {
        "addr:postcode": "63100",
        "addr:city": "Clermont-Ferrand",
        "alt_name": "Clermont-Ferrand (Montferrand)",
        "brand": "Feuillette",
        "email": "montferrand@feuillette.fr",
        "fixme": "Check address and opening hours, then delete the fixme, fixme:addr and fixme:oh",
        "fixme:addr": "44 Boulevard L\u00e9on Jouhaux",
        "fixme:oh": "Ouvert tous les jours de 7h \u00e0 20h.",
        "name": "Boulangerie Feuillette",
        "ref:FR:Feuillette:extranet": "33",
        "ref:FR:Feuillette:id": "4854",
        "shop": "bakery",
        "addr:housenumber": "44",
        "addr:street": "Boulevard L\u00e9on Jouhaux",
        "start_date": "2023-05-25",
        "phone": "+33 4 73 15 61 30"
      }
    },
    {
      "type": "Feature",
      "geometry": {
        "type": "Point",
        "coordinates": [
          7.36365,
          48.08243
        ]
      },
      "properties": {
        "addr:postcode": "68000",
        "addr:city": "Colmar",
        "alt_name": "Colmar",
        "brand": "Feuillette",
        "email": "colmar@feuillette.fr",
        "fixme": "Check address and opening hours, then delete the fixme, fixme:addr and fixme:oh",
        "fixme:addr": "8 Route de Selestat",
        "fixme:oh": "Ouvert tous les jours, 7j/7 de 7h \u00e0 20h",
        "name": "Boulangerie Feuillette",
        "ref:FR:Feuillette:extranet": "38",
        "ref:FR:Feuillette:id": "2955",
        "shop": "bakery",
        "addr:housenumber": "8",
        "addr:street": "Route de Selestat",
        "start_date": "2021-02-16",
        "phone": "+33 3 89 20 71 75"
      }
    },
    {
      "type": "Feature",
      "geometry": {
        "type": "Point",
        "coordinates": [
          6.466652,
          48.196717
        ]
      },
      "properties": {
        "addr:postcode": "88000",
        "addr:city": "Epinal",
        "alt_name": "Epinal",
        "brand": "Feuillette",
        "email": "epinal@feuillette.fr",
        "fixme": "Check address and opening hours, then delete the fixme, fixme:addr and fixme:oh",
        "fixme:addr": "6 bis rue de la bazaine",
        "fixme:oh": "Ouvert tous les jours de 7h \u00e0 20h",
        "name": "Boulangerie Feuillette",
        "ref:FR:Feuillette:extranet": "9",
        "ref:FR:Feuillette:id": "1610",
        "shop": "bakery",
        "addr:housenumber": "6",
        "addr:street": "bis rue de la bazaine",
        "phone": "+33 3 56 11 00 30"
      }
    },
    {
      "type": "Feature",
      "geometry": {
        "type": "Point",
        "coordinates": [
          1.4001,
          43.69648
        ]
      },
      "properties": {
        "addr:postcode": "31150",
        "addr:city": "Fenouillet",
        "alt_name": "Fenouillet",
        "brand": "Feuillette",
        "email": "fenouillet@feuillette.fr",
        "fixme": "Check address and opening hours, then delete the fixme, fixme:addr and fixme:oh",
        "fixme:addr": "161 Route de Paris",
        "fixme:oh": "Ouvert tous les jours de 7h \u00e0 20h\r\n",
        "name": "Boulangerie Feuillette",
        "ref:FR:Feuillette:extranet": "67",
        "ref:FR:Feuillette:id": "4927",
        "shop": "bakery",
        "addr:housenumber": "161",
        "addr:street": "Route de Paris",
        "start_date": "2023-09-12",
        "phone": "+33 5 67 91 71 23"
      }
    },
    {
      "type": "Feature",
      "geometry": {
        "type": "Point",
        "coordinates": [
          1.168085,
          49.056935
        ]
      },
      "properties": {
        "addr:postcode": "27930",
        "addr:city": "Gravigny",
        "alt_name": "Gravigny",
        "brand": "Feuillette",
        "email": "gravigny@feuillette.fr",
        "fixme": "Check address and opening hours, then delete the fixme, fixme:addr and fixme:oh",
        "fixme:addr": "277 Avenue Aristide Briand",
        "fixme:oh": "Ouvert du lundi au samedi de 6h \u00e0 20h\r\nOuvert le dimanche de 7h \u00e0 20h",
        "name": "Boulangerie Feuillette",
        "ref:FR:Feuillette:extranet": "52",
        "ref:FR:Feuillette:id": "3997",
        "shop": "bakery",
        "addr:housenumber": "277",
        "addr:street": "Avenue Aristide Briand",
        "phone": "+33 2 78 77 12 95"
      }
    },
    {
      "type": "Feature",
      "geometry": {
        "type": "Point",
        "coordinates": [
          -1.325374,
          46.18727
        ]
      },
      "properties": {
        "addr:postcode": "17630",
        "addr:city": "La Flotte",
        "alt_name": "Ile de R\u00e9 (La Flotte en R\u00e9)",
        "brand": "Feuillette",
        "email": "laflotte@feuillette.fr",
        "fixme": "Check address and opening hours, then delete the fixme, fixme:addr and fixme:oh",
        "fixme:addr": "20 rue du G\u00e9n\u00e9ral de Gaulle",
        "fixme:oh": "Ouvert du mardi au samedi, de 7h \u00e0 13h et de 15h \u00e0 19h.\r\nOuvert le dimanche de 7h \u00e0 13h.\r\nFerm\u00e9 le lundi\r\n",
        "name": "Boulangerie Feuillette",
        "ref:FR:Feuillette:extranet": "10",
        "ref:FR:Feuillette:id": "745",
        "shop": "bakery",
        "addr:housenumber": "20",
        "addr:street": "rue du G\u00e9n\u00e9ral de Gaulle",
        "phone": "+33 5 46 09 60 28"
      }
    },
    {
      "type": "Feature",
      "geometry": {
        "type": "Point",
        "coordinates": [
          5.430368,
          45.568919
        ]
      },
      "properties": {
        "addr:postcode": "38110",
        "addr:city": "Saint Jean de Soudain",
        "alt_name": "La Tour-du-Pin (Saint-Jean-de-Soudain)",
        "brand": "Feuillette",
        "email": "saintjeandesoudain@feuillette.fr",
        "fixme": "Check address and opening hours, then delete the fixme, fixme:addr and fixme:oh",
        "fixme:addr": "17 Chemin de Chapon",
        "fixme:oh": "Ouvert du lundi au dimanche de 7h \u00e0 20h",
        "name": "Boulangerie Feuillette",
        "ref:FR:Feuillette:extranet": "49",
        "ref:FR:Feuillette:id": "4060",
        "shop": "bakery",
        "addr:housenumber": "17",
        "addr:street": "Chemin de Chapon",
        "start_date": "2021-11-16",
        "phone": "+33 4 74 83 90 24"
      }
    },
    {
      "type": "Feature",
      "geometry": {
        "type": "Point",
        "coordinates": [
          0.196057,
          49.514765
        ]
      },
      "properties": {
        "addr:postcode": "76700",
        "addr:city": "Harfleur",
        "alt_name": "Le Havre (Harfleur)",
        "brand": "Feuillette",
        "email": "harfleur@feuillette.fr",
        "fixme": "Check address and opening hours, then delete the fixme, fixme:addr and fixme:oh",
        "fixme:addr": "12 rue Friedrich Engels",
        "fixme:oh": "Ouvert 7J/7 de 6h \u00e0 20h",
        "name": "Boulangerie Feuillette",
        "ref:FR:Feuillette:extranet": "47",
        "ref:FR:Feuillette:id": "3931",
        "shop": "bakery",
        "addr:housenumber": "12",
        "addr:street": "rue Friedrich Engels",
        "start_date": "2021-08-03",
        "phone": "+33 2 35 51 64 08"
      }
    },
    {
      "type": "Feature",
      "geometry": {
        "type": "Point",
        "coordinates": [
          0.167924,
          47.976063
        ]
      },
      "properties": {
        "addr:postcode": "72100",
        "addr:city": "Le Mans",
        "alt_name": "Le Mans",
        "brand": "Feuillette",
        "email": "lemans@feuillette.fr",
        "fixme": "Check address and opening hours, then delete the fixme, fixme:addr and fixme:oh",
        "fixme:addr": "1 rue Pierre Martin",
        "fixme:oh": "Ouverte de 7h \u00e0 20h, d\u00e8s le mardi 1er juin 2021",
        "name": "Boulangerie Feuillette",
        "ref:FR:Feuillette:extranet": "50",
        "ref:FR:Feuillette:id": "3658",
        "shop": "bakery",
        "addr:housenumber": "1",
        "addr:street": "rue Pierre Martin",
        "start_date": "2021-06-01",
        "phone": "+33 2 52 99 03 95"
      }
    },
    {
      "type": "Feature",
      "geometry": {
        "type": "Point",
        "coordinates": [
          0.18683,
          47.93455
        ]
      },
      "properties": {
        "addr:postcode": "72230",
        "addr:city": "Arnage",
        "alt_name": "Le Mans (Arnage)",
        "brand": "Feuillette",
        "email": "l.lemesle@feuillette.fr",
        "fixme": "Check address and opening hours, then delete the fixme, fixme:addr and fixme:oh",
        "fixme:addr": "182 Boulevard Pierre Lefaucheux",
        "fixme:oh": "Ouvert 7j/7 de 7h \u00e0 20h du lundi au samedi et de 7h30 \u00e0 14h le dimanche\r\n",
        "name": "Boulangerie Feuillette",
        "ref:FR:Feuillette:extranet": "11",
        "ref:FR:Feuillette:id": "733",
        "shop": "bakery",
        "addr:housenumber": "182",
        "addr:street": "Boulevard Pierre Lefaucheux",
        "phone": "+33 2 43 42 65 94"
      }
    },
    {
      "type": "Feature",
      "geometry": {
        "type": "Point",
        "coordinates": [
          0.236213,
          47.999379
        ]
      },
      "properties": {
        "addr:postcode": "72100",
        "addr:city": "Yvre\u0301 l\u2019Eve\u0302que",
        "alt_name": "Le Mans (Yvre\u0301 l\u2019Eve\u0302que)",
        "brand": "Feuillette",
        "email": "yvre@feuillette.fr",
        "fixme": "Check address and opening hours, then delete the fixme, fixme:addr and fixme:oh",
        "fixme:addr": "2 rue douce amie",
        "fixme:oh": "Ouvert tous les jours de 7h \u00e0 20h",
        "name": "Boulangerie Feuillette",
        "ref:FR:Feuillette:extranet": "12",
        "ref:FR:Feuillette:id": "734",
        "shop": "bakery",
        "addr:housenumber": "2",
        "addr:street": "rue douce amie",
        "phone": "+33 2 43 85 98 28"
      }
    },
    {
      "type": "Feature",
      "geometry": {
        "type": "Point",
        "coordinates": [
          1.05534,
          49.4242
        ]
      },
      "properties": {
        "addr:postcode": "76140",
        "addr:city": "Le Petit-Quevilly",
        "alt_name": "Le Petit-Quevilly",
        "brand": "Feuillette",
        "email": "lepetitquevilly@feuillette.fr",
        "fixme": "Check address and opening hours, then delete the fixme, fixme:addr and fixme:oh",
        "fixme:addr": "163 Avenue des Alli\u00e9s",
        "fixme:oh": "Ouvert tous les jours de 6h \u00e0 20h\r\n",
        "name": "Boulangerie Feuillette",
        "ref:FR:Feuillette:extranet": "54",
        "ref:FR:Feuillette:id": "4928",
        "shop": "bakery",
        "addr:housenumber": "163",
        "addr:street": "Avenue des Alli\u00e9s",
        "start_date": "2023-09-26"
      }
    },
    {
      "type": "Feature",
      "geometry": {
        "type": "Point",
        "coordinates": [
          -0.224078,
          44.904225
        ]
      },
      "properties": {
        "addr:postcode": "33500",
        "addr:city": "Libourne",
        "alt_name": "Libourne (Avenue du G\u00e9n\u00e9ral de Gaulle)",
        "brand": "Feuillette",
        "email": "libourne@feuillette.fr",
        "fixme": "Check address and opening hours, then delete the fixme, fixme:addr and fixme:oh",
        "fixme:addr": "95 avenue du G\u00e9n\u00e9ral de Gaulle",
        "fixme:oh": "Ouvert tous les jours de 6h \u00e0 20h\r\n",
        "name": "Boulangerie Feuillette",
        "ref:FR:Feuillette:extranet": "4",
        "ref:FR:Feuillette:id": "728",
        "shop": "bakery",
        "addr:housenumber": "95",
        "addr:street": "avenue du G\u00e9n\u00e9ral de Gaulle",
        "phone": "+33 5 57 24 43 70"
      }
    },
    {
      "type": "Feature",
      "geometry": {
        "type": "Point",
        "coordinates": [
          -0.23817,
          44.93266
        ]
      },
      "properties": {
        "addr:postcode": "33500",
        "addr:city": "Libourne",
        "alt_name": "Libourne (Avenue Georges Pompidou)",
        "brand": "Feuillette",
        "email": "libournepompidou@feuillette.fr",
        "fixme": "Check address and opening hours, then delete the fixme, fixme:addr and fixme:oh",
        "fixme:addr": "59 Avenue Georges Pompidou",
        "fixme:oh": "Ouvert tous les jours de 6h \u00e0 20h\r\n",
        "name": "Boulangerie Feuillette",
        "ref:FR:Feuillette:extranet": "4",
        "ref:FR:Feuillette:id": "4885",
        "shop": "bakery",
        "addr:housenumber": "59",
        "addr:street": "Avenue Georges Pompidou",
        "start_date": "2023-07-18"
      }
    },
    {
      "type": "Feature",
      "geometry": {
        "type": "Point",
        "coordinates": [
          1.253921,
          45.851984
        ]
      },
      "properties": {
        "addr:postcode": "87100",
        "addr:city": "Limoges",
        "alt_name": "Limoges (87100)",
        "brand": "Feuillette",
        "email": "feuillette.limoges@gmail.com",
        "fixme": "Check address and opening hours, then delete the fixme, fixme:addr and fixme:oh",
        "fixme:addr": "141 rue des Tuili\u00e8res",
        "fixme:oh": "Ouvert toute l'ann\u00e9e, 7J/7, de 6h30 \u00e0 21h.\r\n",
        "name": "Boulangerie Feuillette",
        "ref:FR:Feuillette:extranet": "14",
        "ref:FR:Feuillette:id": "735",
        "shop": "bakery",
        "addr:housenumber": "141",
        "addr:street": "rue des Tuili\u00e8res",
        "phone": "+33 5 55 57 30 99"
      }
    },
    {
      "type": "Feature",
      "geometry": {
        "type": "Point",
        "coordinates": [
          1.283902,
          45.883435
        ]
      },
      "properties": {
        "addr:postcode": "87280",
        "addr:city": "Limoges",
        "alt_name": "Limoges (87280)",
        "brand": "Feuillette",
        "email": "feuillette.limoges@gmail.com",
        "fixme": "Check address and opening hours, then delete the fixme, fixme:addr and fixme:oh",
        "fixme:addr": "4 rue Nicolas Appert",
        "fixme:oh": "Ouvert 7J/7 de 6h30 \u00e0 20h",
        "name": "Boulangerie Feuillette",
        "ref:FR:Feuillette:extranet": "42",
        "ref:FR:Feuillette:id": "2468",
        "shop": "bakery",
        "addr:housenumber": "4",
        "addr:street": "rue Nicolas Appert",
        "phone": "+33 5 55 35 10 37"
      }
    },
    {
      "type": "Feature",
      "geometry": {
        "type": "Point",
        "coordinates": [
          5.544215,
          46.675462
        ]
      },
      "properties": {
        "addr:postcode": "39000",
        "addr:city": "Lons-le-Saunier",
        "alt_name": "Lons-le-Saunier",
        "brand": "Feuillette",
        "email": "lonslesaunier@feuillette.fr",
        "fixme": "Check address and opening hours, then delete the fixme, fixme:addr and fixme:oh",
        "fixme:addr": "60 place du Mar\u00e9chal Juin",
        "fixme:oh": "Ouvert tous les jours de 7h \u00e0 20h",
        "name": "Boulangerie Feuillette",
        "ref:FR:Feuillette:extranet": "57",
        "ref:FR:Feuillette:id": "4682",
        "shop": "bakery",
        "addr:housenumber": "60",
        "addr:street": "place du Mar\u00e9chal Juin",
        "start_date": "2022-11-22",
        "phone": "+33 3 39 49 00 29"
      }
    },
    {
      "type": "Feature",
      "geometry": {
        "type": "Point",
        "coordinates": [
          -3.394978,
          47.763972
        ]
      },
      "properties": {
        "addr:postcode": "56100",
        "addr:city": "Lorient",
        "alt_name": "Lorient",
        "brand": "Feuillette",
        "email": "lorient@feuillette.fr",
        "fixme": "Check address and opening hours, then delete the fixme, fixme:addr and fixme:oh",
        "fixme:addr": "Rond point du Keryado",
        "fixme:oh": "Ouvert tous les jours de 7h \u00e0 20h",
        "name": "Boulangerie Feuillette",
        "ref:FR:Feuillette:extranet": "15",
        "ref:FR:Feuillette:id": "744",
        "shop": "bakery",
        "addr:street": "Rond point du Keryado",
        "phone": "+33 2 97 80 09 00"
      }
    },
    {
      "type": "Feature",
      "geometry": {
        "type": "Point",
        "coordinates": [
          6.102615,
          49.078003
        ]
      },
      "properties": {
        "addr:postcode": "57685",
        "addr:city": "Augny",
        "alt_name": "Metz (Augny)",
        "brand": "Feuillette",
        "email": "augny@feuillette.fr",
        "fixme": "Check address and opening hours, then delete the fixme, fixme:addr and fixme:oh",
        "fixme:addr": "Zone Actisud - 1, rue des trente jours",
        "fixme:oh": "Ouvert tous les jours de 7h \u00e0 20h",
        "name": "Boulangerie Feuillette",
        "ref:FR:Feuillette:extranet": "16",
        "ref:FR:Feuillette:id": "1583",
        "shop": "bakery",
        "addr:street": "Zone Actisud - 1, rue des trente jours",
        "phone": "+33 3 87 52 29 79"
      }
    },
    {
      "type": "Feature",
      "geometry": {
        "type": "Point",
        "coordinates": [
          6.174274,
          49.263455
        ]
      },
      "properties": {
        "addr:postcode": "57300",
        "addr:city": "Mondelange",
        "alt_name": "Metz (Mondelange)",
        "brand": "Feuillette",
        "email": "mondelange@feuillette.fr",
        "fixme": "Check address and opening hours, then delete the fixme, fixme:addr and fixme:oh",
        "fixme:addr": "rue de bousse",
        "fixme:oh": "Ouvert tous les jours de 7h \u00e0 20h",
        "name": "Boulangerie Feuillette",
        "ref:FR:Feuillette:extranet": "17",
        "ref:FR:Feuillette:id": "1611",
        "shop": "bakery",
        "addr:street": "rue de bousse",
        "phone": "+33 3 72 51 00 60"
      }
    },
    {
      "type": "Feature",
      "geometry": {
        "type": "Point",
        "coordinates": [
          6.159531,
          49.156771
        ]
      },
      "properties": {
        "addr:postcode": "57140",
        "addr:city": "Woippy",
        "alt_name": "Metz (Woippy)",
        "brand": "Feuillette",
        "email": "woippy@feuillette.fr",
        "fixme": "Check address and opening hours, then delete the fixme, fixme:addr and fixme:oh",
        "fixme:addr": "rue des gravi\u00e8res",
        "fixme:oh": "Ouvert toute l'ann\u00e9e, 7J/7, de 7h \u00e0 20h.\r\n",
        "name": "Boulangerie Feuillette",
        "ref:FR:Feuillette:extranet": "28",
        "ref:FR:Feuillette:id": "1760",
        "shop": "bakery",
        "addr:street": "rue des gravi\u00e8res",
        "start_date": "2019-10-29",
        "phone": "+33 3 72 51 04 25"
      }
    },
    {
      "type": "Feature",
      "geometry": {
        "type": "Point",
        "coordinates": [
          6.241015906969658,
          48.70945401464715
        ]
      },
      "properties": {
        "addr:postcode": "54270",
        "addr:city": "Essey Les Nancy",
        "alt_name": "Nancy (Essey Les Nancy)",
        "brand": "Feuillette",
        "email": "esseylesnancy@feuillette.fr",
        "fixme": "Check address and opening hours, then delete the fixme, fixme:addr and fixme:oh",
        "fixme:addr": "120 Av du 69\u00e8me R\u00e9giment d\u2019infanterie",
        "fixme:oh": "Ouvert du lundi au dimanche de 6h30 \u00e0 20h",
        "name": "Boulangerie Feuillette",
        "ref:FR:Feuillette:extranet": "60",
        "ref:FR:Feuillette:id": "4615",
        "shop": "bakery",
        "addr:housenumber": "120",
        "addr:street": "Av du 69\u00e8me R\u00e9giment d\u2019infanterie",
        "start_date": "2022-07-19",
        "phone": "+33 3 83 30 67 47"
      }
    },
    {
      "type": "Feature",
      "geometry": {
        "type": "Point",
        "coordinates": [
          6.183239,
          48.64797
        ]
      },
      "properties": {
        "addr:postcode": "54180",
        "addr:city": "Heillecourt",
        "alt_name": "Nancy (Heillecourt)",
        "brand": "Feuillette",
        "email": "heillecourt@feuillette.fr",
        "fixme": "Check address and opening hours, then delete the fixme, fixme:addr and fixme:oh",
        "fixme:addr": "1 Rue des Coteaux",
        "fixme:oh": "ZAC d\u2019Houdemont \u2013 ZI Ouest 54180 HEILLECOURT\r\nOuvert toute l'ann\u00e9e, 7J/7, de 6h30 \u00e0 20h\r\n\r\n",
        "name": "Boulangerie Feuillette",
        "ref:FR:Feuillette:extranet": "18",
        "ref:FR:Feuillette:id": "1125",
        "shop": "bakery",
        "addr:housenumber": "1",
        "addr:street": "Rue des Coteaux",
        "phone": "+33 3 83 98 77 84"
      }
    },
    {
      "type": "Feature",
      "geometry": {
        "type": "Point",
        "coordinates": [
          3.149054,
          46.993448
        ]
      },
      "properties": {
        "addr:postcode": "58000",
        "addr:city": "Nevers",
        "alt_name": "Nevers",
        "brand": "Feuillette",
        "email": "nevers@feuillette.fr",
        "fixme": "Check address and opening hours, then delete the fixme, fixme:addr and fixme:oh",
        "fixme:addr": "2 rue des docks",
        "fixme:oh": "Ouvert tous les jours de 6h30 \u00e0 20h\r\n",
        "name": "Boulangerie Feuillette",
        "ref:FR:Feuillette:extranet": "36",
        "ref:FR:Feuillette:id": "2454",
        "shop": "bakery",
        "addr:housenumber": "2",
        "addr:street": "rue des docks",
        "start_date": "2020-08-25",
        "phone": "+33 3 71 42 02 19"
      }
    },
    {
      "type": "Feature",
      "geometry": {
        "type": "Point",
        "coordinates": [
          1.86965,
          47.914848
        ]
      },
      "properties": {
        "addr:postcode": "45140",
        "addr:city": "Saint-Jean de la Ruelle",
        "alt_name": "Orl\u00e9ans (Saint-Jean-de-la-Ruelle)",
        "brand": "Feuillette",
        "email": "stjean@feuillette.fr",
        "fixme": "Check address and opening hours, then delete the fixme, fixme:addr and fixme:oh",
        "fixme:addr": "140 rue Charles Beauhaire",
        "fixme:oh": "Ouvert tous les jours de 6h \u00e0 20h\r\nLa boulangerie reste ouverte pendant toute la dur\u00e9e des travaux",
        "name": "Boulangerie Feuillette",
        "ref:FR:Feuillette:extranet": "19",
        "ref:FR:Feuillette:id": "736",
        "shop": "bakery",
        "addr:housenumber": "140",
        "addr:street": "rue Charles Beauhaire",
        "phone": "+33 2 38 54 70 88"
      }
    },
    {
      "type": "Feature",
      "geometry": {
        "type": "Point",
        "coordinates": [
          2.251829,
          48.178891
        ]
      },
      "properties": {
        "addr:postcode": "45300",
        "addr:city": "Pithiviers",
        "alt_name": "Pithiviers",
        "brand": "Feuillette",
        "email": "pithiviers@feuillette.fr",
        "fixme": "Check address and opening hours, then delete the fixme, fixme:addr and fixme:oh",
        "fixme:addr": "6 avenue du 11 novembre 1918",
        "fixme:oh": "Ouvert tous les jours de 7h \u00e0 20h",
        "name": "Boulangerie Feuillette",
        "ref:FR:Feuillette:extranet": "44",
        "ref:FR:Feuillette:id": "3053",
        "shop": "bakery",
        "addr:housenumber": "6",
        "addr:street": "avenue du 11 novembre 1918",
        "start_date": "2021-04-13",
        "phone": "+33 2 42 07 05 65"
      }
    },
    {
      "type": "Feature",
      "geometry": {
        "type": "Point",
        "coordinates": [
          0.368125,
          46.582719
        ]
      },
      "properties": {
        "addr:postcode": "86000",
        "addr:city": "Poitiers",
        "alt_name": "Poitiers",
        "brand": "Feuillette",
        "email": "feuillette.poitiers@gmail.com",
        "fixme": "Check address and opening hours, then delete the fixme, fixme:addr and fixme:oh",
        "fixme:addr": "3 rue des Chalons",
        "fixme:oh": "Ouvert de 6h \u00e0 20h\r\n",
        "name": "Boulangerie Feuillette",
        "ref:FR:Feuillette:extranet": "20",
        "ref:FR:Feuillette:id": "737",
        "shop": "bakery",
        "addr:housenumber": "3",
        "addr:street": "rue des Chalons",
        "phone": "+33 5 49 11 72 62"
      }
    },
    {
      "type": "Feature",
      "geometry": {
        "type": "Point",
        "coordinates": [
          -2.316603,
          47.256237
        ]
      },
      "properties": {
        "addr:postcode": "44380",
        "addr:city": "Pornichet",
        "alt_name": "Pornichet",
        "brand": "Feuillette",
        "email": "pornichet@feuillette.fr",
        "fixme": "Check address and opening hours, then delete the fixme, fixme:addr and fixme:oh",
        "fixme:addr": "1 all\u00e9e des C\u00e8dres - ZI Hecqueux",
        "fixme:oh": "Ouvert tous les jours de 7h \u00e0 20h",
        "name": "Boulangerie Feuillette",
        "ref:FR:Feuillette:extranet": "29",
        "ref:FR:Feuillette:id": "1801",
        "shop": "bakery",
        "addr:housenumber": "1",
        "addr:street": "all\u00e9e des C\u00e8dres - ZI Hecqueux",
        "phone": "+33 2 28 55 81 98"
      }
    },
    {
      "type": "Feature",
      "geometry": {
        "type": "Point",
        "coordinates": [
          4.06381,
          46.05386
        ]
      },
      "properties": {
        "addr:postcode": "42153",
        "addr:city": "Riorges",
        "alt_name": "Riorges",
        "brand": "Feuillette",
        "email": "riorges@feuillette.fr",
        "fixme": "Check address and opening hours, then delete the fixme, fixme:addr and fixme:oh",
        "fixme:addr": "381 Avenue Charles de Gaulle",
        "fixme:oh": "Ouvert tous les jours de 7h \u00e0 20h\r\n",
        "name": "Boulangerie Feuillette",
        "ref:FR:Feuillette:extranet": "66",
        "ref:FR:Feuillette:id": "4929",
        "shop": "bakery",
        "addr:housenumber": "381",
        "addr:street": "Avenue Charles de Gaulle",
        "start_date": "2023-09-26",
        "phone": "+33 4 12 05 19 55"
      }
    },
    {
      "type": "Feature",
      "geometry": {
        "type": "Point",
        "coordinates": [
          -1.271577,
          46.158835
        ]
      },
      "properties": {
        "addr:postcode": "17940",
        "addr:city": "Rivedoux-Plage",
        "alt_name": "Rivedoux-Plage",
        "brand": "Feuillette",
        "email": "rivedoux@feuillette.fr",
        "fixme": "Check address and opening hours, then delete the fixme, fixme:addr and fixme:oh",
        "fixme:addr": "126 Avenue Gustave Perreau",
        "fixme:oh": "Ouvert tous les jours de 7h \u00e0 22h",
        "name": "Boulangerie Feuillette",
        "ref:FR:Feuillette:extranet": "69",
        "ref:FR:Feuillette:id": "4884",
        "shop": "bakery",
        "addr:housenumber": "126",
        "addr:street": "Avenue Gustave Perreau",
        "start_date": "2022-11-22",
        "phone": "+33 5 19 08 12 90"
      }
    },
    {
      "type": "Feature",
      "geometry": {
        "type": "Point",
        "coordinates": [
          3.725028,
          48.510364
        ]
      },
      "properties": {
        "addr:postcode": "10100",
        "addr:city": "Romilly-sur-Seine",
        "alt_name": "Romilly-sur-Seine",
        "brand": "Feuillette",
        "email": "romilly@feuillette-troyes.fr",
        "fixme": "Check address and opening hours, then delete the fixme, fixme:addr and fixme:oh",
        "fixme:addr": "197 rue Aristide Briand",
        "fixme:oh": "Ouvert tous les jours de 6h \u00e0 20h.",
        "name": "Boulangerie Feuillette",
        "ref:FR:Feuillette:extranet": "26",
        "ref:FR:Feuillette:id": "4679",
        "shop": "bakery",
        "addr:housenumber": "197",
        "addr:street": "rue Aristide Briand",
        "start_date": "2022-11-01",
        "phone": "+33 3 51 19 99 97"
      }
    },
    {
      "type": "Feature",
      "geometry": {
        "type": "Point",
        "coordinates": [
          1.710551,
          47.368343
        ]
      },
      "properties": {
        "addr:postcode": "41200",
        "addr:city": "Pruniers-en-Sologne",
        "alt_name": "Romorantin Lanthenay (Pruniers-en-Sologne)",
        "brand": "Feuillette",
        "email": "pruniers@feuillette.fr",
        "fixme": "Check address and opening hours, then delete the fixme, fixme:addr and fixme:oh",
        "fixme:addr": "Le Patureau de la Grange",
        "fixme:oh": "Ouvert tous les jours de 7h \u00e0 20h",
        "name": "Boulangerie Feuillette",
        "ref:FR:Feuillette:extranet": "22",
        "ref:FR:Feuillette:id": "742",
        "shop": "bakery",
        "addr:street": "Le Patureau de la Grange",
        "phone": "+33 2 54 97 01 33"
      }
    },
    {
      "type": "Feature",
      "geometry": {
        "type": "Point",
        "coordinates": [
          -1.913407,
          46.694304
        ]
      },
      "properties": {
        "addr:postcode": "85800",
        "addr:city": "Saint Gilles Croix de Vie",
        "alt_name": "Saint Gilles Croix de Vie",
        "brand": "Feuillette",
        "email": "stgilles@feuillette.fr",
        "fixme": "Check address and opening hours, then delete the fixme, fixme:addr and fixme:oh",
        "fixme:addr": "2 rue des Potiers",
        "fixme:oh": "Ouvert tous les jours de 7h \u00e0 20h",
        "name": "Boulangerie Feuillette",
        "ref:FR:Feuillette:extranet": "39",
        "ref:FR:Feuillette:id": "1613",
        "shop": "bakery",
        "addr:housenumber": "2",
        "addr:street": "rue des Potiers",
        "phone": "+33 2 55 65 00 90"
      }
    },
    {
      "type": "Feature",
      "geometry": {
        "type": "Point",
        "coordinates": [
          -2.76364,
          48.4927
        ]
      },
      "properties": {
        "addr:postcode": "22950",
        "addr:city": "Tr\u00e9gueux",
        "alt_name": "Saint-Brieuc (Tr\u00e9gueux)",
        "brand": "Feuillette",
        "email": "tregueux@feuillette.fr",
        "fixme": "Check address and opening hours, then delete the fixme, fixme:addr and fixme:oh",
        "fixme:addr": "7 Rue Jean Monnet",
        "fixme:oh": "Ouvert du lundi au dimanche de 7h \u00e0 20h",
        "name": "Boulangerie Feuillette",
        "ref:FR:Feuillette:extranet": "48",
        "ref:FR:Feuillette:id": "4143",
        "shop": "bakery",
        "addr:housenumber": "7",
        "addr:street": "Rue Jean Monnet",
        "start_date": "2022-01-25",
        "phone": "+33 2 21 81 01 34"
      }
    },
    {
      "type": "Feature",
      "geometry": {
        "type": "Point",
        "coordinates": [
          6.964006,
          48.275309
        ]
      },
      "properties": {
        "addr:postcode": "88100",
        "addr:city": "Sainte-Marguerite",
        "alt_name": "Sainte-Marguerite",
        "brand": "Feuillette",
        "email": "saintemarguerite@feuillette.fr",
        "fixme": "Check address and opening hours, then delete the fixme, fixme:addr and fixme:oh",
        "fixme:addr": "557 Rue Ernest Charlier",
        "fixme:oh": "Ouvert du lundi au dimanche, de 6h30 \u00e0 20h",
        "name": "Boulangerie Feuillette",
        "ref:FR:Feuillette:extranet": "53",
        "ref:FR:Feuillette:id": "4228",
        "shop": "bakery",
        "addr:housenumber": "557",
        "addr:street": "Rue Ernest Charlier",
        "start_date": "2022-03-01",
        "phone": "+33 3 83 40 60 61"
      }
    },
    {
      "type": "Feature",
      "geometry": {
        "type": "Point",
        "coordinates": [
          -0.646236,
          45.750205
        ]
      },
      "properties": {
        "addr:postcode": "17100",
        "addr:city": "Saintes",
        "alt_name": "Saintes",
        "brand": "Feuillette",
        "email": "saintes@feuillette.fr",
        "fixme": "Check address and opening hours, then delete the fixme, fixme:addr and fixme:oh",
        "fixme:addr": "36 cours du mar\u00e9chal LECLERC",
        "fixme:oh": "Ouvert 7J/7 de 6h \u00e0 20h",
        "name": "Boulangerie Feuillette",
        "ref:FR:Feuillette:extranet": "46",
        "ref:FR:Feuillette:id": "3054",
        "shop": "bakery",
        "addr:housenumber": "36",
        "addr:street": "cours du mar\u00e9chal LECLERC",
        "start_date": "2021-04-13",
        "phone": "+33 5 46 94 63 33"
      }
    },
    {
      "type": "Feature",
      "geometry": {
        "type": "Point",
        "coordinates": [
          0.656774,
          47.348
        ]
      },
      "properties": {
        "addr:postcode": "37300",
        "addr:city": "Jou\u00e9-L\u00e8s-Tours",
        "alt_name": "Tours (Jou\u00e9-L\u00e8s-Tours)",
        "brand": "Feuillette",
        "email": "jouelestours@feuillette.fr",
        "fixme": "Check address and opening hours, then delete the fixme, fixme:addr and fixme:oh",
        "fixme:addr": "155 Boulevard Jean-Jaur\u00e8s",
        "fixme:oh": "Ouvert du lundi au samedi de 6h \u00e0 20h\r\nOuvert le dimanche de 7h \u00e0 20h",
        "name": "Boulangerie Feuillette",
        "ref:FR:Feuillette:extranet": "24",
        "ref:FR:Feuillette:id": "739",
        "shop": "bakery",
        "addr:housenumber": "155",
        "addr:street": "Boulevard Jean-Jaur\u00e8s",
        "phone": "+33 2 47 87 27 57"
      }
    },
    {
      "type": "Feature",
      "geometry": {
        "type": "Point",
        "coordinates": [
          0.664596,
          47.419737
        ]
      },
      "properties": {
        "addr:postcode": "37540",
        "addr:city": "Saint-Cyr-sur- Loire",
        "alt_name": "Tours (Saint-Cyr-sur Loire)",
        "brand": "Feuillette",
        "email": "stcyr@feuillette.fr",
        "fixme": "Check address and opening hours, then delete the fixme, fixme:addr and fixme:oh",
        "fixme:addr": "9 rue de la Me\u0301nardie\u0300re",
        "fixme:oh": "Ouvert tous les jours de 6h \u00e0 20h",
        "name": "Boulangerie Feuillette",
        "ref:FR:Feuillette:extranet": "25",
        "ref:FR:Feuillette:id": "740",
        "shop": "bakery",
        "addr:housenumber": "9",
        "addr:street": "rue de la Me\u0301nardie\u0300re",
        "phone": "+33 9 67 32 43 35"
      }
    },
    {
      "type": "Feature",
      "geometry": {
        "type": "Point",
        "coordinates": [
          0.690965,
          47.431329
        ]
      },
      "properties": {
        "addr:postcode": "37100",
        "addr:city": "Tours",
        "alt_name": "Tours Nord",
        "brand": "Feuillette",
        "email": "tours@feuillette.fr",
        "fixme": "Check address and opening hours, then delete the fixme, fixme:addr and fixme:oh",
        "fixme:addr": "15 rue Thal\u00e8s de Milet",
        "fixme:oh": "Ouvert tous les jours de 6h \u00e0 20h",
        "name": "Boulangerie Feuillette",
        "ref:FR:Feuillette:extranet": "35",
        "ref:FR:Feuillette:id": "2040",
        "shop": "bakery",
        "addr:housenumber": "15",
        "addr:street": "rue Thal\u00e8s de Milet",
        "start_date": "2020-06-23",
        "phone": "+33 2 42 06 02 05"
      }
    },
    {
      "type": "Feature",
      "geometry": {
        "type": "Point",
        "coordinates": [
          4.029458,
          48.303515
        ]
      },
      "properties": {
        "addr:postcode": "10600",
        "addr:city": "La Chapelle St Luc",
        "alt_name": "Troyes (La Chapelle Saint-Luc)",
        "brand": "Feuillette",
        "email": "troyes@feuillette.fr",
        "fixme": "Check address and opening hours, then delete the fixme, fixme:addr and fixme:oh",
        "fixme:addr": "130 rue du G\u00e9n\u00e9ral Sarrail",
        "fixme:oh": "Ouvert du lundi au samedi de 6h \u00e0 20h\r\nOuvert le dimanche de 7h \u00e0 20h\r\n",
        "name": "Boulangerie Feuillette",
        "ref:FR:Feuillette:extranet": "26",
        "ref:FR:Feuillette:id": "741",
        "shop": "bakery",
        "addr:housenumber": "130",
        "addr:street": "rue du G\u00e9n\u00e9ral Sarrail",
        "phone": "+33 3 25 72 63 15"
      }
    },
    {
      "type": "Feature",
      "geometry": {
        "type": "Point",
        "coordinates": [
          4.099500789940909,
          48.32972647865524
        ]
      },
      "properties": {
        "addr:postcode": "10150",
        "addr:city": "Lavau",
        "alt_name": "Troyes (Lavau)",
        "brand": "Feuillette",
        "email": "troyes@feuillette.fr",
        "fixme": "Check address and opening hours, then delete the fixme, fixme:addr and fixme:oh",
        "fixme:addr": "5 Rue des Sirettes",
        "fixme:oh": "Ouvert du lundi au samedi de 6h \u00e0 20h\r\nOuvert le dimanche de 7h \u00e0 20h\r\n",
        "name": "Boulangerie Feuillette",
        "ref:FR:Feuillette:extranet": "26",
        "ref:FR:Feuillette:id": "4589",
        "shop": "bakery",
        "addr:housenumber": "5",
        "addr:street": "Rue des Sirettes",
        "start_date": "2022-05-02",
        "phone": "+33 3 53 50 00 55"
      }
    },
    {
      "type": "Feature",
      "geometry": {
        "type": "Point",
        "coordinates": [
          4.055818,
          48.272763
        ]
      },
      "properties": {
        "addr:postcode": "10120",
        "addr:city": "Saint-Andr\u00e9-les-Vergers",
        "alt_name": "Troyes (Saint-Andr\u00e9-les-Vergers)",
        "brand": "Feuillette",
        "email": "troyes@feuillette.fr",
        "fixme": "Check address and opening hours, then delete the fixme, fixme:addr and fixme:oh",
        "fixme:addr": "73 Route d'Auxerre",
        "fixme:oh": "Ouvert du lundi au samedi de 6h \u00e0 20h\r\nOuvert le dimanche de 7h \u00e0 20h\r\n",
        "name": "Boulangerie Feuillette",
        "ref:FR:Feuillette:extranet": "",
        "ref:FR:Feuillette:id": "3996",
        "shop": "bakery",
        "addr:housenumber": "73",
        "addr:street": "Route d'Auxerre",
        "start_date": "2021-10-01",
        "phone": "+33 3 53 50 00 25"
      }
    },
    {
      "type": "Feature",
      "geometry": {
        "type": "Point",
        "coordinates": [
          4.884298,
          44.959235
        ]
      },
      "properties": {
        "addr:postcode": "26500",
        "addr:city": "Bourg-l\u00e8s-Valence",
        "alt_name": "Valence (Bourg-l\u00e8s-Valence)",
        "brand": "Feuillette",
        "email": "valence@feuillette.fr",
        "fixme": "Check address and opening hours, then delete the fixme, fixme:addr and fixme:oh",
        "fixme:addr": "165 rue des Chabanneries",
        "fixme:oh": "Ouvert tous les jours de 6h \u00e0 20h.",
        "name": "Boulangerie Feuillette",
        "ref:FR:Feuillette:extranet": "55",
        "ref:FR:Feuillette:id": "4681",
        "shop": "bakery",
        "addr:housenumber": "165",
        "addr:street": "rue des Chabanneries",
        "start_date": "2022-11-15",
        "phone": "+33 4 75 78 92 33"
      }
    },
    {
      "type": "Feature",
      "geometry": {
        "type": "Point",
        "coordinates": [
          1.063897,
          47.798126
        ]
      },
      "properties": {
        "addr:postcode": "41100",
        "addr:city": "Vend\u00f4me",
        "alt_name": "Vend\u00f4me",
        "brand": "Feuillette",
        "email": "vendome@feuillette.fr",
        "fixme": "Check address and opening hours, then delete the fixme, fixme:addr and fixme:oh",
        "fixme:addr": "15B Avenue Ge\u0301rard Yvon",
        "fixme:oh": "Ouvert tous les jours de 7h \u00e0 20h",
        "name": "Boulangerie Feuillette",
        "ref:FR:Feuillette:extranet": "27",
        "ref:FR:Feuillette:id": "743",
        "shop": "bakery",
        "addr:housenumber": "15B",
        "addr:street": "Avenue Ge\u0301rard Yvon",
        "phone": "+33 2 54 89 02 18"
      }
    },
    {
      "type": "Feature",
      "geometry": {
        "type": "Point",
        "coordinates": [
          1.36825,
          48.71724
        ]
      },
      "properties": {
        "addr:postcode": "28500",
        "addr:city": "Vernouillet",
        "alt_name": "Vernouillet",
        "brand": "Feuillette",
        "email": "vernouillet@feuillette.fr",
        "fixme": "Check address and opening hours, then delete the fixme, fixme:addr and fixme:oh",
        "fixme:addr": "Rue de Bruxelles, ZC Plein Sud",
        "fixme:oh": "Ouvert tous les jours de 7h \u00e0 20h\r\n",
        "name": "Boulangerie Feuillette",
        "ref:FR:Feuillette:extranet": "66",
        "ref:FR:Feuillette:id": "4941",
        "shop": "bakery",
        "addr:street": "Rue de Bruxelles, ZC Plein Sud",
        "start_date": "2023-10-10",
        "phone": "+33 2 46 83 06 00"
      }
    },
    {
      "type": "Feature",
      "geometry": {
        "type": "Point",
        "coordinates": [
          2.083301,
          47.232741
        ]
      },
      "properties": {
        "addr:postcode": "18100",
        "addr:city": "Vierzon",
        "alt_name": "Vierzon",
        "brand": "Feuillette",
        "email": "vierzon@feuillette.fr",
        "fixme": "Check address and opening hours, then delete the fixme, fixme:addr and fixme:oh",
        "fixme:addr": "Avenue du 8 mai 1945",
        "fixme:oh": "Ouvert tous les jours de 7h \u00e0 20h",
        "name": "Boulangerie Feuillette",
        "ref:FR:Feuillette:extranet": "51",
        "ref:FR:Feuillette:id": "3079",
        "shop": "bakery",
        "addr:street": "Avenue du 8 mai 1945",
        "start_date": "2021-10-19",
        "phone": "+33 2 19 06 00 70"
      }
    },
    {
      "type": "Feature",
      "geometry": {
        "type": "Point",
        "coordinates": [
          3.052141,
          50.587866
        ]
      },
      "properties": {
        "addr:postcode": "59139",
        "addr:city": "Wattignies",
        "alt_name": "Wattignies",
        "brand": "Feuillette",
        "email": "wattignies@feuillette.fr",
        "fixme": "Check address and opening hours, then delete the fixme, fixme:addr and fixme:oh",
        "fixme:addr": "225 rue Clemenceau",
        "fixme:oh": "Ouvert tous les jours de 6h \u00e0 20h.",
        "name": "Boulangerie Feuillette",
        "ref:FR:Feuillette:extranet": "59",
        "ref:FR:Feuillette:id": "4680",
        "shop": "bakery",
        "addr:housenumber": "225",
        "addr:street": "rue Clemenceau",
        "start_date": "2022-11-15",
        "phone": "+33 3 74 02 10 90"
      }
    },
    {
      "type": "Feature",
      "geometry": {
        "type": "Point",
        "coordinates": [
          3.34092,
          46.54729
        ]
      },
      "properties": {
        "addr:postcode": "03400",
        "addr:city": "Yzeure",
        "alt_name": "Yzeure (Ouverture le 7 novembre 2023)",
        "brand": "Feuillette",
        "email": "moulins@feuillette.fr",
        "fixme": "Check address and opening hours, then delete the fixme, fixme:addr and fixme:oh",
        "fixme:addr": "132 route de Lyon",
        "fixme:oh": "Ouvert tous les jours de 7h \u00e0 20h\r\n",
        "name": "Boulangerie Feuillette",
        "ref:FR:Feuillette:extranet": "79",
        "ref:FR:Feuillette:id": "4953",
        "shop": "bakery",
        "addr:housenumber": "132",
        "addr:street": "route de Lyon",
        "start_date": "2023-11-07",
        "phone": "+33 4 12 05 39 65"
      }
    }
  ]
}