{
  "type": "FeatureCollection",
  "features": [
    {
      "type": "Feature",
      "geometry": {
        "type": "Point",
        "coordinates": [
          3.34428,
          46.543408
        ]
      },
      "properties": {
        "shop": "variety_store",
        "name": "B&M",
        "alt_name": "B&M MOULINS",
        "brand": "B&M",
        "brand:wikidata": "Q4836931",
        "brand:wikipedia": "en:B&M",
        "opening_hours": "09:30-19:30",
        "addr:housenumber": "",
        "addr:street": "Centre Commercial CAP SUD",
        "addr:place": "D707",
        "addr:postcode": "03400",
        "addr:city": "Yzeure",
        "note": "Centre Commercial CAP SUD D707 03400 YZEURE"
      }
    },
    {
      "type": "Feature",
      "geometry": {
        "type": "Point",
        "coordinates": [
          2.5714239,
          46.3652685
        ]
      },
      "properties": {
        "shop": "variety_store",
        "name": "B&M",
        "alt_name": "B&M MONTLUCON",
        "brand": "B&M",
        "brand:wikidata": "Q4836931",
        "brand:wikipedia": "en:B&M",
        "opening_hours": "Mo-Sa 09:30-19:00; Su 10:00-12:00,14:00-18:30",
        "addr:housenumber": "",
        "addr:street": "Zac de Châteaugay",
        "addr:place": "",
        "addr:postcode": "03410",
        "addr:city": "Domerat",
        "note": "Zac de Châteaugay 03410 DOMERAT"
      }
    },
    {
      "type": "Feature",
      "geometry": {
        "type": "Point",
        "coordinates": [
          3.433053,
          46.138027
        ]
      },
      "properties": {
        "shop": "variety_store",
        "name": "B&M",
        "alt_name": "B&M CUSSET",
        "brand": "B&M",
        "brand:wikidata": "Q4836931",
        "brand:wikipedia": "en:B&M",
        "opening_hours": "Mo-Sa 09:30-19:00; Su 14:00-18:00",
        "addr:housenumber": "106",
        "addr:street": "avenue Gilbert Roux",
        "addr:place": "",
        "addr:postcode": "03300",
        "addr:city": "Cusset",
        "note": "106 avenue Gilbert Roux 03300 CUSSET"
      }
    },
    {
      "type": "Feature",
      "geometry": {
        "type": "Point",
        "coordinates": [
          3.123539,
          46.992817
        ]
      },
      "properties": {
        "shop": "variety_store",
        "name": "B&M",
        "alt_name": "B&M NEVERS",
        "brand": "B&M",
        "brand:wikidata": "Q4836931",
        "brand:wikipedia": "en:B&M",
        "opening_hours": "Mo-Fr 09:30-19:00; Sa 09:30-19:30; Su 10:00-12:00,14:00-18:00",
        "addr:housenumber": "34",
        "addr:street": "boulevard du Pré des Bordes",
        "addr:place": "ZC Les Grands Champs",
        "addr:postcode": "58000",
        "addr:city": "Nevers",
        "note": "ZC Les Grands Champs 34 boulevard du Pré des Bordes 58000 NEVERS"
      }
    },
    {
      "type": "Feature",
      "geometry": {
        "type": "Point",
        "coordinates": [
          3.187135,
          45.775781
        ]
      },
      "properties": {
        "shop": "variety_store",
        "name": "B&M",
        "alt_name": "B&M LEMPDES",
        "brand": "B&M",
        "brand:wikidata": "Q4836931",
        "brand:wikipedia": "en:B&M",
        "opening_hours": "Mo-Sa 09:00-19:00; Su 10:00-19:00",
        "addr:housenumber": "63",
        "addr:street": "Avenue de l'Europe",
        "addr:place": "",
        "addr:postcode": "63370",
        "addr:city": "Lempdes",
        "note": "63, Avenue de l'Europe 63370 LEMPDES"
      }
    },
    {
      "type": "Feature",
      "geometry": {
        "type": "Point",
        "coordinates": [
          3.169472,
          45.743312
        ]
      },
      "properties": {
        "shop": "variety_store",
        "name": "B&M",
        "alt_name": "B&M COURNON",
        "brand": "B&M",
        "brand:wikidata": "Q4836931",
        "brand:wikipedia": "en:B&M",
        "opening_hours": "Mo-Sa 09:00-19:00; Su 10:00-19:00",
        "addr:housenumber": "69",
        "addr:street": "avenue d'Aubière",
        "addr:place": "",
        "addr:postcode": "63800",
        "addr:city": "Cournon",
        "note": "69 avenue d'Aubière 63800 COURNON"
      }
    },
    {
      "type": "Feature",
      "geometry": {
        "type": "Point",
        "coordinates": [
          2.439794,
          47.094638
        ]
      },
      "properties": {
        "shop": "variety_store",
        "name": "B&M",
        "alt_name": "B&M BOURGES",
        "brand": "B&M",
        "brand:wikidata": "Q4836931",
        "brand:wikipedia": "en:B&M",
        "opening_hours": "Mo-Sa 09:30-19:00; Su 14:00-18:30",
        "addr:housenumber": "",
        "addr:street": "Chemin des Vignes de Chappe",
        "addr:place": "",
        "addr:postcode": "18000",
        "addr:city": "Bourges",
        "note": "Chemin des Vignes de Chappe 18000 BOURGES"
      }
    },
    {
      "type": "Feature",
      "geometry": {
        "type": "Point",
        "coordinates": [
          1.642257,
          46.775858
        ]
      },
      "properties": {
        "shop": "variety_store",
        "name": "B&M",
        "alt_name": "B&M CHATEAUROUX",
        "brand": "B&M",
        "brand:wikidata": "Q4836931",
        "brand:wikipedia": "en:B&M",
        "opening_hours": "Mo-Sa 09:30-19:00; Su 10:00-12:00,14:00-18:30",
        "addr:housenumber": "",
        "addr:street": "Zone Commerciale Cap Sud",
        "addr:place": "",
        "addr:postcode": "36250",
        "addr:city": "Saint Maur",
        "note": "Zone Commerciale Cap Sud 36250 SAINT MAUR"
      }
    },
    {
      "type": "Feature",
      "geometry": {
        "type": "Point",
        "coordinates": [
          4.8046992,
          46.282058
        ]
      },
      "properties": {
        "shop": "variety_store",
        "name": "B&M",
        "alt_name": "B&M MACON",
        "brand": "B&M",
        "brand:wikidata": "Q4836931",
        "brand:wikipedia": "en:B&M",
        "opening_hours": "Mo-Sa 09:00-19:00; Su 10:00-12:00,14:00-19:00",
        "addr:housenumber": "",
        "addr:street": "RN 6 Route de Lyon",
        "addr:place": "Carrefour François Mitterrand",
        "addr:postcode": "71000",
        "addr:city": "Macon",
        "note": "RN 6 Route de Lyon Carrefour François Mitterrand 71000 MACON"
      }
    },
    {
      "type": "Feature",
      "geometry": {
        "type": "Point",
        "coordinates": [
          4.843634,
          46.764213
        ]
      },
      "properties": {
        "shop": "variety_store",
        "name": "B&M",
        "alt_name": "B&M CHALON-SUR-SAÔNE",
        "brand": "B&M",
        "brand:wikidata": "Q4836931",
        "brand:wikipedia": "en:B&M",
        "opening_hours": "Mo-Sa 09:00-19:00; Su 10:00-19:00",
        "addr:housenumber": "",
        "addr:street": "Centre Californie - Route de Lyon",
        "addr:place": "",
        "addr:postcode": "71100",
        "addr:city": "Saint Remy",
        "note": "Centre Californie - Route de Lyon 71100 SAINT REMY"
      }
    },
    {
      "type": "Feature",
      "geometry": {
        "type": "Point",
        "coordinates": [
          4.3735027,
          45.4663913
        ]
      },
      "properties": {
        "shop": "variety_store",
        "name": "B&M",
        "alt_name": "B&M SAINT-ETIENNE",
        "brand": "B&M",
        "brand:wikidata": "Q4836931",
        "brand:wikipedia": "en:B&M",
        "opening_hours": "Mo-Sa 09:30-19:30; Su 10:00-12:00,14:00-19:00",
        "addr:housenumber": "8",
        "addr:street": "rue René Coty",
        "addr:place": "ZAC de la Doa",
        "addr:postcode": "42270",
        "addr:city": "Saint Priest En Jarez",
        "note": "ZAC de la Doa 8 rue René Coty 42270 SAINT PRIEST EN JAREZ"
      }
    },
    {
      "type": "Feature",
      "geometry": {
        "type": "Point",
        "coordinates": [
          1.261823,
          45.867954
        ]
      },
      "properties": {
        "shop": "variety_store",
        "name": "B&M",
        "alt_name": "B&M LIMOGES",
        "brand": "B&M",
        "brand:wikidata": "Q4836931",
        "brand:wikipedia": "en:B&M",
        "opening_hours": "Mo-Sa 09:00-20:00; Su 10:00-12:30,14:00-19:00",
        "addr:housenumber": "",
        "addr:street": "Rue de Buxerolles",
        "addr:place": "",
        "addr:postcode": "87270",
        "addr:city": "Couzeix",
        "note": "Rue de Buxerolles 87270 COUZEIX"
      }
    },
    {
      "type": "Feature",
      "geometry": {
        "type": "Point",
        "coordinates": [
          4.872541,
          45.7188528
        ]
      },
      "properties": {
        "shop": "variety_store",
        "name": "B&M",
        "alt_name": "B&M VENISSIEUX",
        "brand": "B&M",
        "brand:wikidata": "Q4836931",
        "brand:wikipedia": "en:B&M",
        "opening_hours": "Mo-Sa 09:30-19:30; Su 10:00-19:00",
        "addr:housenumber": "",
        "addr:street": "Allée des Savoies",
        "addr:place": "Boulevard Laurent Bonnevay",
        "addr:postcode": "69200",
        "addr:city": "Venissieux",
        "note": "Allée des Savoies Boulevard Laurent Bonnevay 69200 VENISSIEUX"
      }
    },
    {
      "type": "Feature",
      "geometry": {
        "type": "Point",
        "coordinates": [
          4.921042,
          45.764084
        ]
      },
      "properties": {
        "shop": "variety_store",
        "name": "B&M",
        "alt_name": "B&M VAULX-EN-VELIN",
        "brand": "B&M",
        "brand:wikidata": "Q4836931",
        "brand:wikipedia": "en:B&M",
        "opening_hours": "Mo-Sa 10:00-20:00; Su 14:00-19:00",
        "addr:housenumber": "2",
        "addr:street": "Rue Jacquard",
        "addr:place": "Pôle commercial et de loisirs Carré de Soie",
        "addr:postcode": "69120",
        "addr:city": "Vaulx-En-Velin",
        "note": "Pôle commercial et de loisirs Carré de Soie 2 Rue Jacquard 69120 VAULX-EN-VELIN"
      }
    },
    {
      "type": "Feature",
      "geometry": {
        "type": "Point",
        "coordinates": [
          5.207836,
          46.220238
        ]
      },
      "properties": {
        "shop": "variety_store",
        "name": "B&M",
        "alt_name": "B&M BOURG-EN-BRESSE",
        "brand": "B&M",
        "brand:wikidata": "Q4836931",
        "brand:wikipedia": "en:B&M",
        "opening_hours": "Mo-Sa 09:00-19:00; Su 10:00-18:30",
        "addr:housenumber": "",
        "addr:street": "Les Vareys - Rue Gay Lussac",
        "addr:place": "",
        "addr:postcode": "01440",
        "addr:city": "Viriat",
        "note": "Les Vareys - Rue Gay Lussac 01440 VIRIAT"
      }
    },
    {
      "type": "Feature",
      "geometry": {
        "type": "Point",
        "coordinates": [
          5.01443,
          45.69703
        ]
      },
      "properties": {
        "shop": "variety_store",
        "name": "B&M",
        "alt_name": "B&M SAINT BONNET DE MURE",
        "brand": "B&M",
        "brand:wikidata": "Q4836931",
        "brand:wikipedia": "en:B&M",
        "opening_hours": "Mo-Sa 09:30-19:30; Su 10:00-18:00",
        "addr:housenumber": "141",
        "addr:street": "RN 6",
        "addr:place": "",
        "addr:postcode": "69720",
        "addr:city": "Saint-Bonnet-De-Mure",
        "note": "141 RN 6 69720 SAINT-BONNET-DE-MURE"
      }
    },
    {
      "type": "Feature",
      "geometry": {
        "type": "Point",
        "coordinates": [
          1.9167724,
          47.8413268
        ]
      },
      "properties": {
        "shop": "variety_store",
        "name": "B&M",
        "alt_name": "B&M OLIVET",
        "brand": "B&M",
        "brand:wikidata": "Q4836931",
        "brand:wikipedia": "en:B&M",
        "opening_hours": "10:00-18:45",
        "addr:housenumber": "181",
        "addr:street": "rue d'Artois",
        "addr:place": "ZA de Provinces",
        "addr:postcode": "45160",
        "addr:city": "Olivet",
        "note": "ZA de Provinces 181 rue d'Artois 45160 OLIVET"
      }
    },
    {
      "type": "Feature",
      "geometry": {
        "type": "Point",
        "coordinates": [
          5.102075,
          47.3074733
        ]
      },
      "properties": {
        "shop": "variety_store",
        "name": "B&M",
        "alt_name": "B&M QUETIGNY",
        "brand": "B&M",
        "brand:wikidata": "Q4836931",
        "brand:wikipedia": "en:B&M",
        "opening_hours": "Mo-Sa 09:00-19:00; Su 10:00-19:00",
        "addr:housenumber": "17",
        "addr:street": "Boulevard Champ aux Métiers",
        "addr:place": "",
        "addr:postcode": "21800",
        "addr:city": "Quetigny",
        "note": "17, Boulevard Champ aux Métiers 21800 QUETIGNY"
      }
    },
    {
      "type": "Feature",
      "geometry": {
        "type": "Point",
        "coordinates": [
          1.329539,
          47.607463
        ]
      },
      "properties": {
        "shop": "variety_store",
        "name": "B&M",
        "alt_name": "B&M BLOIS",
        "brand": "B&M",
        "brand:wikidata": "Q4836931",
        "brand:wikipedia": "en:B&M",
        "opening_hours": "Mo-Sa 09:30-19:00",
        "addr:housenumber": "",
        "addr:street": "Avenue Robert Schuman",
        "addr:place": "",
        "addr:postcode": "41000",
        "addr:city": "Blois",
        "note": "Avenue Robert Schuman 41000 BLOIS"
      }
    },
    {
      "type": "Feature",
      "geometry": {
        "type": "Point",
        "coordinates": [
          1.8835545,
          47.9656175
        ]
      },
      "properties": {
        "shop": "variety_store",
        "name": "B&M",
        "alt_name": "B&M ORLEANS",
        "brand": "B&M",
        "brand:wikidata": "Q4836931",
        "brand:wikipedia": "en:B&M",
        "opening_hours": "Mo-Sa 09:30-19:30; Su 10:00-19:00",
        "addr:housenumber": "",
        "addr:street": "ZC des Cents Arpents",
        "addr:place": "",
        "addr:postcode": "45770",
        "addr:city": "Saran",
        "note": "ZC des Cents Arpents 45770 SARAN"
      }
    },
    {
      "type": "Feature",
      "geometry": {
        "type": "Point",
        "coordinates": [
          1.469165,
          45.142106
        ]
      },
      "properties": {
        "shop": "variety_store",
        "name": "B&M",
        "alt_name": "B&M BRIVE",
        "brand": "B&M",
        "brand:wikidata": "Q4836931",
        "brand:wikipedia": "en:B&M",
        "opening_hours": "Mo-Sa 09:30-19:00",
        "addr:housenumber": "",
        "addr:street": "D 1089, avenue Pierre Mendès France",
        "addr:place": "",
        "addr:postcode": "19100",
        "addr:city": "Brive",
        "note": "D 1089, avenue Pierre Mendès France 19100 BRIVE"
      }
    },
    {
      "type": "Feature",
      "geometry": {
        "type": "Point",
        "coordinates": [
          0.707401,
          47.326326
        ]
      },
      "properties": {
        "shop": "variety_store",
        "name": "B&M",
        "alt_name": "B&M CHAMBRAY-LES-TOURS",
        "brand": "B&M",
        "brand:wikidata": "Q4836931",
        "brand:wikipedia": "en:B&M",
        "opening_hours": "Mo-Sa 09:30-19:00; Su 10:30-19:00",
        "addr:housenumber": "264",
        "addr:street": "Avenue du Grand Sud",
        "addr:place": "",
        "addr:postcode": "37170",
        "addr:city": "Chambray-Les-Tours",
        "note": "264 Avenue du Grand Sud 37170 CHAMBRAY-LES-TOURS"
      }
    },
    {
      "type": "Feature",
      "geometry": {
        "type": "Point",
        "coordinates": [
          0.3657651,
          46.6501886
        ]
      },
      "properties": {
        "shop": "variety_store",
        "name": "B&M",
        "alt_name": "B&M CHASSENEUIL",
        "brand": "B&M",
        "brand:wikidata": "Q4836931",
        "brand:wikipedia": "en:B&M",
        "opening_hours": "09:30-19:30",
        "addr:housenumber": "22",
        "addr:street": "rue du Commerce",
        "addr:place": "",
        "addr:postcode": "86360",
        "addr:city": "Chasseneuil Du Poitou",
        "note": "22 rue du Commerce 86360 CHASSENEUIL DU POITOU"
      }
    },
    {
      "type": "Feature",
      "geometry": {
        "type": "Point",
        "coordinates": [
          0.6634184,
          47.4290647
        ]
      },
      "properties": {
        "shop": "variety_store",
        "name": "B&M",
        "alt_name": "B&M TOURS",
        "brand": "B&M",
        "brand:wikidata": "Q4836931",
        "brand:wikipedia": "en:B&M",
        "opening_hours": "Mo-Sa 09:30-19:00; Su 10:00-19:00",
        "addr:housenumber": "",
        "addr:street": "Rue de la Pinauderie",
        "addr:place": "",
        "addr:postcode": "37540",
        "addr:city": "Saint Cyr Sur Loire",
        "note": "Rue de la Pinauderie 37540 SAINT CYR SUR LOIRE"
      }
    },
    {
      "type": "Feature",
      "geometry": {
        "type": "Point",
        "coordinates": [
          4.0246309,
          48.303697
        ]
      },
      "properties": {
        "shop": "variety_store",
        "name": "B&M",
        "alt_name": "B&M TROYES",
        "brand": "B&M",
        "brand:wikidata": "Q4836931",
        "brand:wikipedia": "en:B&M",
        "opening_hours": "Mo-Sa 09:30-19:15; Su 09:30-11:45,14:00-18:45",
        "addr:housenumber": "",
        "addr:street": "Boulevard de l’Ouest",
        "addr:place": "Centre Commercial l'Escapade",
        "addr:postcode": "10300",
        "addr:city": "Sainte Savine",
        "note": "Centre Commercial l'Escapade Boulevard de l’Ouest 10300 SAINTE SAVINE"
      }
    },
    {
      "type": "Feature",
      "geometry": {
        "type": "Point",
        "coordinates": [
          4.9599312,
          44.9765302
        ]
      },
      "properties": {
        "shop": "variety_store",
        "name": "B&M",
        "alt_name": "B&M VALENCE",
        "brand": "B&M",
        "brand:wikidata": "Q4836931",
        "brand:wikipedia": "en:B&M",
        "opening_hours": "Mo-Sa 09:30-19:00; Su 10:00-12:30,14:00-19:00",
        "addr:housenumber": "",
        "addr:street": "Quartier de Laye",
        "addr:place": "",
        "addr:postcode": "26320",
        "addr:city": "Saint-Marcel-Les-Valence",
        "note": "Quartier de Laye 26320 SAINT-MARCEL-LES-VALENCE"
      }
    },
    {
      "type": "Feature",
      "geometry": {
        "type": "Point",
        "coordinates": [
          0.6619692,
          45.1932128
        ]
      },
      "properties": {
        "shop": "variety_store",
        "name": "B&M",
        "alt_name": "B&M PERIGUEUX",
        "brand": "B&M",
        "brand:wikidata": "Q4836931",
        "brand:wikipedia": "en:B&M",
        "opening_hours": "Mo-Sa 09:30-18:45; Su 10:00-12:00,14:00-18:30",
        "addr:housenumber": "",
        "addr:street": "Avenue Louis Suder Lieu dit \"La Saltgourde\"",
        "addr:place": "C.C. Auchan",
        "addr:postcode": "24430",
        "addr:city": "Marsac Sur L'Isle",
        "note": "C.C. Auchan Avenue Louis Suder Lieu dit \"La Saltgourde\" 24430 MARSAC SUR L'ISLE"
      }
    },
    {
      "type": "Feature",
      "geometry": {
        "type": "Point",
        "coordinates": [
          2.595649,
          48.586764
        ]
      },
      "properties": {
        "shop": "variety_store",
        "name": "B&M",
        "alt_name": "B&M SAVIGNY",
        "brand": "B&M",
        "brand:wikidata": "Q4836931",
        "brand:wikipedia": "en:B&M",
        "opening_hours": "Mo-Sa 09:30-19:30; Su 10:00-18:30",
        "addr:housenumber": "12",
        "addr:street": "impasse de l'Orée du Bois",
        "addr:place": "",
        "addr:postcode": "77176",
        "addr:city": "Savigny-Le-Temple",
        "note": "12, impasse de l'Orée du Bois 77176 SAVIGNY-LE-TEMPLE"
      }
    },
    {
      "type": "Feature",
      "geometry": {
        "type": "Point",
        "coordinates": [
          6.07803,
          45.93505
        ]
      },
      "properties": {
        "shop": "variety_store",
        "name": "B&M",
        "alt_name": "B&M EPAGNY METZ-TESSY",
        "brand": "B&M",
        "brand:wikidata": "Q4836931",
        "brand:wikipedia": "en:B&M",
        "opening_hours": "Mo-Sa 09:00-19:00; Su 10:00-18:00",
        "addr:housenumber": "378",
        "addr:street": "avenue des Alpes",
        "addr:place": "",
        "addr:postcode": "74330",
        "addr:city": "Epagny Metz-Tessy",
        "note": "378 avenue des Alpes 74330 EPAGNY METZ-TESSY"
      }
    },
    {
      "type": "Feature",
      "geometry": {
        "type": "Point",
        "coordinates": [
          2.4516579,
          48.6070129
        ]
      },
      "properties": {
        "shop": "variety_store",
        "name": "B&M",
        "alt_name": "B&M CORBEIL-ESSONNES",
        "brand": "B&M",
        "brand:wikidata": "Q4836931",
        "brand:wikipedia": "en:B&M",
        "opening_hours": "Mo-Sa 09:30-19:00; Su 10:00-19:00",
        "addr:housenumber": "24",
        "addr:street": "rue Paul Maintenant",
        "addr:place": "",
        "addr:postcode": "91100",
        "addr:city": "Corbeil Essonnes",
        "note": "24 rue Paul Maintenant 91100 CORBEIL ESSONNES"
      }
    },
    {
      "type": "Feature",
      "geometry": {
        "type": "Point",
        "coordinates": [
          2.34473,
          48.62125
        ]
      },
      "properties": {
        "shop": "variety_store",
        "name": "B&M",
        "alt_name": "B&M SAINTE GENEVIEVE DES BOIS",
        "brand": "B&M",
        "brand:wikidata": "Q4836931",
        "brand:wikipedia": "en:B&M",
        "opening_hours": "09:30-19:30",
        "addr:housenumber": "",
        "addr:street": "ZAC de la Croix Blanche 22 Ave de la Croix blanche",
        "addr:place": "",
        "addr:postcode": "91700",
        "addr:city": "Ste Genevieve Des Bois",
        "note": "ZAC de la Croix Blanche 22 Ave de la Croix blanche 91700 STE GENEVIEVE DES BOIS"
      }
    },
    {
      "type": "Feature",
      "geometry": {
        "type": "Point",
        "coordinates": [
          5.950917,
          45.572524
        ]
      },
      "properties": {
        "shop": "variety_store",
        "name": "B&M",
        "alt_name": "B&M CHAMBERY",
        "brand": "B&M",
        "brand:wikidata": "Q4836931",
        "brand:wikipedia": "en:B&M",
        "opening_hours": "Mo-Sa 09:30-19:00",
        "addr:housenumber": "",
        "addr:street": "Rue de la Martinière",
        "addr:place": "",
        "addr:postcode": "73230",
        "addr:city": "Saint Alban Leysse",
        "note": "Rue de la Martinière 73230 SAINT ALBAN LEYSSE"
      }
    },
    {
      "type": "Feature",
      "geometry": {
        "type": "Point",
        "coordinates": [
          2.3648451,
          48.6477508
        ]
      },
      "properties": {
        "shop": "variety_store",
        "name": "B&M",
        "alt_name": "B&M VIRY CHATILLON",
        "brand": "B&M",
        "brand:wikidata": "Q4836931",
        "brand:wikipedia": "en:B&M",
        "opening_hours": "Mo-Sa 10:00-19:30; Su 10:00-19:00",
        "addr:housenumber": "",
        "addr:street": "Avenue de la Gribelette",
        "addr:place": "R.N. 445",
        "addr:postcode": "91170",
        "addr:city": "Viry Chatillon",
        "note": "R.N. 445 Avenue de la Gribelette 91170 VIRY CHATILLON"
      }
    },
    {
      "type": "Feature",
      "geometry": {
        "type": "Point",
        "coordinates": [
          2.58876,
          48.7089
        ]
      },
      "properties": {
        "shop": "variety_store",
        "name": "B&M",
        "alt_name": "B&M SERVON",
        "brand": "B&M",
        "brand:wikidata": "Q4836931",
        "brand:wikipedia": "en:B&M",
        "opening_hours": "Mo-Sa 09:00-19:30; Su 10:00-18:00",
        "addr:housenumber": "19",
        "addr:street": "Chemin du Marquis",
        "addr:place": "",
        "addr:postcode": "77170",
        "addr:city": "Servon",
        "note": "19 Chemin du Marquis 77170 SERVON"
      }
    },
    {
      "type": "Feature",
      "geometry": {
        "type": "Point",
        "coordinates": [
          2.4467256,
          48.7160464
        ]
      },
      "properties": {
        "shop": "variety_store",
        "name": "B&M",
        "alt_name": "B&M MONTGERON",
        "brand": "B&M",
        "brand:wikidata": "Q4836931",
        "brand:wikipedia": "en:B&M",
        "opening_hours": "Mo-Sa 09:30-19:30; Su 10:00-19:00",
        "addr:housenumber": "",
        "addr:street": "Avenue Jean Jaurès",
        "addr:place": "ZA Maurice Garin",
        "addr:postcode": "91230",
        "addr:city": "Montgeron",
        "note": "ZA Maurice Garin Avenue Jean Jaurès 91230 MONTGERON"
      }
    },
    {
      "type": "Feature",
      "geometry": {
        "type": "Point",
        "coordinates": [
          5.7097432,
          45.150887
        ]
      },
      "properties": {
        "shop": "variety_store",
        "name": "B&M",
        "alt_name": "B&M GRENOBLE",
        "brand": "B&M",
        "brand:wikidata": "Q4836931",
        "brand:wikipedia": "en:B&M",
        "opening_hours": "Mo-Sa 09:30-19:00; Su 10:00-19:00",
        "addr:housenumber": "1",
        "addr:street": "rue Grugiliasco",
        "addr:place": "",
        "addr:postcode": "38130",
        "addr:city": "Echirolles",
        "note": "1 rue Grugiliasco 38130 ECHIROLLES"
      }
    },
    {
      "type": "Feature",
      "geometry": {
        "type": "Point",
        "coordinates": [
          2.60309,
          48.77759
        ]
      },
      "properties": {
        "shop": "variety_store",
        "name": "B&M",
        "alt_name": "B&M PONTAULT COMBAULT",
        "brand": "B&M",
        "brand:wikidata": "Q4836931",
        "brand:wikipedia": "en:B&M",
        "opening_hours": "Mo-Sa 09:00-20:00; Su 10:00-19:00",
        "addr:housenumber": "",
        "addr:street": "rue de Monthéty",
        "addr:place": "",
        "addr:postcode": "77340",
        "addr:city": "Pontault-Combault",
        "note": "rue de Monthéty 77340 PONTAULT-COMBAULT"
      }
    },
    {
      "type": "Feature",
      "geometry": {
        "type": "Point",
        "coordinates": [
          2.7393178,
          48.8564716
        ]
      },
      "properties": {
        "shop": "variety_store",
        "name": "B&M",
        "alt_name": "B&M VAL-D'EUROPE",
        "brand": "B&M",
        "brand:wikidata": "Q4836931",
        "brand:wikipedia": "en:B&M",
        "opening_hours": "Mo-Sa 09:30-19:30; Su 10:00-19:00",
        "addr:housenumber": "25",
        "addr:street": "avenue de la Ferme Briarde",
        "addr:place": "ZAC du Chêne Saint Fiacre",
        "addr:postcode": "77600",
        "addr:city": "Chanteloup En Brie",
        "note": "ZAC du Chêne Saint Fiacre 25 avenue de la Ferme Briarde 77600 CHANTELOUP EN BRIE"
      }
    },
    {
      "type": "Feature",
      "geometry": {
        "type": "Point",
        "coordinates": [
          -0.3792363,
          46.3618798
        ]
      },
      "properties": {
        "shop": "variety_store",
        "name": "B&M",
        "alt_name": "B&M NIORT",
        "brand": "B&M",
        "brand:wikidata": "Q4836931",
        "brand:wikipedia": "en:B&M",
        "opening_hours": "Mo-Sa 09:30-19:00; Su 10:00-18:00",
        "addr:housenumber": "",
        "addr:street": "Centre Commercial Géant",
        "addr:place": "RN 11 Route de Paris",
        "addr:postcode": "79180",
        "addr:city": "Chauray",
        "note": "Centre Commercial Géant RN 11 Route de Paris 79180 CHAURAY"
      }
    },
    {
      "type": "Feature",
      "geometry": {
        "type": "Point",
        "coordinates": [
          6.143982,
          47.646098
        ]
      },
      "properties": {
        "shop": "variety_store",
        "name": "B&M",
        "alt_name": "B&M VESOUL",
        "brand": "B&M",
        "brand:wikidata": "Q4836931",
        "brand:wikipedia": "en:B&M",
        "opening_hours": "Mo-Sa 09:30-19:00; Su 14:00-19:00",
        "addr:housenumber": "18",
        "addr:street": "Rue Pierre Martin",
        "addr:place": "Centre Commercial  de l'OASIS",
        "addr:postcode": "70000",
        "addr:city": "Pusey",
        "note": "Centre Commercial  de l'OASIS 18, Rue Pierre Martin 70000 PUSEY"
      }
    },
    {
      "type": "Feature",
      "geometry": {
        "type": "Point",
        "coordinates": [
          2.5195972,
          48.8534666
        ]
      },
      "properties": {
        "shop": "variety_store",
        "name": "B&M",
        "alt_name": "B&M NEUILLY-PLAISANCE",
        "brand": "B&M",
        "brand:wikidata": "Q4836931",
        "brand:wikipedia": "en:B&M",
        "opening_hours": "Mo-Sa 09:00-19:30; Su 09:30-19:00",
        "addr:housenumber": "1",
        "addr:street": "avenue Michel Debré",
        "addr:place": "",
        "addr:postcode": "93360",
        "addr:city": "Neuilly Plaisance",
        "note": "1 avenue Michel Debré 93360 NEUILLY PLAISANCE"
      }
    },
    {
      "type": "Feature",
      "geometry": {
        "type": "Point",
        "coordinates": [
          1.934287,
          48.757462
        ]
      },
      "properties": {
        "shop": "variety_store",
        "name": "B&M",
        "alt_name": "B&M COIGNIERES",
        "brand": "B&M",
        "brand:wikidata": "Q4836931",
        "brand:wikipedia": "en:B&M",
        "opening_hours": "Mo-Sa 09:15-19:00; Su 10:00-19:00",
        "addr:housenumber": "",
        "addr:street": "Rue des frères Lumières",
        "addr:place": "Lieu-dit \"Le Gibet\"",
        "addr:postcode": "78310",
        "addr:city": "Coignieres",
        "note": "Lieu-dit \"Le Gibet\" Rue des frères Lumières 78310 COIGNIERES"
      }
    },
    {
      "type": "Feature",
      "geometry": {
        "type": "Point",
        "coordinates": [
          0.23743,
          47.94416
        ]
      },
      "properties": {
        "shop": "variety_store",
        "name": "B&M",
        "alt_name": "B&M RUAUDIN",
        "brand": "B&M",
        "brand:wikidata": "Q4836931",
        "brand:wikipedia": "en:B&M",
        "opening_hours": "Su 10:00-18:00",
        "addr:housenumber": "2",
        "addr:street": "Boulevard des Hunaudières",
        "addr:place": "",
        "addr:postcode": "72230",
        "addr:city": "Ruaudin",
        "note": "2, Boulevard des Hunaudières 72230 RUAUDIN"
      }
    },
    {
      "type": "Feature",
      "geometry": {
        "type": "Point",
        "coordinates": [
          2.4168941,
          48.8640391
        ]
      },
      "properties": {
        "shop": "variety_store",
        "name": "B&M",
        "alt_name": "B&M BAGNOLET",
        "brand": "B&M",
        "brand:wikidata": "Q4836931",
        "brand:wikipedia": "en:B&M",
        "opening_hours": "Mo-Sa 09:00-19:30; Su 09:30-19:00",
        "addr:housenumber": "76",
        "addr:street": "avenue du Général de Gaulle",
        "addr:place": "",
        "addr:postcode": "93170",
        "addr:city": "Bagnolet",
        "note": "76 avenue du Général de Gaulle 93170 BAGNOLET"
      }
    },
    {
      "type": "Feature",
      "geometry": {
        "type": "Point",
        "coordinates": [
          2.914176,
          48.9544408
        ]
      },
      "properties": {
        "shop": "variety_store",
        "name": "B&M",
        "alt_name": "B&M MEAUX",
        "brand": "B&M",
        "brand:wikidata": "Q4836931",
        "brand:wikipedia": "en:B&M",
        "opening_hours": "Mo-Sa 09:30-19:30; Su 09:30-19:00",
        "addr:housenumber": "22/24",
        "addr:street": "boulevard du Chevalier Bayard",
        "addr:place": "",
        "addr:postcode": "77100",
        "addr:city": "Meaux",
        "note": "22/24 boulevard du Chevalier Bayard 77100 MEAUX"
      }
    },
    {
      "type": "Feature",
      "geometry": {
        "type": "Point",
        "coordinates": [
          2.666223,
          48.952086
        ]
      },
      "properties": {
        "shop": "variety_store",
        "name": "B&M",
        "alt_name": "B&M CLAYE-SOUILLY",
        "brand": "B&M",
        "brand:wikidata": "Q4836931",
        "brand:wikipedia": "en:B&M",
        "opening_hours": "Mo-Sa 09:30-19:30; Su 10:00-19:00",
        "addr:housenumber": "",
        "addr:street": "ZA les Sablons - Rue Jean Monnet",
        "addr:place": "",
        "addr:postcode": "77410",
        "addr:city": "Claye Souilly",
        "note": "ZA les Sablons - Rue Jean Monnet 77410 CLAYE SOUILLY"
      }
    },
    {
      "type": "Feature",
      "geometry": {
        "type": "Point",
        "coordinates": [
          4.9688458,
          48.6223498
        ]
      },
      "properties": {
        "shop": "variety_store",
        "name": "B&M",
        "alt_name": "B&M SAINT-DIZIER",
        "brand": "B&M",
        "brand:wikidata": "Q4836931",
        "brand:wikipedia": "en:B&M",
        "opening_hours": "Mo-Sa 09:00-19:00",
        "addr:housenumber": "",
        "addr:street": "ZC du Chêne St Amand",
        "addr:place": "",
        "addr:postcode": "52100",
        "addr:city": "Saint Dizier",
        "note": "ZC du Chêne St Amand 52100 SAINT DIZIER"
      }
    },
    {
      "type": "Feature",
      "geometry": {
        "type": "Point",
        "coordinates": [
          0.1822126,
          48.0304763
        ]
      },
      "properties": {
        "shop": "variety_store",
        "name": "B&M",
        "alt_name": "B&M LE MANS",
        "brand": "B&M",
        "brand:wikidata": "Q4836931",
        "brand:wikipedia": "en:B&M",
        "opening_hours": "Mo-Sa 09:00-19:30; Su 10:00-19:00",
        "addr:housenumber": "",
        "addr:street": "ZAC de l’Ardoise",
        "addr:place": "",
        "addr:postcode": "72000",
        "addr:city": "Le Mans",
        "note": "ZAC de l’Ardoise 72000 LE MANS"
      }
    },
    {
      "type": "Feature",
      "geometry": {
        "type": "Point",
        "coordinates": [
          1.371306,
          48.717224
        ]
      },
      "properties": {
        "shop": "variety_store",
        "name": "B&M",
        "alt_name": "B&M DREUX",
        "brand": "B&M",
        "brand:wikidata": "Q4836931",
        "brand:wikipedia": "en:B&M",
        "opening_hours": "09:00-19:00",
        "addr:housenumber": "8",
        "addr:street": "rue de Rome",
        "addr:place": "",
        "addr:postcode": "28500",
        "addr:city": "Vernouillet",
        "note": "8 rue de Rome 28500 VERNOUILLET"
      }
    },
    {
      "type": "Feature",
      "geometry": {
        "type": "Point",
        "coordinates": [
          2.2510173,
          48.9441685
        ]
      },
      "properties": {
        "shop": "variety_store",
        "name": "B&M",
        "alt_name": "B&M ARGENTEUIL",
        "brand": "B&M",
        "brand:wikidata": "Q4836931",
        "brand:wikipedia": "en:B&M",
        "opening_hours": "Mo-Sa 09:30-19:00; Su 10:00-18:45",
        "addr:housenumber": "27",
        "addr:street": "à 29 avenue Gabriel Péri",
        "addr:place": "",
        "addr:postcode": "95100",
        "addr:city": "Argenteuil",
        "note": "27 à 29 avenue Gabriel Péri 95100 ARGENTEUIL"
      }
    },
    {
      "type": "Feature",
      "geometry": {
        "type": "Point",
        "coordinates": [
          2.2942758,
          48.9621592
        ]
      },
      "properties": {
        "shop": "variety_store",
        "name": "B&M",
        "alt_name": "B&M EPINAY",
        "brand": "B&M",
        "brand:wikidata": "Q4836931",
        "brand:wikipedia": "en:B&M",
        "opening_hours": "Mo-Sa 09:30-19:00; Su 10:00-19:00",
        "addr:housenumber": "144",
        "addr:street": "avenue Maréchal Joffre",
        "addr:place": "",
        "addr:postcode": "93800",
        "addr:city": "Epinay",
        "note": "144 avenue Maréchal Joffre 93800 EPINAY"
      }
    },
    {
      "type": "Feature",
      "geometry": {
        "type": "Point",
        "coordinates": [
          2.3631485,
          48.9911476
        ]
      },
      "properties": {
        "shop": "variety_store",
        "name": "B&M",
        "alt_name": "B&M SAINT-BRICE",
        "brand": "B&M",
        "brand:wikidata": "Q4836931",
        "brand:wikipedia": "en:B&M",
        "opening_hours": "09:30-19:30",
        "addr:housenumber": "",
        "addr:street": "Avenue de la Division Leclerc",
        "addr:place": "ZA de La Chapelle Saint Nicolas",
        "addr:postcode": "95350",
        "addr:city": "Saint-Brice-Sous-Forêt",
        "note": "ZA de La Chapelle Saint Nicolas Avenue de la Division Leclerc 95350 SAINT-BRICE-SOUS-FORÊT"
      }
    },
    {
      "type": "Feature",
      "geometry": {
        "type": "Point",
        "coordinates": [
          2.19336,
          48.99466
        ]
      },
      "properties": {
        "shop": "variety_store",
        "name": "B&M",
        "alt_name": "B&M HERBLAY",
        "brand": "B&M",
        "brand:wikidata": "Q4836931",
        "brand:wikipedia": "en:B&M",
        "opening_hours": "Mo-Sa 09:30-19:30; Su 10:00-19:30",
        "addr:housenumber": "109",
        "addr:street": "boulevard Victor Bordier",
        "addr:place": "",
        "addr:postcode": "95370",
        "addr:city": "Montigny-Les-Cormeilles",
        "note": "109 boulevard Victor Bordier 95370 MONTIGNY-LES-CORMEILLES"
      }
    },
    {
      "type": "Feature",
      "geometry": {
        "type": "Point",
        "coordinates": [
          1.862714,
          48.967443
        ]
      },
      "properties": {
        "shop": "variety_store",
        "name": "B&M",
        "alt_name": "B&M FLINS",
        "brand": "B&M",
        "brand:wikidata": "Q4836931",
        "brand:wikipedia": "en:B&M",
        "opening_hours": "Mo-Sa 09:30-20:00; Su 10:00-19:00",
        "addr:housenumber": "",
        "addr:street": "Centre Commercial Flins",
        "addr:place": "",
        "addr:postcode": "78410",
        "addr:city": "Flins-Sur-Seine",
        "note": "Centre Commercial Flins 78410 FLINS-SUR-SEINE"
      }
    },
    {
      "type": "Feature",
      "geometry": {
        "type": "Point",
        "coordinates": [
          4.393966,
          48.944319
        ]
      },
      "properties": {
        "shop": "variety_store",
        "name": "B&M",
        "alt_name": "B&M SAINT MEMMIE",
        "brand": "B&M",
        "brand:wikidata": "Q4836931",
        "brand:wikipedia": "en:B&M",
        "opening_hours": "Mo-Sa 09:30-19:30; Su 10:00-19:00",
        "addr:housenumber": "20",
        "addr:street": "avenue Marc Hamet",
        "addr:place": "ZAC de Voitrelle",
        "addr:postcode": "51470",
        "addr:city": "Saint Memmie",
        "note": "20 avenue Marc Hamet ZAC de Voitrelle 51470 SAINT MEMMIE"
      }
    },
    {
      "type": "Feature",
      "geometry": {
        "type": "Point",
        "coordinates": [
          2.12088,
          49.0558
        ]
      },
      "properties": {
        "shop": "variety_store",
        "name": "B&M",
        "alt_name": "B&M SAINT-OUEN-L'AUMÔNE",
        "brand": "B&M",
        "brand:wikidata": "Q4836931",
        "brand:wikipedia": "en:B&M",
        "opening_hours": "Mo-Sa 09:00-19:30; Su 10:00-19:00",
        "addr:housenumber": "15",
        "addr:street": "Rue d'Epluches",
        "addr:place": "",
        "addr:postcode": "95310",
        "addr:city": "Saint-Ouen-L'Aumône",
        "note": "15 Rue d'Epluches 95310 SAINT-OUEN-L'AUMÔNE"
      }
    },
    {
      "type": "Feature",
      "geometry": {
        "type": "Point",
        "coordinates": [
          1.6885876,
          48.9787115
        ]
      },
      "properties": {
        "shop": "variety_store",
        "name": "B&M",
        "alt_name": "B&M MANTES LA VILLE",
        "brand": "B&M",
        "brand:wikidata": "Q4836931",
        "brand:wikipedia": "en:B&M",
        "opening_hours": "Mo-Sa 09:30-19:30; Su 10:00-19:00",
        "addr:housenumber": "",
        "addr:street": "Rue de l'Ouest",
        "addr:place": "Centre Commercial Auchan Buchelay",
        "addr:postcode": "78711",
        "addr:city": "Mantes La Ville",
        "note": "Centre Commercial Auchan Buchelay Rue de l'Ouest 78711 MANTES LA VILLE"
      }
    },
    {
      "type": "Feature",
      "geometry": {
        "type": "Point",
        "coordinates": [
          2.077446,
          49.0761149
        ]
      },
      "properties": {
        "shop": "variety_store",
        "name": "B&M",
        "alt_name": "B&M OSNY",
        "brand": "B&M",
        "brand:wikidata": "Q4836931",
        "brand:wikipedia": "en:B&M",
        "opening_hours": "Mo-Sa 09:30-19:30; Su 10:00-19:00",
        "addr:housenumber": "",
        "addr:street": "Parc d'Activités l'Oseraie",
        "addr:place": "Centre Commercial Auchan",
        "addr:postcode": "95520",
        "addr:city": "Osny",
        "note": "Parc d'Activités l'Oseraie Centre Commercial Auchan 95520 OSNY"
      }
    },
    {
      "type": "Feature",
      "geometry": {
        "type": "Point",
        "coordinates": [
          -0.624694,
          47.486055
        ]
      },
      "properties": {
        "shop": "variety_store",
        "name": "B&M",
        "alt_name": "B&M ANGERS",
        "brand": "B&M",
        "brand:wikidata": "Q4836931",
        "brand:wikipedia": "en:B&M",
        "opening_hours": "Mo-Sa 09:30-20:00; Su 14:00-19:00",
        "addr:housenumber": "",
        "addr:street": "Centre Commercial l'ATOLL",
        "addr:place": "Eco-parc Du Buisson",
        "addr:postcode": "49070",
        "addr:city": "Beaucouze",
        "note": "Centre Commercial l'ATOLL Eco-parc Du Buisson 49070 BEAUCOUZE"
      }
    },
    {
      "type": "Feature",
      "geometry": {
        "type": "Point",
        "coordinates": [
          -0.835099,
          47.075199
        ]
      },
      "properties": {
        "shop": "variety_store",
        "name": "B&M",
        "alt_name": "B&M CHOLET",
        "brand": "B&M",
        "brand:wikidata": "Q4836931",
        "brand:wikipedia": "en:B&M",
        "opening_hours": "Mo-Sa 09:30-19:30",
        "addr:housenumber": "7",
        "addr:street": "Rue Sorel-Tracy",
        "addr:place": "Centre Commercial L’Autre Faubourg",
        "addr:postcode": "49300",
        "addr:city": "Cholet",
        "note": "Centre Commercial L’Autre Faubourg 7 Rue Sorel-Tracy 49300 CHOLET"
      }
    },
    {
      "type": "Feature",
      "geometry": {
        "type": "Point",
        "coordinates": [
          1.1891137,
          48.980111
        ]
      },
      "properties": {
        "shop": "variety_store",
        "name": "B&M",
        "alt_name": "B&M EVREUX",
        "brand": "B&M",
        "brand:wikidata": "Q4836931",
        "brand:wikipedia": "en:B&M",
        "opening_hours": "Mo-Sa 09:30-20:00; Su 10:00-19:00",
        "addr:housenumber": "",
        "addr:street": "RN13 - Centre Commercial Carrefour du Grand EVREUX",
        "addr:place": "",
        "addr:postcode": "27930",
        "addr:city": "Guichainville",
        "note": "RN13 - Centre Commercial Carrefour du Grand EVREUX 27930 GUICHAINVILLE"
      }
    },
    {
      "type": "Feature",
      "geometry": {
        "type": "Point",
        "coordinates": [
          4.8823929,
          43.98948
        ]
      },
      "properties": {
        "shop": "variety_store",
        "name": "B&M",
        "alt_name": "B&M SORGUES",
        "brand": "B&M",
        "brand:wikidata": "Q4836931",
        "brand:wikipedia": "en:B&M",
        "opening_hours": "Mo-Sa 09:30-18:45; Su 10:00-18:45",
        "addr:housenumber": "",
        "addr:street": "Centre Commercial du Pontet",
        "addr:place": "ZAC Porte du Vaucluse - Chemin des Daulands",
        "addr:postcode": "84700",
        "addr:city": "Sorgues",
        "note": "Centre Commercial du Pontet ZAC Porte du Vaucluse - Chemin des Daulands 84700 SORGUES"
      }
    },
    {
      "type": "Feature",
      "geometry": {
        "type": "Point",
        "coordinates": [
          4.04262,
          49.21279
        ]
      },
      "properties": {
        "shop": "variety_store",
        "name": "B&M",
        "alt_name": "B&M CORMONTREUIL",
        "brand": "B&M",
        "brand:wikidata": "Q4836931",
        "brand:wikipedia": "en:B&M",
        "opening_hours": "Mo-Sa 09:00-19:30; Su 10:00-19:00",
        "addr:housenumber": "",
        "addr:street": "rue Benjamin Péret",
        "addr:place": "",
        "addr:postcode": "51350",
        "addr:city": "Cormontreuil",
        "note": "rue Benjamin Péret 51350 CORMONTREUIL"
      }
    },
    {
      "type": "Feature",
      "geometry": {
        "type": "Point",
        "coordinates": [
          2.483247,
          49.268967
        ]
      },
      "properties": {
        "shop": "variety_store",
        "name": "B&M",
        "alt_name": "B&M CREIL",
        "brand": "B&M",
        "brand:wikidata": "Q4836931",
        "brand:wikipedia": "en:B&M",
        "opening_hours": "Mo-Sa 09:00-19:00; Su 10:00-18:00",
        "addr:housenumber": "1",
        "addr:street": "avenue de l'Europe",
        "addr:place": "",
        "addr:postcode": "60100",
        "addr:city": "Creil",
        "note": "1 avenue de l'Europe 60100 CREIL"
      }
    },
    {
      "type": "Feature",
      "geometry": {
        "type": "Point",
        "coordinates": [
          4.3501698,
          43.812873
        ]
      },
      "properties": {
        "shop": "variety_store",
        "name": "B&M",
        "alt_name": "B&M NIMES",
        "brand": "B&M",
        "brand:wikidata": "Q4836931",
        "brand:wikipedia": "en:B&M",
        "opening_hours": "Mo-Sa 09:00-19:00; Su 10:00-19:00",
        "addr:housenumber": "230",
        "addr:street": "Avenue Jean Prouvé",
        "addr:place": "",
        "addr:postcode": "30000",
        "addr:city": "Nîmes",
        "note": "230 Avenue Jean Prouvé 30000 Nîmes"
      }
    },
    {
      "type": "Feature",
      "geometry": {
        "type": "Point",
        "coordinates": [
          6.4267143,
          48.2044459
        ]
      },
      "properties": {
        "shop": "variety_store",
        "name": "B&M",
        "alt_name": "B&M EPINAL",
        "brand": "B&M",
        "brand:wikidata": "Q4836931",
        "brand:wikipedia": "en:B&M",
        "opening_hours": "Mo-Sa 09:00-19:00; Su 09:30-12:00,13:30-18:30",
        "addr:housenumber": "",
        "addr:street": "Rue du Général Leclerc",
        "addr:place": "Centre Commercial Leclerc",
        "addr:postcode": "88190",
        "addr:city": "Golbey",
        "note": "Centre Commercial Leclerc Rue du Général Leclerc 88190 GOLBEY"
      }
    },
    {
      "type": "Feature",
      "geometry": {
        "type": "Point",
        "coordinates": [
          6.913997,
          47.640951
        ]
      },
      "properties": {
        "shop": "variety_store",
        "name": "B&M",
        "alt_name": "B&M BESSONCOURT",
        "brand": "B&M",
        "brand:wikidata": "Q4836931",
        "brand:wikipedia": "en:B&M",
        "opening_hours": "Mo-Sa 09:30-19:30; Su 10:00-18:00",
        "addr:housenumber": "",
        "addr:street": "Centre Commercial AUCHAN",
        "addr:place": "Zone de la Porte des Vosges, 1 route du Stratégiquer",
        "addr:postcode": "90160",
        "addr:city": "Bessoncourt",
        "note": "Centre Commercial AUCHAN Zone de la Porte des Vosges, 1 route du Stratégiquer 90160 BESSONCOURT"
      }
    },
    {
      "type": "Feature",
      "geometry": {
        "type": "Point",
        "coordinates": [
          4.0052891,
          49.2795925
        ]
      },
      "properties": {
        "shop": "variety_store",
        "name": "B&M",
        "alt_name": "B&M REIMS",
        "brand": "B&M",
        "brand:wikidata": "Q4836931",
        "brand:wikipedia": "en:B&M",
        "opening_hours": "Mo-Sa 09:00-19:00; Su 10:00-19:00",
        "addr:housenumber": "",
        "addr:street": "Rue de Bernex",
        "addr:place": "Lieu dit La Croix Maurencienne",
        "addr:postcode": "51370",
        "addr:city": "Saint Brice Courcelles",
        "note": "Lieu dit La Croix Maurencienne Rue de Bernex 51370 SAINT BRICE COURCELLES"
      }
    },
    {
      "type": "Feature",
      "geometry": {
        "type": "Point",
        "coordinates": [
          3.956298,
          43.682962
        ]
      },
      "properties": {
        "shop": "variety_store",
        "name": "B&M",
        "alt_name": "B&M PEROLS",
        "brand": "B&M",
        "brand:wikidata": "Q4836931",
        "brand:wikipedia": "en:B&M",
        "opening_hours": "Mo-Sa 09:00-19:00; Su 10:00-19:00",
        "addr:housenumber": "",
        "addr:street": "ZAC Fenouillet",
        "addr:place": "",
        "addr:postcode": "34470",
        "addr:city": "Perols",
        "note": "ZAC Fenouillet 34470 PEROLS"
      }
    },
    {
      "type": "Feature",
      "geometry": {
        "type": "Point",
        "coordinates": [
          0.63378,
          44.17633
        ]
      },
      "properties": {
        "shop": "variety_store",
        "name": "B&M",
        "alt_name": "B&M BOÉ",
        "brand": "B&M",
        "brand:wikidata": "Q4836931",
        "brand:wikipedia": "en:B&M",
        "opening_hours": "Mo-Sa 09:30-19:30; Su 10:00-12:30,14:00-19:00",
        "addr:housenumber": "31",
        "addr:street": "Imp. de Fabas",
        "addr:place": "",
        "addr:postcode": "47550",
        "addr:city": "Boé",
        "note": "31 Imp. de Fabas 47550 BOÉ"
      }
    },
    {
      "type": "Feature",
      "geometry": {
        "type": "Point",
        "coordinates": [
          3.9342953,
          43.6539137
        ]
      },
      "properties": {
        "shop": "variety_store",
        "name": "B&M",
        "alt_name": "B&M MONTPELLIER",
        "brand": "B&M",
        "brand:wikidata": "Q4836931",
        "brand:wikipedia": "en:B&M",
        "opening_hours": "Mo-Sa 09:00-19:00",
        "addr:housenumber": "",
        "addr:street": "n° 1010 RN 113",
        "addr:place": "",
        "addr:postcode": "34920",
        "addr:city": "Le Cres",
        "note": "n° 1010 RN 113 34920 LE CRES"
      }
    },
    {
      "type": "Feature",
      "geometry": {
        "type": "Point",
        "coordinates": [
          -1.107353,
          46.176955
        ]
      },
      "properties": {
        "shop": "variety_store",
        "name": "B&M",
        "alt_name": "B&M LA ROCHELLE",
        "brand": "B&M",
        "brand:wikidata": "Q4836931",
        "brand:wikipedia": "en:B&M",
        "opening_hours": "Mo-Sa 09:00-19:00; Su 13:00-19:00",
        "addr:housenumber": "",
        "addr:street": "rue du 18 juin",
        "addr:place": "",
        "addr:postcode": "17138",
        "addr:city": "Puilboreau",
        "note": "rue du 18 juin 17138 PUILBOREAU"
      }
    },
    {
      "type": "Feature",
      "geometry": {
        "type": "Point",
        "coordinates": [
          -0.485653,
          44.91037
        ]
      },
      "properties": {
        "shop": "variety_store",
        "name": "B&M",
        "alt_name": "B&M BORDEAUX",
        "brand": "B&M",
        "brand:wikidata": "Q4836931",
        "brand:wikipedia": "en:B&M",
        "opening_hours": "Mo-Sa 09:30-19:30; Su 10:00-12:00,14:00-19:00",
        "addr:housenumber": "",
        "addr:street": "Rue Signoret",
        "addr:place": "Centre Commercial Grand Tour II",
        "addr:postcode": "33560",
        "addr:city": "Sainte Eulalie",
        "note": "Centre Commercial Grand Tour II Rue Signoret 33560 SAINTE EULALIE"
      }
    },
    {
      "type": "Feature",
      "geometry": {
        "type": "Point",
        "coordinates": [
          2.212758,
          43.592293
        ]
      },
      "properties": {
        "shop": "variety_store",
        "name": "B&M",
        "alt_name": "B&M CASTRES",
        "brand": "B&M",
        "brand:wikidata": "Q4836931",
        "brand:wikipedia": "en:B&M",
        "opening_hours": "Mo-Sa 09:30-19:00; Su 13:00-19:00",
        "addr:housenumber": "55",
        "addr:street": "Route de Toulouse",
        "addr:place": "",
        "addr:postcode": "81100",
        "addr:city": "Castres",
        "note": "55 Route de Toulouse 81100 CASTRES"
      }
    },
    {
      "type": "Feature",
      "geometry": {
        "type": "Point",
        "coordinates": [
          2.11962,
          49.40951
        ]
      },
      "properties": {
        "shop": "variety_store",
        "name": "B&M",
        "alt_name": "B&M BEAUVAIS",
        "brand": "B&M",
        "brand:wikidata": "Q4836931",
        "brand:wikipedia": "en:B&M",
        "opening_hours": "Mo-Sa 09:00-19:00; Su 10:00-19:00",
        "addr:housenumber": "5",
        "addr:street": "rue Théodore Monod",
        "addr:place": "",
        "addr:postcode": "60000",
        "addr:city": "Allonne",
        "note": "5 rue Théodore Monod 60000 ALLONNE"
      }
    },
    {
      "type": "Feature",
      "geometry": {
        "type": "Point",
        "coordinates": [
          6.2449229,
          48.710339
        ]
      },
      "properties": {
        "shop": "variety_store",
        "name": "B&M",
        "alt_name": "B&M NANCY",
        "brand": "B&M",
        "brand:wikidata": "Q4836931",
        "brand:wikipedia": "en:B&M",
        "opening_hours": "Mo-Sa 09:00-19:00; Su 10:00-12:00,14:00-19:00",
        "addr:housenumber": "",
        "addr:street": "Rue Georges Brassens",
        "addr:place": "La Porte Verte II",
        "addr:postcode": "54270",
        "addr:city": "Essey Les Nancy",
        "note": "La Porte Verte II Rue Georges Brassens 54270 ESSEY LES NANCY"
      }
    },
    {
      "type": "Feature",
      "geometry": {
        "type": "Point",
        "coordinates": [
          -1.4365911,
          46.6415109
        ]
      },
      "properties": {
        "shop": "variety_store",
        "name": "B&M",
        "alt_name": "B&M LA ROCHE-SUR-YON",
        "brand": "B&M",
        "brand:wikidata": "Q4836931",
        "brand:wikipedia": "en:B&M",
        "opening_hours": "Mo-Sa 09:30-19:15; Su 13:30-18:30",
        "addr:housenumber": "",
        "addr:street": "ZAC La Roche Sud",
        "addr:place": "Parc commercial Sud Avenue",
        "addr:postcode": "85000",
        "addr:city": "La Roche-Sur-Yon",
        "note": "ZAC La Roche Sud Parc commercial Sud Avenue 85000 LA ROCHE-SUR-YON"
      }
    },
    {
      "type": "Feature",
      "geometry": {
        "type": "Point",
        "coordinates": [
          1.307592,
          43.611355
        ]
      },
      "properties": {
        "shop": "variety_store",
        "name": "B&M",
        "alt_name": "B&M COLOMIERS",
        "brand": "B&M",
        "brand:wikidata": "Q4836931",
        "brand:wikipedia": "en:B&M",
        "opening_hours": "10:00-19:00",
        "addr:housenumber": "3",
        "addr:street": "rue Pierre Simon Laplace",
        "addr:place": "ZAC du Perget",
        "addr:postcode": "31770",
        "addr:city": "Colomiers",
        "note": "ZAC du Perget 3 rue Pierre Simon Laplace 31770 COLOMIERS"
      }
    },
    {
      "type": "Feature",
      "geometry": {
        "type": "Point",
        "coordinates": [
          1.1058541,
          49.3660874
        ]
      },
      "properties": {
        "shop": "variety_store",
        "name": "B&M",
        "alt_name": "B&M ROUEN",
        "brand": "B&M",
        "brand:wikidata": "Q4836931",
        "brand:wikipedia": "en:B&M",
        "opening_hours": "Mo-Sa 09:30-19:30; Su 10:00-19:00",
        "addr:housenumber": "77",
        "addr:street": "rue du Docteur Cottoni",
        "addr:place": "",
        "addr:postcode": "76800",
        "addr:city": "Saint Etienne Du Rouvray",
        "note": "77 rue du Docteur Cottoni 76800 SAINT ETIENNE DU ROUVRAY"
      }
    },
    {
      "type": "Feature",
      "geometry": {
        "type": "Point",
        "coordinates": [
          7.3153439,
          47.7901427
        ]
      },
      "properties": {
        "shop": "variety_store",
        "name": "B&M",
        "alt_name": "B&M KINGERSHEIM",
        "brand": "B&M",
        "brand:wikidata": "Q4836931",
        "brand:wikipedia": "en:B&M",
        "opening_hours": "Mo-Sa 09:00-19:00",
        "addr:housenumber": "91",
        "addr:street": "rue Guebwiller",
        "addr:place": "",
        "addr:postcode": "68260",
        "addr:city": "Kingersheim",
        "note": "91 rue Guebwiller 68260 KINGERSHEIM"
      }
    },
    {
      "type": "Feature",
      "geometry": {
        "type": "Point",
        "coordinates": [
          1.3734412,
          43.5158171
        ]
      },
      "properties": {
        "shop": "variety_store",
        "name": "B&M",
        "alt_name": "B&M ROQUES",
        "brand": "B&M",
        "brand:wikidata": "Q4836931",
        "brand:wikipedia": "en:B&M",
        "opening_hours": "Mo-Fr 09:30-19:00; Sa 09:30-19:30; Su 10:00-19:00",
        "addr:housenumber": "",
        "addr:street": "Centre Commercial Le Roque",
        "addr:place": "",
        "addr:postcode": "31120",
        "addr:city": "Roques",
        "note": "Centre Commercial Le Roque 31120 ROQUES"
      }
    },
    {
      "type": "Feature",
      "geometry": {
        "type": "Point",
        "coordinates": [
          6.1197065,
          49.0562577
        ]
      },
      "properties": {
        "shop": "variety_store",
        "name": "B&M",
        "alt_name": "B&M METZ",
        "brand": "B&M",
        "brand:wikidata": "Q4836931",
        "brand:wikipedia": "en:B&M",
        "opening_hours": "Mo-Sa 09:00-19:00",
        "addr:housenumber": "",
        "addr:street": "Chemin Départemental 157 C",
        "addr:place": "ZI Actisud",
        "addr:postcode": "57685",
        "addr:city": "Augny",
        "note": "ZI Actisud Chemin Départemental 157 C 57685 AUGNY"
      }
    },
    {
      "type": "Feature",
      "geometry": {
        "type": "Point",
        "coordinates": [
          2.365696,
          43.236141
        ]
      },
      "properties": {
        "shop": "variety_store",
        "name": "B&M",
        "alt_name": "B&M CARCASSONNE",
        "brand": "B&M",
        "brand:wikidata": "Q4836931",
        "brand:wikipedia": "en:B&M",
        "opening_hours": "Mo-Sa 09:00-19:00; Su 10:00-12:00,14:00-19:00",
        "addr:housenumber": "",
        "addr:street": "Centre Commercial Intermarché Zone Commerciale du Pont Rouge",
        "addr:place": "",
        "addr:postcode": "11000",
        "addr:city": "Carcassonne",
        "note": "Centre Commercial Intermarché Zone Commerciale du Pont Rouge 11000 CARCASSONNE"
      }
    },
    {
      "type": "Feature",
      "geometry": {
        "type": "Point",
        "coordinates": [
          3.030382,
          43.176445
        ]
      },
      "properties": {
        "shop": "variety_store",
        "name": "B&M",
        "alt_name": "B&M NARBONNE",
        "brand": "B&M",
        "brand:wikidata": "Q4836931",
        "brand:wikipedia": "en:B&M",
        "opening_hours": "Mo-Sa 09:30-19:00; Su 13:30-18:00",
        "addr:housenumber": "",
        "addr:street": "Rue Alfred Chauchard",
        "addr:place": "Zac Bonne Source",
        "addr:postcode": "11100",
        "addr:city": "Narbonne",
        "note": "Zac Bonne Source Rue Alfred Chauchard 11100 NARBONNE"
      }
    },
    {
      "type": "Feature",
      "geometry": {
        "type": "Point",
        "coordinates": [
          5.0130453,
          43.4558556
        ]
      },
      "properties": {
        "shop": "variety_store",
        "name": "B&M",
        "alt_name": "B&M MARTIGUES",
        "brand": "B&M",
        "brand:wikidata": "Q4836931",
        "brand:wikipedia": "en:B&M",
        "opening_hours": "Mo-Sa 09:30-19:00; Su 10:00-12:00,14:00-18:45",
        "addr:housenumber": "",
        "addr:street": "ZAC des Etangs",
        "addr:place": "",
        "addr:postcode": "13920",
        "addr:city": "Saint Mitre Les Remparts",
        "note": "ZAC des Etangs 13920 SAINT MITRE LES REMPARTS"
      }
    },
    {
      "type": "Feature",
      "geometry": {
        "type": "Point",
        "coordinates": [
          7.4075491,
          48.0728583
        ]
      },
      "properties": {
        "shop": "variety_store",
        "name": "B&M",
        "alt_name": "B&M COLMAR",
        "brand": "B&M",
        "brand:wikidata": "Q4836931",
        "brand:wikipedia": "en:B&M",
        "opening_hours": "Mo-Sa 09:00-19:00",
        "addr:housenumber": "",
        "addr:street": "Route de Neuf-Brisach - D418",
        "addr:place": "",
        "addr:postcode": "68180",
        "addr:city": "Horbourg-Wihr",
        "note": "Route de Neuf-Brisach - D418 68180 HORBOURG-WIHR"
      }
    },
    {
      "type": "Feature",
      "geometry": {
        "type": "Point",
        "coordinates": [
          3.248305,
          49.857875
        ]
      },
      "properties": {
        "shop": "variety_store",
        "name": "B&M",
        "alt_name": "B&M SAINT-QUENTIN",
        "brand": "B&M",
        "brand:wikidata": "Q4836931",
        "brand:wikipedia": "en:B&M",
        "opening_hours": "Mo-Sa 09:00-19:00; Su 10:00-19:00",
        "addr:housenumber": "",
        "addr:street": "Centre Commercial Auchan",
        "addr:place": "RN 29",
        "addr:postcode": "02100",
        "addr:city": "Fayet",
        "note": "Centre Commercial Auchan RN 29 02100 FAYET"
      }
    },
    {
      "type": "Feature",
      "geometry": {
        "type": "Point",
        "coordinates": [
          6.1487686,
          49.207198
        ]
      },
      "properties": {
        "shop": "variety_store",
        "name": "B&M",
        "alt_name": "B&M MAIZIERES",
        "brand": "B&M",
        "brand:wikidata": "Q4836931",
        "brand:wikipedia": "en:B&M",
        "opening_hours": "Mo-Sa 09:00-19:00",
        "addr:housenumber": "",
        "addr:street": "Centre Commercial Auchan",
        "addr:place": "RD 112 E Voie Romaine",
        "addr:postcode": "57280",
        "addr:city": "Semecourt",
        "note": "Centre Commercial Auchan RD 112 E Voie Romaine 57280 SEMECOURT"
      }
    },
    {
      "type": "Feature",
      "geometry": {
        "type": "Point",
        "coordinates": [
          5.3497397,
          43.4175145
        ]
      },
      "properties": {
        "shop": "variety_store",
        "name": "B&M",
        "alt_name": "B&M PLAN DE CAMPAGNE",
        "brand": "B&M",
        "brand:wikidata": "Q4836931",
        "brand:wikipedia": "en:B&M",
        "opening_hours": "09:30-19:00",
        "addr:housenumber": "",
        "addr:street": "Bât C - ZC Plan de Campagne",
        "addr:place": "",
        "addr:postcode": "13170",
        "addr:city": "Les Pennes Mirabeau",
        "note": "Bât C - ZC Plan de Campagne 13170 LES PENNES MIRABEAU"
      }
    },
    {
      "type": "Feature",
      "geometry": {
        "type": "Point",
        "coordinates": [
          -0.3031608,
          49.1593695
        ]
      },
      "properties": {
        "shop": "variety_store",
        "name": "B&M",
        "alt_name": "B&M CAEN",
        "brand": "B&M",
        "brand:wikidata": "Q4836931",
        "brand:wikipedia": "en:B&M",
        "opening_hours": "Mo-Sa 09:30-19:30; Su 11:00-19:00",
        "addr:housenumber": "",
        "addr:street": "Centre commercial MONDEVILLAGE",
        "addr:place": "ZA Henri Spriet - Rue Joseph Jacquard",
        "addr:postcode": "14120",
        "addr:city": "Mondeville",
        "note": "Centre commercial MONDEVILLAGE ZA Henri Spriet - Rue Joseph Jacquard 14120 MONDEVILLE"
      }
    },
    {
      "type": "Feature",
      "geometry": {
        "type": "Point",
        "coordinates": [
          5.3677844,
          43.3628362
        ]
      },
      "properties": {
        "shop": "variety_store",
        "name": "B&M",
        "alt_name": "B&M MARSEILLE",
        "brand": "B&M",
        "brand:wikidata": "Q4836931",
        "brand:wikipedia": "en:B&M",
        "opening_hours": "Mo-Sa 09:30-19:00",
        "addr:housenumber": "",
        "addr:street": "Centre Commercial Grand Littoral",
        "addr:place": "ZAC Saint André BP 326",
        "addr:postcode": "13015",
        "addr:city": "Marseille",
        "note": "Centre Commercial Grand Littoral ZAC Saint André BP 326 13015 MARSEILLE"
      }
    },
    {
      "type": "Feature",
      "geometry": {
        "type": "Point",
        "coordinates": [
          0.2243185,
          49.5054538
        ]
      },
      "properties": {
        "shop": "variety_store",
        "name": "B&M",
        "alt_name": "B&M LE HAVRE",
        "brand": "B&M",
        "brand:wikidata": "Q4836931",
        "brand:wikipedia": "en:B&M",
        "opening_hours": "Mo-Sa 09:30-19:30; Su 10:00-19:00",
        "addr:housenumber": "",
        "addr:street": "ZAC du Campdolent Cantipou",
        "addr:place": "Centre Commercial Océane",
        "addr:postcode": "76700",
        "addr:city": "Gonfreville",
        "note": "ZAC du Campdolent Cantipou Centre Commercial Océane 76700 GONFREVILLE"
      }
    },
    {
      "type": "Feature",
      "geometry": {
        "type": "Point",
        "coordinates": [
          -1.725008,
          48.10737
        ]
      },
      "properties": {
        "shop": "variety_store",
        "name": "B&M",
        "alt_name": "B&M RENNES",
        "brand": "B&M",
        "brand:wikidata": "Q4836931",
        "brand:wikipedia": "en:B&M",
        "opening_hours": "Mo-Sa 09:30-19:30; Su 10:00-19:00",
        "addr:housenumber": "1",
        "addr:street": "rue de la Barre Thomas",
        "addr:place": "",
        "addr:postcode": "35000",
        "addr:city": "Rennes",
        "note": "1 rue de la Barre Thomas 35000 RENNES"
      }
    },
    {
      "type": "Feature",
      "geometry": {
        "type": "Point",
        "coordinates": [
          -2.2049379,
          47.3152507
        ]
      },
      "properties": {
        "shop": "variety_store",
        "name": "B&M",
        "alt_name": "B&M SAINT-NAZAIRE",
        "brand": "B&M",
        "brand:wikidata": "Q4836931",
        "brand:wikipedia": "en:B&M",
        "opening_hours": "Mo-Sa 09:00-19:00; Su 14:00-19:00",
        "addr:housenumber": "",
        "addr:street": "Rue de la Roselière",
        "addr:place": "ZA de Savine",
        "addr:postcode": "44570",
        "addr:city": "Trignac",
        "note": "ZA de Savine Rue de la Roselière 44570 TRIGNAC"
      }
    },
    {
      "type": "Feature",
      "geometry": {
        "type": "Point",
        "coordinates": [
          7.6910494,
          48.5013887
        ]
      },
      "properties": {
        "shop": "variety_store",
        "name": "B&M",
        "alt_name": "B&M STRASBOURG",
        "brand": "B&M",
        "brand:wikidata": "Q4836931",
        "brand:wikipedia": "en:B&M",
        "opening_hours": "Mo-Sa 08:30-19:30",
        "addr:housenumber": "",
        "addr:street": "RN 83",
        "addr:place": "",
        "addr:postcode": "67640",
        "addr:city": "Fegersheim",
        "note": "RN 83 67640 FEGERSHEIM"
      }
    },
    {
      "type": "Feature",
      "geometry": {
        "type": "Point",
        "coordinates": [
          6.8910075,
          49.1804394
        ]
      },
      "properties": {
        "shop": "variety_store",
        "name": "B&M",
        "alt_name": "B&M FORBACH",
        "brand": "B&M",
        "brand:wikidata": "Q4836931",
        "brand:wikipedia": "en:B&M",
        "opening_hours": "Mo-Sa 09:00-19:00",
        "addr:housenumber": "",
        "addr:street": "Rue de guise",
        "addr:place": "",
        "addr:postcode": "57600",
        "addr:city": "Forbach",
        "note": "Rue de guise 57600 FORBACH"
      }
    },
    {
      "type": "Feature",
      "geometry": {
        "type": "Point",
        "coordinates": [
          2.9054546,
          42.6868362
        ]
      },
      "properties": {
        "shop": "variety_store",
        "name": "B&M",
        "alt_name": "B&M PERPIGNAN",
        "brand": "B&M",
        "brand:wikidata": "Q4836931",
        "brand:wikipedia": "en:B&M",
        "opening_hours": "Mo-Sa 09:00-19:00; Su 09:00-18:30",
        "addr:housenumber": "75",
        "addr:street": "Avenue du Maréchal Koeing",
        "addr:place": "Angle boulevard kennedy",
        "addr:postcode": "66000",
        "addr:city": "Perpignan",
        "note": "75 Avenue du Maréchal Koeing Angle boulevard kennedy 66000 PERPIGNAN"
      }
    },
    {
      "type": "Feature",
      "geometry": {
        "type": "Point",
        "coordinates": [
          3.931435,
          50.258254
        ]
      },
      "properties": {
        "shop": "variety_store",
        "name": "B&M",
        "alt_name": "B&M MAUBEUGE",
        "brand": "B&M",
        "brand:wikidata": "Q4836931",
        "brand:wikipedia": "en:B&M",
        "opening_hours": "Mo-Sa 09:30-19:00; Su 10:00-19:00",
        "addr:housenumber": "125",
        "addr:street": "bd John Cockerill",
        "addr:place": "« L’ESCALE Hautmont-Val de Sambre »",
        "addr:postcode": "59330",
        "addr:city": "Hautmont",
        "note": "125 bd John Cockerill « L’ESCALE Hautmont-Val de Sambre » 59330 HAUTMONT"
      }
    },
    {
      "type": "Feature",
      "geometry": {
        "type": "Point",
        "coordinates": [
          7.72067,
          48.65965
        ]
      },
      "properties": {
        "shop": "variety_store",
        "name": "B&M",
        "alt_name": "B&M VENDENHEIM",
        "brand": "B&M",
        "brand:wikidata": "Q4836931",
        "brand:wikipedia": "en:B&M",
        "opening_hours": "",
        "addr:housenumber": "34",
        "addr:street": "Route de Strasbourg",
        "addr:place": "",
        "addr:postcode": "67550",
        "addr:city": "Vendenheim",
        "note": "34 Route de Strasbourg 67550 VENDENHEIM"
      }
    },
    {
      "type": "Feature",
      "geometry": {
        "type": "Point",
        "coordinates": [
          2.734163,
          50.300402
        ]
      },
      "properties": {
        "shop": "variety_store",
        "name": "B&M",
        "alt_name": "B&M ARRAS",
        "brand": "B&M",
        "brand:wikidata": "Q4836931",
        "brand:wikipedia": "en:B&M",
        "opening_hours": "Mo-Th 09:00-19:00; Fr-Sa 09:00-19:30; Su 10:00-18:30",
        "addr:housenumber": "",
        "addr:street": "Avenue Winston Churchill",
        "addr:place": "Centre Commercial AUCHAN",
        "addr:postcode": "62000",
        "addr:city": "Arras",
        "note": "Avenue Winston Churchill Centre Commercial AUCHAN 62000 ARRAS"
      }
    },
    {
      "type": "Feature",
      "geometry": {
        "type": "Point",
        "coordinates": [
          3.4887517,
          50.3468455
        ]
      },
      "properties": {
        "shop": "variety_store",
        "name": "B&M",
        "alt_name": "B&M LA SENTINELLE",
        "brand": "B&M",
        "brand:wikidata": "Q4836931",
        "brand:wikipedia": "en:B&M",
        "opening_hours": "Mo-Sa 09:00-19:00; Su 10:00-19:00",
        "addr:housenumber": "",
        "addr:street": "Rue Gambetta",
        "addr:place": "Zone Commerciale du Vignoble",
        "addr:postcode": "59174",
        "addr:city": "La Sentinelle",
        "note": "Zone Commerciale du Vignoble Rue Gambetta 59174 LA SENTINELLE"
      }
    },
    {
      "type": "Feature",
      "geometry": {
        "type": "Point",
        "coordinates": [
          2.9811144,
          50.4128113
        ]
      },
      "properties": {
        "shop": "variety_store",
        "name": "B&M",
        "alt_name": "B&M NOYELLES GODAULT",
        "brand": "B&M",
        "brand:wikidata": "Q4836931",
        "brand:wikipedia": "en:B&M",
        "opening_hours": "Mo-Sa 09:00-19:00; Su 10:00-19:00",
        "addr:housenumber": "",
        "addr:street": "Centre Commercial Auchan",
        "addr:place": "RN 43",
        "addr:postcode": "62950",
        "addr:city": "Noyelles Godault",
        "note": "Centre Commercial Auchan RN 43 62950 NOYELLES GODAULT"
      }
    },
    {
      "type": "Feature",
      "geometry": {
        "type": "Point",
        "coordinates": [
          5.983561,
          43.1378709
        ]
      },
      "properties": {
        "shop": "variety_store",
        "name": "B&M",
        "alt_name": "B&M TOULON",
        "brand": "B&M",
        "brand:wikidata": "Q4836931",
        "brand:wikipedia": "en:B&M",
        "opening_hours": "Mo-Sa 09:00-19:00; Su 09:30-19:00",
        "addr:housenumber": "",
        "addr:street": "Centre Commercial \"Grand Var\"",
        "addr:place": "Lieu dit Chateau Redon - BAT B",
        "addr:postcode": "83160",
        "addr:city": "La Valette Du Var",
        "note": "Centre Commercial \"Grand Var\" Lieu dit Chateau Redon - BAT B 83160 LA VALETTE DU VAR"
      }
    },
    {
      "type": "Feature",
      "geometry": {
        "type": "Point",
        "coordinates": [
          7.831383,
          48.807515
        ]
      },
      "properties": {
        "shop": "variety_store",
        "name": "B&M",
        "alt_name": "B&M HAGUENAU",
        "brand": "B&M",
        "brand:wikidata": "Q4836931",
        "brand:wikipedia": "en:B&M",
        "opening_hours": "Mo-Sa 08:30-19:30",
        "addr:housenumber": "",
        "addr:street": "Rue du Kestlerhof",
        "addr:place": "C.C. L'Arboiseau",
        "addr:postcode": "67500",
        "addr:city": "Haguenau",
        "note": "C.C. L'Arboiseau Rue du Kestlerhof 67500 HAGUENAU"
      }
    },
    {
      "type": "Feature",
      "geometry": {
        "type": "Point",
        "coordinates": [
          2.8296034,
          50.46497
        ]
      },
      "properties": {
        "shop": "variety_store",
        "name": "B&M",
        "alt_name": "B&M LENS",
        "brand": "B&M",
        "brand:wikidata": "Q4836931",
        "brand:wikipedia": "en:B&M",
        "opening_hours": "Mo-Sa 09:30-19:30; Su 10:00-12:30,14:00-19:00",
        "addr:housenumber": "",
        "addr:street": "ZI Cora - 13 rue Louis Blériot",
        "addr:place": "",
        "addr:postcode": "62880",
        "addr:city": "Vendin Le Vieil",
        "note": "ZI Cora - 13 rue Louis Blériot 62880 VENDIN LE VIEIL"
      }
    },
    {
      "type": "Feature",
      "geometry": {
        "type": "Point",
        "coordinates": [
          2.588541,
          50.493983
        ]
      },
      "properties": {
        "shop": "variety_store",
        "name": "B&M",
        "alt_name": "B&M BRUAY-LA-BUISSIERE",
        "brand": "B&M",
        "brand:wikidata": "Q4836931",
        "brand:wikipedia": "en:B&M",
        "opening_hours": "Mo-Sa 09:00-19:00; Su 09:30-18:45",
        "addr:housenumber": "",
        "addr:street": "Rue Jean-Joseph Etienne Lenoir",
        "addr:place": "",
        "addr:postcode": "62700",
        "addr:city": "Bruay-La-Buissiere",
        "note": "Rue Jean-Joseph Etienne Lenoir 62700 BRUAY-LA-BUISSIERE"
      }
    },
    {
      "type": "Feature",
      "geometry": {
        "type": "Point",
        "coordinates": [
          -0.423317,
          43.3164355
        ]
      },
      "properties": {
        "shop": "variety_store",
        "name": "B&M",
        "alt_name": "B&M PAU",
        "brand": "B&M",
        "brand:wikidata": "Q4836931",
        "brand:wikipedia": "en:B&M",
        "opening_hours": "Mo-Sa 09:30-19:00",
        "addr:housenumber": "147",
        "addr:street": "Avenue du Général de Gaulle",
        "addr:place": "",
        "addr:postcode": "64140",
        "addr:city": "Lons",
        "note": "147 Avenue du Général de Gaulle 64140 LONS"
      }
    },
    {
      "type": "Feature",
      "geometry": {
        "type": "Point",
        "coordinates": [
          3.0517504,
          50.5876242
        ]
      },
      "properties": {
        "shop": "variety_store",
        "name": "B&M",
        "alt_name": "B&M WATTIGNIES",
        "brand": "B&M",
        "brand:wikidata": "Q4836931",
        "brand:wikipedia": "en:B&M",
        "opening_hours": "Mo-Sa 09:00-19:30; Su 10:00-19:00",
        "addr:housenumber": "205",
        "addr:street": "Rue Georges Clemenceau",
        "addr:place": "Centre Commercial de Cora",
        "addr:postcode": "59139",
        "addr:city": "Wattignies",
        "note": "Centre Commercial de Cora 205 Rue Georges Clemenceau 59139 WATTIGNIES"
      }
    },
    {
      "type": "Feature",
      "geometry": {
        "type": "Point",
        "coordinates": [
          3.1533357,
          50.6316211
        ]
      },
      "properties": {
        "shop": "variety_store",
        "name": "B&M",
        "alt_name": "B&M VILLENEUVE D ASCQ",
        "brand": "B&M",
        "brand:wikidata": "Q4836931",
        "brand:wikipedia": "en:B&M",
        "opening_hours": "Mo-Sa 09:30-19:30; Su 10:00-19:00",
        "addr:housenumber": "220",
        "addr:street": "rue de la Convention",
        "addr:place": "Lieu-dit \"La cousinerie\"",
        "addr:postcode": "59650",
        "addr:city": "Villeneuve D Ascq",
        "note": "Lieu-dit \"La cousinerie\" 220 rue de la Convention 59650 VILLENEUVE D ASCQ"
      }
    },
    {
      "type": "Feature",
      "geometry": {
        "type": "Point",
        "coordinates": [
          -2.7855672,
          47.6629595
        ]
      },
      "properties": {
        "shop": "variety_store",
        "name": "B&M",
        "alt_name": "B&M VANNES",
        "brand": "B&M",
        "brand:wikidata": "Q4836931",
        "brand:wikipedia": "en:B&M",
        "opening_hours": "Mo-Sa 09:30-19:00; Su 14:00-19:00",
        "addr:housenumber": "26",
        "addr:street": "rue Théophraste Renaudot",
        "addr:place": "",
        "addr:postcode": "56000",
        "addr:city": "Vannes",
        "note": "26 rue Théophraste Renaudot 56000 VANNES"
      }
    },
    {
      "type": "Feature",
      "geometry": {
        "type": "Point",
        "coordinates": [
          3.223575,
          50.6801812
        ]
      },
      "properties": {
        "shop": "variety_store",
        "name": "B&M",
        "alt_name": "B&M LEERS",
        "brand": "B&M",
        "brand:wikidata": "Q4836931",
        "brand:wikipedia": "en:B&M",
        "opening_hours": "Mo-Sa 09:30-19:00; Su 10:00-19:00",
        "addr:housenumber": "",
        "addr:street": "Rue des Verdiers",
        "addr:place": "ZAC Auchan",
        "addr:postcode": "59115",
        "addr:city": "Leers",
        "note": "ZAC Auchan Rue des Verdiers 59115 LEERS"
      }
    },
    {
      "type": "Feature",
      "geometry": {
        "type": "Point",
        "coordinates": [
          3.180263,
          50.6911429
        ]
      },
      "properties": {
        "shop": "variety_store",
        "name": "B&M",
        "alt_name": "B&M ROUBAIX",
        "brand": "B&M",
        "brand:wikidata": "Q4836931",
        "brand:wikipedia": "en:B&M",
        "opening_hours": "Mo-Sa 09:30-19:00; Su 11:00-19:00",
        "addr:housenumber": "4",
        "addr:street": "et 6 boulevard Gambetta",
        "addr:place": "",
        "addr:postcode": "59100",
        "addr:city": "Roubaix",
        "note": "4 et 6 boulevard Gambetta 59100 ROUBAIX"
      }
    },
    {
      "type": "Feature",
      "geometry": {
        "type": "Point",
        "coordinates": [
          3.1245609,
          50.74873
        ]
      },
      "properties": {
        "shop": "variety_store",
        "name": "B&M",
        "alt_name": "B&M RONCQ",
        "brand": "B&M",
        "brand:wikidata": "Q4836931",
        "brand:wikipedia": "en:B&M",
        "opening_hours": "Mo-Sa 09:00-19:00; Su 10:00-19:00",
        "addr:housenumber": "37",
        "addr:street": "rue Henri Barbusse",
        "addr:place": "",
        "addr:postcode": "59223",
        "addr:city": "Roncq",
        "note": "37 rue Henri Barbusse 59223 RONCQ"
      }
    },
    {
      "type": "Feature",
      "geometry": {
        "type": "Point",
        "coordinates": [
          -1.4515554,
          43.4919726
        ]
      },
      "properties": {
        "shop": "variety_store",
        "name": "B&M",
        "alt_name": "B&M BAYONNE",
        "brand": "B&M",
        "brand:wikidata": "Q4836931",
        "brand:wikipedia": "en:B&M",
        "opening_hours": "Mo-Sa 09:30-19:00",
        "addr:housenumber": "14",
        "addr:street": "chemin de Hayet",
        "addr:place": "",
        "addr:postcode": "64100",
        "addr:city": "Bayonne",
        "note": "14, chemin de Hayet 64100 BAYONNE"
      }
    },
    {
      "type": "Feature",
      "geometry": {
        "type": "Point",
        "coordinates": [
          -2.791363,
          48.520831
        ]
      },
      "properties": {
        "shop": "variety_store",
        "name": "B&M",
        "alt_name": "B&M SAINT-BRIEUC",
        "brand": "B&M",
        "brand:wikidata": "Q4836931",
        "brand:wikipedia": "en:B&M",
        "opening_hours": "Mo-Sa 10:00-19:00; Su 14:00-19:00",
        "addr:housenumber": "",
        "addr:street": "Route de Brest",
        "addr:place": "CC Géant \"Les Villages\"",
        "addr:postcode": "22000",
        "addr:city": "Saint Brieuc",
        "note": "Route de Brest CC Géant \"Les Villages\" 22000 SAINT BRIEUC"
      }
    },
    {
      "type": "Feature",
      "geometry": {
        "type": "Point",
        "coordinates": [
          2.3520149,
          51.0262132
        ]
      },
      "properties": {
        "shop": "variety_store",
        "name": "B&M",
        "alt_name": "B&M DUNKERQUE",
        "brand": "B&M",
        "brand:wikidata": "Q4836931",
        "brand:wikipedia": "en:B&M",
        "opening_hours": "Mo-Sa 09:30-18:45; Su 10:00-12:15,14:00-18:45",
        "addr:housenumber": "",
        "addr:street": "RN 1",
        "addr:place": "Carrefour de avenue Berthaux et quai Wilson",
        "addr:postcode": "59430",
        "addr:city": "Saint Pol Sur Mer",
        "note": "RN 1 Carrefour de avenue Berthaux et quai Wilson 59430 SAINT POL SUR MER"
      }
    },
    {
      "type": "Feature",
      "geometry": {
        "type": "Point",
        "coordinates": [
          -3.3979082,
          47.7623564
        ]
      },
      "properties": {
        "shop": "variety_store",
        "name": "B&M",
        "alt_name": "B&M LORIENT",
        "brand": "B&M",
        "brand:wikidata": "Q4836931",
        "brand:wikipedia": "en:B&M",
        "opening_hours": "Mo-Sa 09:30-19:00; Su 14:00-18:30",
        "addr:housenumber": "4",
        "addr:street": "rue Colonel Le Barillec",
        "addr:place": "",
        "addr:postcode": "56100",
        "addr:city": "Lorient",
        "note": "4 rue Colonel Le Barillec 56100 LORIENT"
      }
    },
    {
      "type": "Feature",
      "geometry": {
        "type": "Point",
        "coordinates": [
          -4.087896,
          48.013871
        ]
      },
      "properties": {
        "shop": "variety_store",
        "name": "B&M",
        "alt_name": "B&M QUIMPER",
        "brand": "B&M",
        "brand:wikidata": "Q4836931",
        "brand:wikipedia": "en:B&M",
        "opening_hours": "Mo-Sa 09:00-19:00; Su 10:00-12:00,14:00-18:00",
        "addr:housenumber": "",
        "addr:street": "Parc Commercial du Loc'h",
        "addr:place": "Route du phare d'Eckmülh",
        "addr:postcode": "29000",
        "addr:city": "Quimper",
        "note": "Parc Commercial du Loc'h Route du phare d'Eckmülh 29000 QUIMPER"
      }
    },
    {
      "type": "Feature",
      "geometry": {
        "type": "Point",
        "coordinates": [
          -4.466798,
          48.427785
        ]
      },
      "properties": {
        "shop": "variety_store",
        "name": "B&M",
        "alt_name": "B&M BREST",
        "brand": "B&M",
        "brand:wikidata": "Q4836931",
        "brand:wikipedia": "en:B&M",
        "opening_hours": "Mo-Sa 09:30-19:00; Su 13:00-19:00",
        "addr:housenumber": "2",
        "addr:street": "rue Gaston Planté",
        "addr:place": "",
        "addr:postcode": "29200",
        "addr:city": "Brest",
        "note": "2 rue Gaston Planté 29200 BREST"
      }
    }
  ]
}