{
  "type": "FeatureCollection",
  "features": [
    {
      "type": "Feature",
      "geometry": {
        "type": "Point",
        "coordinates": [
          2.369257,
          49.870792
        ]
      },
      "properties": {
        "brand": "Stokomani",
        "brand:wikidata": "Q22249328",
        "brand:wikipedia": "fr:Stokomani",
        "name": "Stokomani",
        "alt_name": "Stokomani Longueau",
        "addr:street": "ZAC de l'Arc",
        "addr:postcode": "80330",
        "addr:city": "Longueau",
        "fixme": "Please verify address: ZAC de l'Arc , Rue Claude Chappé",
        "opening_hours": "Mo-Sa 09:00-19:30",
        "shop": "variety_store",
        "ref:FR:Stokomani:id": "1",
        "phone": "+33 3 22 50 23 00",
        "website": "https://www.stokomani.fr/pages/boutique-stokomani-longueau-80330"
      }
    },
    {
      "type": "Feature",
      "geometry": {
        "type": "Point",
        "coordinates": [
          5.235757,
          46.208874
        ]
      },
      "properties": {
        "brand": "Stokomani",
        "brand:wikidata": "Q22249328",
        "brand:wikipedia": "fr:Stokomani",
        "name": "Stokomani",
        "alt_name": "Stokomani Bourg En Bresse",
        "addr:housenumber": "25",
        "addr:street": "Bd Iréne Jolio Curie",
        "addr:postcode": "01000",
        "addr:city": "Bourg-En-Bresse",
        "fixme": "Please verify address: 25 Bd Iréne Jolio Curie",
        "opening_hours": "Mo-Sa 09:00-19:00",
        "shop": "variety_store",
        "ref:FR:Stokomani:id": "100",
        "phone": "+33 4 74 55 75 90",
        "website": "https://www.stokomani.fr/pages/boutique-stokomani-bourg-en-bresse-01000"
      }
    },
    {
      "type": "Feature",
      "geometry": {
        "type": "Point",
        "coordinates": [
          -0.809837,
          48.067585
        ]
      },
      "properties": {
        "brand": "Stokomani",
        "brand:wikidata": "Q22249328",
        "brand:wikipedia": "fr:Stokomani",
        "name": "Stokomani",
        "alt_name": "Stokomani Saint Berthevin",
        "addr:housenumber": "23",
        "addr:street": "Bd Louis Armand",
        "addr:postcode": "53940",
        "addr:city": "Saint-Berthevin",
        "fixme": "Please verify address: 23 Bd Louis Armand",
        "opening_hours": "Mo-Sa 09:00-19:30",
        "shop": "variety_store",
        "ref:FR:Stokomani:id": "101",
        "phone": "+33 2 43 91 46 90",
        "website": "https://www.stokomani.fr/pages/boutique-stokomani-saint-berthevin-53940"
      }
    },
    {
      "type": "Feature",
      "geometry": {
        "type": "Point",
        "coordinates": [
          7.364704,
          48.109062
        ]
      },
      "properties": {
        "brand": "Stokomani",
        "brand:wikidata": "Q22249328",
        "brand:wikipedia": "fr:Stokomani",
        "name": "Stokomani",
        "alt_name": "Stokomani Colmar",
        "addr:housenumber": "6",
        "addr:street": "rue des métiers",
        "addr:postcode": "68000",
        "addr:city": "Colmar",
        "fixme": "Please verify address: 6 rue des métiers",
        "opening_hours": "Mo-Sa 09:00-19:00",
        "shop": "variety_store",
        "ref:FR:Stokomani:id": "102",
        "phone": "+33 3 89 20 81 00",
        "website": "https://www.stokomani.fr/pages/boutique-stokomani-colmar-68000"
      }
    },
    {
      "type": "Feature",
      "geometry": {
        "type": "Point",
        "coordinates": [
          1.172107,
          49.00675
        ]
      },
      "properties": {
        "brand": "Stokomani",
        "brand:wikidata": "Q22249328",
        "brand:wikipedia": "fr:Stokomani",
        "name": "Stokomani",
        "alt_name": "Stokomani Evreux - Guichainville",
        "addr:street": "ZAC de la Garenne",
        "addr:postcode": "27930",
        "addr:city": "Guichainville",
        "fixme": "Please verify address: ZAC de la Garenne, Rue des Caravelles",
        "opening_hours": "Mo-Sa 09:00-19:30",
        "shop": "variety_store",
        "ref:FR:Stokomani:id": "103",
        "phone": "+33 2 32 23 52 05",
        "website": "https://www.stokomani.fr/pages/boutique-stokomani-guichainville-27930"
      }
    },
    {
      "type": "Feature",
      "geometry": {
        "type": "Point",
        "coordinates": [
          5.09821,
          47.312492
        ]
      },
      "properties": {
        "brand": "Stokomani",
        "brand:wikidata": "Q22249328",
        "brand:wikipedia": "fr:Stokomani",
        "name": "Stokomani",
        "alt_name": "Stokomani Dijon - Quetigny",
        "addr:housenumber": "1",
        "addr:street": "Boulevard du Grand Marché",
        "addr:postcode": "21800",
        "addr:city": "Quetigny",
        "fixme": "Please verify address: 1 Boulevard du Grand Marché",
        "opening_hours": "Mo-Sa 09:00-19:30",
        "shop": "variety_store",
        "ref:FR:Stokomani:id": "104",
        "phone": "+33 3 80 73 02 00",
        "website": "https://www.stokomani.fr/pages/boutique-stokomani-quetigny-21800"
      }
    },
    {
      "type": "Feature",
      "geometry": {
        "type": "Point",
        "coordinates": [
          3.216538,
          50.148003
        ]
      },
      "properties": {
        "brand": "Stokomani",
        "brand:wikidata": "Q22249328",
        "brand:wikipedia": "fr:Stokomani",
        "name": "Stokomani",
        "alt_name": "Stokomani Cambrai - Proville",
        "addr:street": "Rue Renée Descartes",
        "addr:postcode": "59267",
        "addr:city": "Proville",
        "fixme": "Please verify address: Rue Renée Descartes, ZAC du faubourg de Paris",
        "opening_hours": "Mo-Sa 09:00-19:00",
        "shop": "variety_store",
        "ref:FR:Stokomani:id": "105",
        "phone": "+33 3 27 37 68 98",
        "website": "https://www.stokomani.fr/pages/boutique-stokomani-proville-59267"
      }
    },
    {
      "type": "Feature",
      "geometry": {
        "type": "Point",
        "coordinates": [
          2.952738,
          48.363174
        ]
      },
      "properties": {
        "brand": "Stokomani",
        "brand:wikidata": "Q22249328",
        "brand:wikipedia": "fr:Stokomani",
        "name": "Stokomani",
        "alt_name": "Stokomani Varennes Sur Seine",
        "addr:street": "Rue du Bréau",
        "addr:postcode": "77130",
        "addr:city": "Varennes-Sur-Seine",
        "fixme": "Please verify address: Rue du Bréau",
        "opening_hours": "Mo-Sa 09:00-19:30",
        "shop": "variety_store",
        "ref:FR:Stokomani:id": "106",
        "phone": "+33 1 64 70 16 50",
        "website": "https://www.stokomani.fr/pages/boutique-stokomani-varennes-sur-seine-77130"
      }
    },
    {
      "type": "Feature",
      "geometry": {
        "type": "Point",
        "coordinates": [
          3.143465,
          50.74092
        ]
      },
      "properties": {
        "brand": "Stokomani",
        "brand:wikidata": "Q22249328",
        "brand:wikipedia": "fr:Stokomani",
        "name": "Stokomani",
        "alt_name": "Stokomani Roncq Neuville En Ferrain",
        "addr:street": "Zac du Petit Meni",
        "addr:postcode": "59960",
        "addr:city": "Neuville-En-Ferrain",
        "fixme": "Please verify address: Zac du Petit Meni",
        "opening_hours": "Mo-Sa 09:00-19:30",
        "shop": "variety_store",
        "ref:FR:Stokomani:id": "107",
        "phone": "+33 3 28 90 59 90",
        "website": "https://www.stokomani.fr/pages/boutique-stokomani-neuville-en-ferrain-59960"
      }
    },
    {
      "type": "Feature",
      "geometry": {
        "type": "Point",
        "coordinates": [
          2.890541,
          42.6764
        ]
      },
      "properties": {
        "brand": "Stokomani",
        "brand:wikidata": "Q22249328",
        "brand:wikipedia": "fr:Stokomani",
        "name": "Stokomani",
        "alt_name": "Stokomani Perpignan",
        "addr:housenumber": "1495",
        "addr:street": "avenue d'Espagne",
        "addr:postcode": "66000",
        "addr:city": "Perpignan",
        "fixme": "Please verify address: 1495 avenue d'Espagne",
        "opening_hours": "Mo-Sa 09:00-19:30",
        "shop": "variety_store",
        "ref:FR:Stokomani:id": "108",
        "phone": "+33 4 68 95 51 56",
        "website": "https://www.stokomani.fr/pages/boutique-stokomani-perpignan-66000"
      }
    },
    {
      "type": "Feature",
      "geometry": {
        "type": "Point",
        "coordinates": [
          -2.064969,
          47.672356
        ]
      },
      "properties": {
        "brand": "Stokomani",
        "brand:wikidata": "Q22249328",
        "brand:wikipedia": "fr:Stokomani",
        "name": "Stokomani",
        "alt_name": "Stokomani Redon",
        "addr:street": "ZAC Cap Nord",
        "addr:postcode": "35600",
        "addr:city": "Redon",
        "fixme": "Please verify address: ZAC Cap Nord, Rue Marcel Quercia",
        "opening_hours": "Mo-Sa 09:00-19:00",
        "shop": "variety_store",
        "ref:FR:Stokomani:id": "109",
        "phone": "+33 2 23 63 25 40",
        "website": "https://www.stokomani.fr/pages/boutique-stokomani-redon-35600"
      }
    },
    {
      "type": "Feature",
      "geometry": {
        "type": "Point",
        "coordinates": [
          6.693009,
          43.449806
        ]
      },
      "properties": {
        "brand": "Stokomani",
        "brand:wikidata": "Q22249328",
        "brand:wikipedia": "fr:Stokomani",
        "name": "Stokomani",
        "alt_name": "Stokomani Puget Sur Argens",
        "addr:housenumber": "100",
        "addr:street": "Chemin du Drap",
        "addr:postcode": "83480",
        "addr:city": "Puget Sur Argens",
        "fixme": "Please verify address: 100 Chemin du Drap",
        "opening_hours": "Mo-Sa 09:00-19:30",
        "shop": "variety_store",
        "ref:FR:Stokomani:id": "11",
        "phone": "+33 4 94 19 90 70",
        "website": "https://www.stokomani.fr/pages/boutique-stokomani-puget-sur-argens-83480"
      }
    },
    {
      "type": "Feature",
      "geometry": {
        "type": "Point",
        "coordinates": [
          4.928556,
          44.949886
        ]
      },
      "properties": {
        "brand": "Stokomani",
        "brand:wikidata": "Q22249328",
        "brand:wikipedia": "fr:Stokomani",
        "name": "Stokomani",
        "alt_name": "Stokomani Valence",
        "addr:street": "Place Tellier",
        "addr:postcode": "26000",
        "addr:city": "Valence",
        "fixme": "Please verify address: Place Tellier, Plateau des couleurs",
        "opening_hours": "Mo-Sa 09:00-19:30",
        "shop": "variety_store",
        "ref:FR:Stokomani:id": "110",
        "phone": "+33 4 75 84 28 00",
        "website": "https://www.stokomani.fr/pages/boutique-stokomani-valence-26000"
      }
    },
    {
      "type": "Feature",
      "geometry": {
        "type": "Point",
        "coordinates": [
          1.48014,
          45.144512
        ]
      },
      "properties": {
        "brand": "Stokomani",
        "brand:wikidata": "Q22249328",
        "brand:wikipedia": "fr:Stokomani",
        "name": "Stokomani",
        "alt_name": "Stokomani Brive La Gaillarde",
        "addr:street": "Avenue Jean Charles Rivet",
        "addr:postcode": "19100",
        "addr:city": "Brive-La-Gaillarde",
        "fixme": "Please verify address: Avenue Jean Charles Rivet",
        "opening_hours": "Mo-Sa 09:00-19:00",
        "shop": "variety_store",
        "ref:FR:Stokomani:id": "111",
        "phone": "+33 5 55 92 78 50",
        "website": "https://www.stokomani.fr/pages/boutique-stokomani-brive-la-gaillarde-19100"
      }
    },
    {
      "type": "Feature",
      "geometry": {
        "type": "Point",
        "coordinates": [
          0.699101,
          47.336872
        ]
      },
      "properties": {
        "brand": "Stokomani",
        "brand:wikidata": "Q22249328",
        "brand:wikipedia": "fr:Stokomani",
        "name": "Stokomani",
        "alt_name": "Stokomani Chambray Les Tours",
        "addr:street": "Rue Philippe Maupas",
        "addr:postcode": "37170",
        "addr:city": "Chambray-Les-Tours",
        "fixme": "Please verify address: Rue Philippe Maupas",
        "opening_hours": "Mo-Sa 09:00-19:30",
        "shop": "variety_store",
        "ref:FR:Stokomani:id": "112",
        "phone": "+33 2 47 88 33 10",
        "website": "https://www.stokomani.fr/pages/boutique-stokomani-chambray-les-tours-37170"
      }
    },
    {
      "type": "Feature",
      "geometry": {
        "type": "Point",
        "coordinates": [
          2.318917,
          48.93401
        ]
      },
      "properties": {
        "brand": "Stokomani",
        "brand:wikidata": "Q22249328",
        "brand:wikipedia": "fr:Stokomani",
        "name": "Stokomani",
        "alt_name": "Stokomani Gennevilliers",
        "addr:street": "Centre Commercial des Chanteraines",
        "addr:postcode": "92230",
        "addr:city": "Gennevilliers",
        "fixme": "Please verify address: Centre Commercial des Chanteraines, 112-114 Avenue du Général de Gaulle",
        "opening_hours": "Mo-Sa 09:00-20:00; Su 10:00-19:00",
        "shop": "variety_store",
        "ref:FR:Stokomani:id": "113",
        "phone": "+33 1 46 25 01 40",
        "website": "https://www.stokomani.fr/pages/boutique-stokomani-gennevilliers-92230"
      }
    },
    {
      "type": "Feature",
      "geometry": {
        "type": "Point",
        "coordinates": [
          1.839351,
          50.940605
        ]
      },
      "properties": {
        "brand": "Stokomani",
        "brand:wikidata": "Q22249328",
        "brand:wikipedia": "fr:Stokomani",
        "name": "Stokomani",
        "alt_name": "Stokomani Calais",
        "addr:housenumber": "400",
        "addr:street": "rue Danton",
        "addr:postcode": "62100",
        "addr:city": "Calais",
        "fixme": "Please verify address: 400 rue Danton, Zone d'activité des cailloux",
        "opening_hours": "Mo-Sa 09:00-19:30; Su 10:00-19:00",
        "shop": "variety_store",
        "ref:FR:Stokomani:id": "114",
        "phone": "+33 3 91 94 19 90",
        "website": "https://www.stokomani.fr/pages/boutique-stokomani-calais-62100"
      }
    },
    {
      "type": "Feature",
      "geometry": {
        "type": "Point",
        "coordinates": [
          3.306205,
          49.36422
        ]
      },
      "properties": {
        "brand": "Stokomani",
        "brand:wikidata": "Q22249328",
        "brand:wikipedia": "fr:Stokomani",
        "name": "Stokomani",
        "alt_name": "Stokomani Vauxbuin",
        "addr:street": "Rue des Maisons Rouges",
        "addr:postcode": "02200",
        "addr:city": "Vauxbuin",
        "fixme": "Please verify address: Parc commercial « Les Portes de Soissons », Rue des Maisons Rouges,",
        "opening_hours": "Mo-Sa 09:00-19:00",
        "shop": "variety_store",
        "ref:FR:Stokomani:id": "115",
        "phone": "+33 3 23 96 61 40",
        "website": "https://www.stokomani.fr/pages/boutique-stokomani-vauxbuin-02200"
      }
    },
    {
      "type": "Feature",
      "geometry": {
        "type": "Point",
        "coordinates": [
          -0.413841,
          46.318474
        ]
      },
      "properties": {
        "brand": "Stokomani",
        "brand:wikidata": "Q22249328",
        "brand:wikipedia": "fr:Stokomani",
        "name": "Stokomani",
        "alt_name": "Stokomani Niort",
        "addr:street": "ZAC des Pôles Sports",
        "addr:postcode": "79000",
        "addr:city": "Niort",
        "fixme": "Please verify address: ZAC des Pôles Sports, Avenue de Limoges",
        "opening_hours": "Mo-Sa 09:00-19:00",
        "shop": "variety_store",
        "ref:FR:Stokomani:id": "116",
        "phone": "+33 5 49 78 68 70",
        "website": "https://www.stokomani.fr/pages/boutique-stokomani-niort-79000"
      }
    },
    {
      "type": "Feature",
      "geometry": {
        "type": "Point",
        "coordinates": [
          2.27802,
          50.73119
        ]
      },
      "properties": {
        "brand": "Stokomani",
        "brand:wikidata": "Q22249328",
        "brand:wikipedia": "fr:Stokomani",
        "name": "Stokomani",
        "alt_name": "Stokomani Arques",
        "addr:street": "Avenue Y. Montand",
        "addr:postcode": "62510",
        "addr:city": "Arques",
        "fixme": "Please verify address: Avenue Y. Montand",
        "opening_hours": "Mo-Sa 08:30-19:30",
        "shop": "variety_store",
        "ref:FR:Stokomani:id": "117",
        "phone": "+33 3 91 93 09 10",
        "website": "https://www.stokomani.fr/pages/boutique-stokomani-arques-62510"
      }
    },
    {
      "type": "Feature",
      "geometry": {
        "type": "Point",
        "coordinates": [
          2.153763,
          43.95381
        ]
      },
      "properties": {
        "brand": "Stokomani",
        "brand:wikidata": "Q22249328",
        "brand:wikipedia": "fr:Stokomani",
        "name": "Stokomani",
        "alt_name": "Stokomani Lescure D'Albigeois",
        "addr:street": "Centre Commercial Pop’A",
        "addr:postcode": "81380",
        "addr:city": "Lescure-D'Albigeois",
        "fixme": "Please verify address: Centre Commercial Pop’A, Lieu-dit L'Arquipeyre, Route de la Drèche",
        "opening_hours": "Mo-Sa 09:00-19:30",
        "shop": "variety_store",
        "ref:FR:Stokomani:id": "118",
        "phone": "+33 5 63 77 30 20",
        "website": "https://www.stokomani.fr/pages/boutique-stokomani-lescure-d-albigeois-81380"
      }
    },
    {
      "type": "Feature",
      "geometry": {
        "type": "Point",
        "coordinates": [
          2.124882,
          49.057705
        ]
      },
      "properties": {
        "brand": "Stokomani",
        "brand:wikidata": "Q22249328",
        "brand:wikipedia": "fr:Stokomani",
        "name": "Stokomani",
        "alt_name": "Stokomani Saint Ouen L Aumone",
        "addr:street": "Z.I. d'Epluches",
        "addr:postcode": "95310",
        "addr:city": "Saint-Ouen-L'Aumone",
        "fixme": "Please verify address: Z.I. d'Epluches, 1 rue des Préaux",
        "opening_hours": "Mo-Sa 09:00-19:30; Su 10:00-19:00",
        "shop": "variety_store",
        "ref:FR:Stokomani:id": "12",
        "phone": "+33 1 34 48 90 08",
        "website": "https://www.stokomani.fr/pages/boutique-stokomani-saint-ouen-l-aumone-95310"
      }
    },
    {
      "type": "Feature",
      "geometry": {
        "type": "Point",
        "coordinates": [
          -0.31056,
          45.68048
        ]
      },
      "properties": {
        "brand": "Stokomani",
        "brand:wikidata": "Q22249328",
        "brand:wikipedia": "fr:Stokomani",
        "name": "Stokomani",
        "alt_name": "Stokomani Cognac - Châteaubernard",
        "addr:street": "Rue Pierre Latécoère",
        "addr:postcode": "16100",
        "addr:city": "Chateaubernard",
        "fixme": "Please verify address: Rue Pierre Latécoère, ZAC Le Fief du Roy",
        "opening_hours": "Mo-Sa 08:30-19:00",
        "shop": "variety_store",
        "ref:FR:Stokomani:id": "120",
        "phone": "+33 5 45 80 17 55",
        "website": "https://www.stokomani.fr/pages/boutique-stokomani-chateaubernard-16100"
      }
    },
    {
      "type": "Feature",
      "geometry": {
        "type": "Point",
        "coordinates": [
          0.681745,
          44.40449
        ]
      },
      "properties": {
        "brand": "Stokomani",
        "brand:wikidata": "Q22249328",
        "brand:wikipedia": "fr:Stokomani",
        "name": "Stokomani",
        "alt_name": "Stokomani Villeneuve Sur Lot",
        "addr:housenumber": "742",
        "addr:street": "AVENUE DE BORDEAUX",
        "addr:postcode": "47300",
        "addr:city": "Bias",
        "fixme": "Please verify address: 742 AVENUE DE BORDEAUX",
        "opening_hours": "Mo-Sa 09:00-19:00",
        "shop": "variety_store",
        "ref:FR:Stokomani:id": "121",
        "phone": "+33 5 53 75 28 44",
        "website": "https://www.stokomani.fr/pages/boutique-stokomani-bias-47300"
      }
    },
    {
      "type": "Feature",
      "geometry": {
        "type": "Point",
        "coordinates": [
          2.977276,
          49.570637
        ]
      },
      "properties": {
        "brand": "Stokomani",
        "brand:wikidata": "Q22249328",
        "brand:wikipedia": "fr:Stokomani",
        "name": "Stokomani",
        "alt_name": "Stokomani Noyon",
        "addr:street": "ZAC DU MONT RENAUD",
        "addr:postcode": "60400",
        "addr:city": "Noyon",
        "fixme": "Please verify address: ZAC DU MONT RENAUD, CCIAL AUCHAN",
        "opening_hours": "Mo-Sa 09:00-19:00",
        "shop": "variety_store",
        "ref:FR:Stokomani:id": "122",
        "phone": "+33 3 44 37 49 01",
        "website": "https://www.stokomani.fr/pages/boutique-stokomani-noyon-60400"
      }
    },
    {
      "type": "Feature",
      "geometry": {
        "type": "Point",
        "coordinates": [
          1.671879,
          48.98983
        ]
      },
      "properties": {
        "brand": "Stokomani",
        "brand:wikidata": "Q22249328",
        "brand:wikipedia": "fr:Stokomani",
        "name": "Stokomani",
        "alt_name": "Stokomani Mantes Buchelay",
        "addr:street": "AVENUE DE LA DURANCE",
        "addr:postcode": "78200",
        "addr:city": "Buchelay",
        "fixme": "Please verify address: AVENUE DE LA DURANCE",
        "opening_hours": "Mo-Sa 09:00-19:30; Su 10:00-19:00",
        "shop": "variety_store",
        "ref:FR:Stokomani:id": "123",
        "phone": "+33 1 30 94 84 60",
        "website": "https://www.stokomani.fr/pages/boutique-stokomani-buchelay-78200"
      }
    },
    {
      "type": "Feature",
      "geometry": {
        "type": "Point",
        "coordinates": [
          -3.858808,
          48.573578
        ]
      },
      "properties": {
        "brand": "Stokomani",
        "brand:wikidata": "Q22249328",
        "brand:wikipedia": "fr:Stokomani",
        "name": "Stokomani",
        "alt_name": "Stokomani Saint-Martin-Des-Champs",
        "addr:street": "rue Jean Claude CALVEZ",
        "addr:postcode": "29600",
        "addr:city": "Saint-Martin-Des-Champs",
        "fixme": "Please verify address: rue Jean Claude CALVEZ",
        "opening_hours": "Mo-Sa 09:00-19:00",
        "shop": "variety_store",
        "ref:FR:Stokomani:id": "124",
        "phone": "+33 2 98 63 64 80",
        "website": "https://www.stokomani.fr/pages/boutique-stokomani-saint-martin-des-champs-29600"
      }
    },
    {
      "type": "Feature",
      "geometry": {
        "type": "Point",
        "coordinates": [
          -1.386712,
          47.70472
        ]
      },
      "properties": {
        "brand": "Stokomani",
        "brand:wikidata": "Q22249328",
        "brand:wikipedia": "fr:Stokomani",
        "name": "Stokomani",
        "alt_name": "Stokomani Chateaubriant",
        "addr:street": "Retail Park CASTELLO",
        "addr:postcode": "44110",
        "addr:city": "Chateaubriant",
        "fixme": "Please verify address: Retail Park CASTELLO, 1 rue du Général PATTON CHATEAUBRIANT",
        "opening_hours": "Mo-Sa 09:00-19:00",
        "shop": "variety_store",
        "ref:FR:Stokomani:id": "125",
        "phone": "+33 2 28 04 19 45",
        "website": "https://www.stokomani.fr/pages/boutique-stokomani-chateaubriant-44110"
      }
    },
    {
      "type": "Feature",
      "geometry": {
        "type": "Point",
        "coordinates": [
          1.043664,
          49.419773
        ]
      },
      "properties": {
        "brand": "Stokomani",
        "brand:wikidata": "Q22249328",
        "brand:wikipedia": "fr:Stokomani",
        "name": "Stokomani",
        "alt_name": "Stokomani Le Grand Quevilly",
        "addr:housenumber": "10",
        "addr:street": "Rue Paul Vaillant Couturier",
        "addr:postcode": "76120",
        "addr:city": "Le Grand-Quevilly",
        "fixme": "Please verify address: 10 Rue Paul Vaillant Couturier",
        "opening_hours": "Mo-Sa 09:00-19:30",
        "shop": "variety_store",
        "ref:FR:Stokomani:id": "126",
        "phone": "+33 2 32 11 68 50",
        "website": "https://www.stokomani.fr/pages/boutique-stokomani-le-grand-quevilly-76120"
      }
    },
    {
      "type": "Feature",
      "geometry": {
        "type": "Point",
        "coordinates": [
          3.098727,
          48.801846
        ]
      },
      "properties": {
        "brand": "Stokomani",
        "brand:wikidata": "Q22249328",
        "brand:wikipedia": "fr:Stokomani",
        "name": "Stokomani",
        "alt_name": "Stokomani Coulommiers",
        "addr:housenumber": "50",
        "addr:street": "rue de l’Orgeval",
        "addr:postcode": "77120",
        "addr:city": "Coulommiers",
        "fixme": "Please verify address: 50 rue de l’Orgeval",
        "opening_hours": "Mo-Sa 09:00-19:00",
        "shop": "variety_store",
        "ref:FR:Stokomani:id": "127",
        "phone": "+33 1 64 65 81 90",
        "website": "https://www.stokomani.fr/pages/boutique-stokomani-coulommiers-77120"
      }
    },
    {
      "type": "Feature",
      "geometry": {
        "type": "Point",
        "coordinates": [
          4.270549,
          46.9725
        ]
      },
      "properties": {
        "brand": "Stokomani",
        "brand:wikidata": "Q22249328",
        "brand:wikipedia": "fr:Stokomani",
        "name": "Stokomani",
        "alt_name": "Stokomani Autun",
        "addr:street": "Bellevue les Autun",
        "addr:postcode": "71400",
        "addr:city": "Autun",
        "fixme": "Please verify address: Bellevue les Autun, Parc d'activité Autun Bellevue",
        "opening_hours": "Mo-Sa 09:00-19:00",
        "shop": "variety_store",
        "ref:FR:Stokomani:id": "128",
        "phone": "+33 3 85 54 89 80",
        "website": "https://www.stokomani.fr/pages/boutique-stokomani-autun-71400"
      }
    },
    {
      "type": "Feature",
      "geometry": {
        "type": "Point",
        "coordinates": [
          2.793394,
          49.393772
        ]
      },
      "properties": {
        "brand": "Stokomani",
        "brand:wikidata": "Q22249328",
        "brand:wikipedia": "fr:Stokomani",
        "name": "Stokomani",
        "alt_name": "Stokomani Compiègne",
        "addr:housenumber": "23",
        "addr:street": "ESPLANADE MARGUERITE PEREY",
        "addr:postcode": "60200",
        "addr:city": "Compiegne",
        "fixme": "Please verify address: 23 ESPLANADE MARGUERITE PEREY",
        "opening_hours": "Mo-Sa 09:00-19:30",
        "shop": "variety_store",
        "ref:FR:Stokomani:id": "129",
        "phone": "+33 3 44 20 07 33",
        "website": "https://www.stokomani.fr/pages/boutique-stokomani-compiegne-60200"
      }
    },
    {
      "type": "Feature",
      "geometry": {
        "type": "Point",
        "coordinates": [
          4.744595,
          45.98138
        ]
      },
      "properties": {
        "brand": "Stokomani",
        "brand:wikidata": "Q22249328",
        "brand:wikipedia": "fr:Stokomani",
        "name": "Stokomani",
        "alt_name": "Stokomani Villefranche-Sur-Saône",
        "addr:street": "Rue Gabriel Voisin",
        "addr:postcode": "69400",
        "addr:city": "Villefranche-Sur-Saone",
        "fixme": "Please verify address: Rue Gabriel Voisin",
        "opening_hours": "Mo-Sa 09:00-19:30",
        "shop": "variety_store",
        "ref:FR:Stokomani:id": "130",
        "phone": "+33 4 74 65 60 50",
        "website": "https://www.stokomani.fr/pages/boutique-stokomani-villefranche-sur-saone-69400"
      }
    },
    {
      "type": "Feature",
      "geometry": {
        "type": "Point",
        "coordinates": [
          1.958269,
          48.82926
        ]
      },
      "properties": {
        "brand": "Stokomani",
        "brand:wikidata": "Q22249328",
        "brand:wikipedia": "fr:Stokomani",
        "name": "Stokomani",
        "alt_name": "Stokomani Plaisir",
        "addr:street": "Rue des Vicomtes",
        "addr:postcode": "78370",
        "addr:city": "Plaisir",
        "fixme": "Please verify address: Rue des Vicomtes",
        "opening_hours": "Mo-Sa 09:00-19:30; Su 10:00-19:00",
        "shop": "variety_store",
        "ref:FR:Stokomani:id": "131",
        "phone": "+33 1 30 02 80 87",
        "website": "https://www.stokomani.fr/pages/boutique-stokomani-plaisir-78370"
      }
    },
    {
      "type": "Feature",
      "geometry": {
        "type": "Point",
        "coordinates": [
          2.403293,
          44.895676
        ]
      },
      "properties": {
        "brand": "Stokomani",
        "brand:wikidata": "Q22249328",
        "brand:wikipedia": "fr:Stokomani",
        "name": "Stokomani",
        "alt_name": "Stokomani Aurillac",
        "addr:street": "ZAC de la Sablière",
        "addr:postcode": "15000",
        "addr:city": "Aurillac",
        "fixme": "Please verify address: ZAC de la Sablière",
        "opening_hours": "Mo-Sa 09:00-19:00",
        "shop": "variety_store",
        "ref:FR:Stokomani:id": "133",
        "phone": "+33 4 71 63 35 57",
        "website": "https://www.stokomani.fr/pages/boutique-stokomani-aurillac-15000"
      }
    },
    {
      "type": "Feature",
      "geometry": {
        "type": "Point",
        "coordinates": [
          2.664406,
          48.953472
        ]
      },
      "properties": {
        "brand": "Stokomani",
        "brand:wikidata": "Q22249328",
        "brand:wikipedia": "fr:Stokomani",
        "name": "Stokomani",
        "alt_name": "Stokomani Claye Souilly",
        "addr:street": "Rue Jean Monnet",
        "addr:postcode": "77410",
        "addr:city": "Claye-Souilly",
        "fixme": "Please verify address: Rue Jean Monnet, ZAC des Sablons",
        "opening_hours": "Mo-Sa 09:00-19:30; Su 10:00-19:00",
        "shop": "variety_store",
        "ref:FR:Stokomani:id": "134",
        "phone": "+33 1 60 97 79 70",
        "website": "https://www.stokomani.fr/pages/boutique-stokomani-claye-souilly-77410"
      }
    },
    {
      "type": "Feature",
      "geometry": {
        "type": "Point",
        "coordinates": [
          -0.485479,
          44.91289
        ]
      },
      "properties": {
        "brand": "Stokomani",
        "brand:wikidata": "Q22249328",
        "brand:wikipedia": "fr:Stokomani",
        "name": "Stokomani",
        "alt_name": "Stokomani Sainte Eulalie",
        "addr:street": "CC l'Air du Temps",
        "addr:postcode": "33560",
        "addr:city": "Sainte-Eulalie",
        "fixme": "Please verify address: CC l'Air du Temps, Dpt 911",
        "opening_hours": "Mo-Sa 09:00-19:30; Su 10:00-19:00",
        "shop": "variety_store",
        "ref:FR:Stokomani:id": "135",
        "phone": "33557140480",
        "website": "https://www.stokomani.fr/pages/boutique-stokomani-sainte-eulalie-33560"
      }
    },
    {
      "type": "Feature",
      "geometry": {
        "type": "Point",
        "coordinates": [
          4.967176,
          48.626236
        ]
      },
      "properties": {
        "brand": "Stokomani",
        "brand:wikidata": "Q22249328",
        "brand:wikipedia": "fr:Stokomani",
        "name": "Stokomani",
        "alt_name": "Stokomani Saint-Dizier",
        "addr:street": "Rue Philippe Charbonneaux",
        "addr:postcode": "52100",
        "addr:city": "Saint-Dizier",
        "fixme": "Please verify address: Rue Philippe Charbonneaux",
        "opening_hours": "Mo-Sa 09:00-19:00",
        "shop": "variety_store",
        "ref:FR:Stokomani:id": "136",
        "website": "https://www.stokomani.fr/pages/boutique-stokomani-saint-dizier-52100"
      }
    },
    {
      "type": "Feature",
      "geometry": {
        "type": "Point",
        "coordinates": [
          2.277338,
          48.666332
        ]
      },
      "properties": {
        "brand": "Stokomani",
        "brand:wikidata": "Q22249328",
        "brand:wikipedia": "fr:Stokomani",
        "name": "Stokomani",
        "alt_name": "Stokomani La Ville Du Bois",
        "addr:street": "Avenue de la division Leclerc",
        "addr:postcode": "91620",
        "addr:city": "La Ville-Du-Bois",
        "fixme": "Please verify address: Avenue de la division Leclerc",
        "opening_hours": "Mo-Sa 09:00-19:00",
        "shop": "variety_store",
        "ref:FR:Stokomani:id": "137",
        "phone": "+33 1 69 62 16 20",
        "website": "https://www.stokomani.fr/pages/boutique-stokomani-la-ville-du-bois-91620"
      }
    },
    {
      "type": "Feature",
      "geometry": {
        "type": "Point",
        "coordinates": [
          0.019254,
          43.237465
        ]
      },
      "properties": {
        "brand": "Stokomani",
        "brand:wikidata": "Q22249328",
        "brand:wikipedia": "fr:Stokomani",
        "name": "Stokomani",
        "alt_name": "Stokomani Tarbes",
        "addr:street": "Retail Park le Méridien",
        "addr:postcode": "65420",
        "addr:city": "Ibos",
        "fixme": "Please verify address: Retail Park le Méridien, Route de Pau",
        "opening_hours": "Mo-Sa 09:00-19:30",
        "shop": "variety_store",
        "ref:FR:Stokomani:id": "139",
        "phone": "+33 5 62 44 36 80",
        "website": "https://www.stokomani.fr/pages/boutique-stokomani-ibos-65420"
      }
    },
    {
      "type": "Feature",
      "geometry": {
        "type": "Point",
        "coordinates": [
          2.194343,
          48.953754
        ]
      },
      "properties": {
        "brand": "Stokomani",
        "brand:wikidata": "Q22249328",
        "brand:wikipedia": "fr:Stokomani",
        "name": "Stokomani",
        "alt_name": "Stokomani Cormeilles En Parisis",
        "addr:street": "ZAC Les Bois Rochefort",
        "addr:postcode": "95240",
        "addr:city": "Cormeilles-En-Parisis",
        "fixme": "Please verify address: ZAC Les Bois Rochefort",
        "opening_hours": "Mo-Sa 09:00-19:30; Su 10:00-19:00",
        "shop": "variety_store",
        "ref:FR:Stokomani:id": "14",
        "phone": "+33 1 39 84 40 55",
        "website": "https://www.stokomani.fr/pages/boutique-stokomani-cormeilles-en-parisis-95240"
      }
    },
    {
      "type": "Feature",
      "geometry": {
        "type": "Point",
        "coordinates": [
          -1.626069,
          48.087772
        ]
      },
      "properties": {
        "brand": "Stokomani",
        "brand:wikidata": "Q22249328",
        "brand:wikipedia": "fr:Stokomani",
        "name": "Stokomani",
        "alt_name": "Stokomani Rennes Chantepie",
        "addr:street": "RUE DES LOGES",
        "addr:postcode": "35135",
        "addr:city": "Chantepie",
        "fixme": "Please verify address: RUE DES LOGES",
        "opening_hours": "Mo-Sa 09:00-19:30",
        "shop": "variety_store",
        "ref:FR:Stokomani:id": "140",
        "phone": "+33 3 44 66 41 00",
        "website": "https://www.stokomani.fr/pages/boutique-stokomani-chantepie-35135"
      }
    },
    {
      "type": "Feature",
      "geometry": {
        "type": "Point",
        "coordinates": [
          4.866459,
          46.77519
        ]
      },
      "properties": {
        "brand": "Stokomani",
        "brand:wikidata": "Q22249328",
        "brand:wikipedia": "fr:Stokomani",
        "name": "Stokomani",
        "alt_name": "Stokomani Chalon Sur Saône",
        "addr:housenumber": "1",
        "addr:street": "rue René Cassin",
        "addr:postcode": "71105",
        "addr:city": "Chalon Sur Saone",
        "fixme": "Please verify address: 1 rue René Cassin",
        "opening_hours": "Mo-Sa 09:00-19:30",
        "shop": "variety_store",
        "ref:FR:Stokomani:id": "141",
        "website": "https://www.stokomani.fr/pages/boutique-stokomani-chalon-sur-saone-71105"
      }
    },
    {
      "type": "Feature",
      "geometry": {
        "type": "Point",
        "coordinates": [
          -1.595622,
          49.639214
        ]
      },
      "properties": {
        "brand": "Stokomani",
        "brand:wikidata": "Q22249328",
        "brand:wikipedia": "fr:Stokomani",
        "name": "Stokomani",
        "alt_name": "Stokomani Cherbourg",
        "addr:housenumber": "260",
        "addr:street": "Rue du Grand Pré",
        "addr:postcode": "50100",
        "addr:city": "Cherbourg-En-Contentin",
        "fixme": "Please verify address: 260 Rue du Grand Pré",
        "opening_hours": "Mo-Sa 09:00-19:00",
        "shop": "variety_store",
        "ref:FR:Stokomani:id": "142",
        "phone": "+33 3 44 66 41 00",
        "website": "https://www.stokomani.fr/pages/boutique-stokomani-cherbourg-en-contentin-50100"
      }
    },
    {
      "type": "Feature",
      "geometry": {
        "type": "Point",
        "coordinates": [
          3.87912,
          45.02335
        ]
      },
      "properties": {
        "brand": "Stokomani",
        "brand:wikidata": "Q22249328",
        "brand:wikipedia": "fr:Stokomani",
        "name": "Stokomani",
        "alt_name": "Stokomani Le Puy-En-Velay",
        "addr:street": "Avenue du Chambon",
        "addr:postcode": "43760",
        "addr:city": "Le Puy-En-Velay",
        "fixme": "Please verify address: Avenue du Chambon",
        "opening_hours": "Mo-Sa 09:00-19:30; Su 10:00-18:00",
        "shop": "variety_store",
        "ref:FR:Stokomani:id": "143",
        "phone": "+33 3 44 66 41 00",
        "website": "https://www.stokomani.fr/pages/boutique-stokomani-le-puy-en-velay-43760"
      }
    },
    {
      "type": "Feature",
      "geometry": {
        "type": "Point",
        "coordinates": [
          5.660646,
          46.28433
        ]
      },
      "properties": {
        "brand": "Stokomani",
        "brand:wikidata": "Q22249328",
        "brand:wikipedia": "fr:Stokomani",
        "name": "Stokomani",
        "alt_name": "Stokomani Oyonnax",
        "addr:housenumber": "6",
        "addr:street": "ALLEE DES FLEURS",
        "addr:postcode": "01100",
        "addr:city": "Arbent",
        "fixme": "Please verify address: 6 ALLEE DES FLEURS",
        "opening_hours": "Mo-Sa 09:00-19:30",
        "shop": "variety_store",
        "ref:FR:Stokomani:id": "144",
        "website": "https://www.stokomani.fr/pages/boutique-stokomani-arbent-01100"
      }
    },
    {
      "type": "Feature",
      "geometry": {
        "type": "Point",
        "coordinates": [
          4.707556,
          49.73558
        ]
      },
      "properties": {
        "brand": "Stokomani",
        "brand:wikidata": "Q22249328",
        "brand:wikipedia": "fr:Stokomani",
        "name": "Stokomani",
        "alt_name": "Stokomani Charleville-Mézières",
        "addr:street": "GRAND PARC ALLEE DE LA VALERIANE",
        "addr:postcode": "08000",
        "addr:city": "Charleville-Mezieres",
        "fixme": "Please verify address: GRAND PARC ALLEE DE LA VALERIANE",
        "opening_hours": "Mo-Sa 09:00-19:30",
        "shop": "variety_store",
        "ref:FR:Stokomani:id": "145",
        "phone": "+33 3 44 66 41 00",
        "website": "https://www.stokomani.fr/pages/boutique-stokomani-charleville-mezieres-08000"
      }
    },
    {
      "type": "Feature",
      "geometry": {
        "type": "Point",
        "coordinates": [
          2.989126,
          43.167027
        ]
      },
      "properties": {
        "brand": "Stokomani",
        "brand:wikidata": "Q22249328",
        "brand:wikipedia": "fr:Stokomani",
        "name": "Stokomani",
        "alt_name": "Stokomani Narbonne",
        "addr:street": "AVENUE DU QUARTOUZE",
        "addr:postcode": "11000",
        "addr:city": "Narbonne",
        "fixme": "Please verify address: AVENUE DU QUARTOUZE",
        "opening_hours": "Mo-Sa 09:00-19:30",
        "shop": "variety_store",
        "ref:FR:Stokomani:id": "146",
        "phone": "+33 3 44 66 41 00",
        "website": "https://www.stokomani.fr/pages/boutique-stokomani-narbonne-11000"
      }
    },
    {
      "type": "Feature",
      "geometry": {
        "type": "Point",
        "coordinates": [
          -0.627271,
          47.485577
        ]
      },
      "properties": {
        "brand": "Stokomani",
        "brand:wikidata": "Q22249328",
        "brand:wikipedia": "fr:Stokomani",
        "name": "Stokomani",
        "alt_name": "Stokomani Angers",
        "addr:street": "Centre commercial \"L'ATOLL\"",
        "addr:postcode": "49070",
        "addr:city": "Beaucouze",
        "fixme": "Please verify address: Centre commercial \"L'ATOLL\", Ecoparc du Buisson",
        "opening_hours": "Mo-Sa 09:00-20:00",
        "shop": "variety_store",
        "ref:FR:Stokomani:id": "147",
        "phone": "+33 3 44 66 41 00",
        "website": "https://www.stokomani.fr/pages/boutique-stokomani-beaucouze-49070"
      }
    },
    {
      "type": "Feature",
      "geometry": {
        "type": "Point",
        "coordinates": [
          0.76175,
          45.1896
        ]
      },
      "properties": {
        "brand": "Stokomani",
        "brand:wikidata": "Q22249328",
        "brand:wikipedia": "fr:Stokomani",
        "name": "Stokomani",
        "alt_name": "Stokomani Périgueux",
        "addr:street": "AVENUE MICHEL GRANDOU",
        "addr:postcode": "24750",
        "addr:city": "Trelissac",
        "addr:place": "CENTRE COMMERCIAL LA FEUILLERAIE",
        "fixme": "Please verify address: CENTRE COMMERCIAL LA FEUILLERAIE, AVENUE MICHEL GRANDOU, LIEU-DIT LES JALOTS EST",
        "opening_hours": "Mo-Sa 09:00-19:00",
        "shop": "variety_store",
        "ref:FR:Stokomani:id": "148",
        "phone": "+33 3 44 66 41 00",
        "website": "https://www.stokomani.fr/pages/boutique-stokomani-trelissac-24750"
      }
    },
    {
      "type": "Feature",
      "geometry": {
        "type": "Point",
        "coordinates": [
          4.389692,
          48.94456
        ]
      },
      "properties": {
        "brand": "Stokomani",
        "brand:wikidata": "Q22249328",
        "brand:wikipedia": "fr:Stokomani",
        "name": "Stokomani",
        "alt_name": "Stokomani Chalons En Champagne",
        "addr:housenumber": "1-3",
        "addr:street": "Rue des Catalaunes",
        "addr:postcode": "51470",
        "addr:city": "Saint-Memmie",
        "fixme": "Please verify address: 1-3 Rue des Catalaunes, ZAC Mercuria",
        "opening_hours": "Mo-Sa 09:00-19:00",
        "shop": "variety_store",
        "ref:FR:Stokomani:id": "15",
        "phone": "+33 3 26 22 12 88",
        "website": "https://www.stokomani.fr/pages/boutique-stokomani-saint-memmie-51470"
      }
    },
    {
      "type": "Feature",
      "geometry": {
        "type": "Point",
        "coordinates": [
          0.236338,
          47.94361
        ]
      },
      "properties": {
        "brand": "Stokomani",
        "brand:wikidata": "Q22249328",
        "brand:wikipedia": "fr:Stokomani",
        "name": "Stokomani",
        "alt_name": "Stokomani Ruaudin",
        "addr:housenumber": "1",
        "addr:street": "boulevard des hunaudières",
        "addr:postcode": "72230",
        "addr:city": "Ruaudin",
        "fixme": "Please verify address: 1 boulevard des hunaudières, FAMILY VILLAGE Les Hunaudières",
        "opening_hours": "Mo-Sa 09:00-19:30",
        "shop": "variety_store",
        "ref:FR:Stokomani:id": "150",
        "phone": "+33 3 44 66 41 00",
        "website": "https://www.stokomani.fr/pages/boutique-stokomani-ruaudin-72230"
      }
    },
    {
      "type": "Feature",
      "geometry": {
        "type": "Point",
        "coordinates": [
          7.726072,
          48.6573
        ]
      },
      "properties": {
        "brand": "Stokomani",
        "brand:wikidata": "Q22249328",
        "brand:wikipedia": "fr:Stokomani",
        "name": "Stokomani",
        "alt_name": "Stokomani Vendenheim",
        "addr:housenumber": "2",
        "addr:street": "rue de l'industrie",
        "addr:postcode": "67550",
        "addr:city": "Vendenheim",
        "fixme": "Please verify address: 2 rue de l'industrie, O'centre",
        "opening_hours": "Mo-Sa 09:00-19:00",
        "shop": "variety_store",
        "ref:FR:Stokomani:id": "151",
        "website": "https://www.stokomani.fr/pages/boutique-stokomani-vendenheim-67550"
      }
    },
    {
      "type": "Feature",
      "geometry": {
        "type": "Point",
        "coordinates": [
          2.626562,
          48.793697
        ]
      },
      "properties": {
        "brand": "Stokomani",
        "brand:wikidata": "Q22249328",
        "brand:wikipedia": "fr:Stokomani",
        "name": "Stokomani",
        "alt_name": "Stokomani Pontault Combault",
        "addr:street": "rue de strasbourg",
        "addr:postcode": "77340",
        "addr:city": "Pontault-Combault",
        "fixme": "Please verify address: rue de strasbourg",
        "opening_hours": "Mo-Sa 09:00-19:30; Su 10:00-19:00",
        "shop": "variety_store",
        "ref:FR:Stokomani:id": "152",
        "phone": "+33 8 25 89 32 32",
        "website": "https://www.stokomani.fr/pages/boutique-stokomani-pontault-combault-77340"
      }
    },
    {
      "type": "Feature",
      "geometry": {
        "type": "Point",
        "coordinates": [
          0.457339,
          44.838753
        ]
      },
      "properties": {
        "brand": "Stokomani",
        "brand:wikidata": "Q22249328",
        "brand:wikipedia": "fr:Stokomani",
        "name": "Stokomani",
        "alt_name": "Stokomani Bergerac",
        "addr:street": "Route de Bordeaux",
        "addr:postcode": "24100",
        "addr:city": "Bergerac",
        "fixme": "Please verify address: Route de Bordeaux , ZA de la cavaille",
        "opening_hours": "Mo-Sa 09:00-19:00",
        "shop": "variety_store",
        "ref:FR:Stokomani:id": "153",
        "phone": "+33 3 44 66 41 00",
        "website": "https://www.stokomani.fr/pages/boutique-stokomani-bergerac-24100"
      }
    },
    {
      "type": "Feature",
      "geometry": {
        "type": "Point",
        "coordinates": [
          1.644573,
          46.77674
        ]
      },
      "properties": {
        "brand": "Stokomani",
        "brand:wikidata": "Q22249328",
        "brand:wikipedia": "fr:Stokomani",
        "name": "Stokomani",
        "alt_name": "Stokomani Chateauroux - Saint Maur",
        "addr:housenumber": "1",
        "addr:street": "allée du commerce",
        "addr:postcode": "36250",
        "addr:city": "Saint-Maur",
        "fixme": "Please verify address: 1 allée du commerce, Centre Commercial Cap Sud",
        "opening_hours": "Mo-Sa 09:00-19:30",
        "shop": "variety_store",
        "ref:FR:Stokomani:id": "154",
        "website": "https://www.stokomani.fr/pages/boutique-stokomani-saint-maur-36250"
      }
    },
    {
      "type": "Feature",
      "geometry": {
        "type": "Point",
        "coordinates": [
          3.277687,
          48.207912
        ]
      },
      "properties": {
        "brand": "Stokomani",
        "brand:wikidata": "Q22249328",
        "brand:wikipedia": "fr:Stokomani",
        "name": "Stokomani",
        "alt_name": "Stokomani Sens",
        "addr:housenumber": "18",
        "addr:street": "AVENUE GEORGES POMPIDOU",
        "addr:postcode": "89100",
        "addr:city": "Sens",
        "fixme": "Please verify address: 18 AVENUE GEORGES POMPIDOU",
        "opening_hours": "Mo-Sa 09:00-19:00",
        "shop": "variety_store",
        "ref:FR:Stokomani:id": "155",
        "website": "https://www.stokomani.fr/pages/boutique-stokomani-sens-89100"
      }
    },
    {
      "type": "Feature",
      "geometry": {
        "type": "Point",
        "coordinates": [
          4.129884,
          48.29282
        ]
      },
      "properties": {
        "brand": "Stokomani",
        "brand:wikidata": "Q22249328",
        "brand:wikipedia": "fr:Stokomani",
        "name": "Stokomani",
        "alt_name": "Stokomani Saint-Parres-Aux-Tertres",
        "addr:housenumber": "3",
        "addr:street": "rue des chevrefeuilles",
        "addr:postcode": "10410",
        "addr:city": "Saint-Parres-Aux-Tertres",
        "fixme": "Please verify address: 3 rue des chevrefeuilles, Parc Commercial BeGreen",
        "opening_hours": "Mo-Sa 09:00-19:30",
        "shop": "variety_store",
        "ref:FR:Stokomani:id": "156",
        "website": "https://www.stokomani.fr/pages/boutique-stokomani-saint-parres-aux-tertres-10410"
      }
    },
    {
      "type": "Feature",
      "geometry": {
        "type": "Point",
        "coordinates": [
          1.373653,
          48.718304
        ]
      },
      "properties": {
        "brand": "Stokomani",
        "brand:wikidata": "Q22249328",
        "brand:wikipedia": "fr:Stokomani",
        "name": "Stokomani",
        "alt_name": "Stokomani Vernouillet",
        "addr:street": "Centre commercial Plein Sud",
        "addr:postcode": "28500",
        "addr:city": "Vernouillet",
        "fixme": "Please verify address: Centre commercial Plein Sud, 15 rue de Rome",
        "opening_hours": "Mo-Sa 09:00-19:00; Su 10:00-19:00",
        "shop": "variety_store",
        "ref:FR:Stokomani:id": "16",
        "phone": "+33 2 37 63 02 70",
        "website": "https://www.stokomani.fr/pages/boutique-stokomani-vernouillet-28500"
      }
    },
    {
      "type": "Feature",
      "geometry": {
        "type": "Point",
        "coordinates": [
          2.680217,
          49.03322
        ]
      },
      "properties": {
        "brand": "Stokomani",
        "brand:wikidata": "Q22249328",
        "brand:wikipedia": "fr:Stokomani",
        "name": "Stokomani",
        "alt_name": "Stokomani Saint-Mard",
        "addr:street": "Centre commercial \"Les buissonets\"",
        "addr:postcode": "77230",
        "addr:city": "Saint-Mard",
        "fixme": "Please verify address: Centre commercial \"Les buissonets\", zac de la fontaire du berger",
        "opening_hours": "Mo-Sa 09:00-19:30; Su 10:00-19:00",
        "shop": "variety_store",
        "ref:FR:Stokomani:id": "164",
        "website": "https://www.stokomani.fr/pages/boutique-stokomani-saint-mard-77230"
      }
    },
    {
      "type": "Feature",
      "geometry": {
        "type": "Point",
        "coordinates": [
          3.759269,
          48.503716
        ]
      },
      "properties": {
        "brand": "Stokomani",
        "brand:wikidata": "Q22249328",
        "brand:wikipedia": "fr:Stokomani",
        "name": "Stokomani",
        "alt_name": "Stokomani Romilly-Sur-Seine",
        "addr:housenumber": "7",
        "addr:street": "avenue Georges Pompidou",
        "addr:postcode": "10100",
        "addr:city": "Romilly-Sur-Seine",
        "fixme": "Please verify address: 7 avenue Georges Pompidou, Zone Aeromia",
        "opening_hours": "Mo-Sa 09:00-19:00",
        "shop": "variety_store",
        "ref:FR:Stokomani:id": "165",
        "website": "https://www.stokomani.fr/pages/boutique-stokomani-romilly-sur-seine-10100"
      }
    },
    {
      "type": "Feature",
      "geometry": {
        "type": "Point",
        "coordinates": [
          4.373499,
          46.67702
        ]
      },
      "properties": {
        "brand": "Stokomani",
        "brand:wikidata": "Q22249328",
        "brand:wikipedia": "fr:Stokomani",
        "name": "Stokomani",
        "alt_name": "Stokomani Montceau-Les-Mines",
        "addr:housenumber": "16",
        "addr:street": "rue de marigny",
        "addr:postcode": "71300",
        "addr:city": "Montceau-Les-Mines",
        "fixme": "Please verify address: 16 rue de marigny",
        "opening_hours": "Mo-Sa 09:00-19:30",
        "shop": "variety_store",
        "ref:FR:Stokomani:id": "166",
        "phone": "+33 3 73 45 04 64",
        "website": "https://www.stokomani.fr/pages/boutique-stokomani-montceau-les-mines-71300"
      }
    },
    {
      "type": "Feature",
      "geometry": {
        "type": "Point",
        "coordinates": [
          3.2646,
          43.339264
        ]
      },
      "properties": {
        "brand": "Stokomani",
        "brand:wikidata": "Q22249328",
        "brand:wikipedia": "fr:Stokomani",
        "name": "Stokomani",
        "alt_name": "Stokomani Béziers",
        "addr:housenumber": "1",
        "addr:street": "rue terret",
        "addr:postcode": "34500",
        "addr:city": "Beziers",
        "fixme": "Please verify address: 1 rue terret",
        "opening_hours": "Mo-Sa 09:00-19:30",
        "shop": "variety_store",
        "ref:FR:Stokomani:id": "167",
        "website": "https://www.stokomani.fr/pages/boutique-stokomani-beziers-34500"
      }
    },
    {
      "type": "Feature",
      "geometry": {
        "type": "Point",
        "coordinates": [
          0.972569,
          49.53126
        ]
      },
      "properties": {
        "brand": "Stokomani",
        "brand:wikidata": "Q22249328",
        "brand:wikipedia": "fr:Stokomani",
        "name": "Stokomani",
        "alt_name": "Stokomani Pissy Poville",
        "addr:street": "Lieu-dit Malzaize",
        "addr:postcode": "76360",
        "addr:city": "Pissy-Poville",
        "fixme": "Please verify address: Lieu-dit Malzaize, Croisement D6015 et route de Malzaize",
        "opening_hours": "Mo-Sa 09:00-19:30",
        "shop": "variety_store",
        "ref:FR:Stokomani:id": "17",
        "phone": "+33 2 32 19 05 90",
        "website": "https://www.stokomani.fr/pages/boutique-stokomani-pissy-poville-76360"
      }
    },
    {
      "type": "Feature",
      "geometry": {
        "type": "Point",
        "coordinates": [
          0.063307,
          48.433575
        ]
      },
      "properties": {
        "brand": "Stokomani",
        "brand:wikidata": "Q22249328",
        "brand:wikipedia": "fr:Stokomani",
        "name": "Stokomani",
        "alt_name": "Stokomani Alençon",
        "addr:street": "RUE DE BRETAGNE",
        "addr:postcode": "61250",
        "addr:city": "Conde-Sur-Sarthe",
        "fixme": "Please verify address: RUE DE BRETAGNE",
        "opening_hours": "Mo-Sa 09:00-19:00",
        "shop": "variety_store",
        "ref:FR:Stokomani:id": "170",
        "website": "https://www.stokomani.fr/pages/boutique-stokomani-conde-sur-sarthe-61250"
      }
    },
    {
      "type": "Feature",
      "geometry": {
        "type": "Point",
        "coordinates": [
          2.971834,
          50.628914
        ]
      },
      "properties": {
        "brand": "Stokomani",
        "brand:wikidata": "Q22249328",
        "brand:wikipedia": "fr:Stokomani",
        "name": "Stokomani",
        "alt_name": "Stokomani Englos",
        "addr:street": "AV DE LA BOUTILLERIE",
        "addr:postcode": "59320",
        "addr:city": "Sequedin",
        "fixme": "Please verify address: AV DE LA BOUTILLERIE",
        "opening_hours": "Mo-Sa 09:00-19:30",
        "shop": "variety_store",
        "ref:FR:Stokomani:id": "174",
        "website": "https://www.stokomani.fr/pages/boutique-stokomani-sequedin-59320"
      }
    },
    {
      "type": "Feature",
      "geometry": {
        "type": "Point",
        "coordinates": [
          7.369074,
          48.706406
        ]
      },
      "properties": {
        "brand": "Stokomani",
        "brand:wikidata": "Q22249328",
        "brand:wikipedia": "fr:Stokomani",
        "name": "Stokomani",
        "alt_name": "Stokomani Marmoutier",
        "addr:street": "rue de saverne",
        "addr:postcode": "67440",
        "addr:city": "Marmoutier",
        "fixme": "Please verify address: rue de saverne",
        "opening_hours": "Mo-Sa 09:00-19:00",
        "shop": "variety_store",
        "ref:FR:Stokomani:id": "176",
        "website": "https://www.stokomani.fr/pages/boutique-stokomani-marmoutier-67440"
      }
    },
    {
      "type": "Feature",
      "geometry": {
        "type": "Point",
        "coordinates": [
          -0.240917,
          44.539925
        ]
      },
      "properties": {
        "brand": "Stokomani",
        "brand:wikidata": "Q22249328",
        "brand:wikipedia": "fr:Stokomani",
        "name": "Stokomani",
        "alt_name": "Stokomani Langon",
        "addr:housenumber": "1",
        "addr:street": "place de l'étoile",
        "addr:postcode": "33210",
        "addr:city": "Langon",
        "fixme": "Please verify address: 1 place de l'étoile",
        "opening_hours": "Mo-Sa 09:00-19:00",
        "shop": "variety_store",
        "ref:FR:Stokomani:id": "178",
        "website": "https://www.stokomani.fr/pages/boutique-stokomani-langon-33210"
      }
    },
    {
      "type": "Feature",
      "geometry": {
        "type": "Point",
        "coordinates": [
          0.637034,
          44.176186
        ]
      },
      "properties": {
        "brand": "Stokomani",
        "brand:wikidata": "Q22249328",
        "brand:wikipedia": "fr:Stokomani",
        "name": "Stokomani",
        "alt_name": "Stokomani Agen",
        "addr:housenumber": "83",
        "addr:street": "rue de gardes",
        "addr:postcode": "47550",
        "addr:city": "Boe",
        "fixme": "Please verify address: 83 rue de gardes",
        "opening_hours": "Mo-Sa 09:00-19:30",
        "shop": "variety_store",
        "ref:FR:Stokomani:id": "179",
        "website": "https://www.stokomani.fr/pages/boutique-stokomani-boe-47550"
      }
    },
    {
      "type": "Feature",
      "geometry": {
        "type": "Point",
        "coordinates": [
          2.677179,
          50.47505
        ]
      },
      "properties": {
        "brand": "Stokomani",
        "brand:wikidata": "Q22249328",
        "brand:wikipedia": "fr:Stokomani",
        "name": "Stokomani",
        "alt_name": "Stokomani Noeux Les Mines",
        "addr:street": "Base Loisinord",
        "addr:postcode": "62290",
        "addr:city": "Noeux-Les-Mines",
        "fixme": "Please verify address: Base Loisinord, Avenue du Lac",
        "opening_hours": "Mo-Sa 09:00-19:30; Su 10:00-19:00",
        "shop": "variety_store",
        "ref:FR:Stokomani:id": "18",
        "phone": "+33 3 21 65 41 64",
        "website": "https://www.stokomani.fr/pages/boutique-stokomani-noeux-les-mines-62290"
      }
    },
    {
      "type": "Feature",
      "geometry": {
        "type": "Point",
        "coordinates": [
          6.256906,
          46.19611
        ]
      },
      "properties": {
        "brand": "Stokomani",
        "brand:wikidata": "Q22249328",
        "brand:wikipedia": "fr:Stokomani",
        "name": "Stokomani",
        "alt_name": "Stokomani Annemasse",
        "addr:housenumber": "22",
        "addr:street": "rue de la résistance",
        "addr:postcode": "74100",
        "addr:city": "Annemasse",
        "fixme": "Please verify address: 22 rue de la résistance",
        "opening_hours": "Mo-Sa 09:00-20:00",
        "shop": "variety_store",
        "ref:FR:Stokomani:id": "180",
        "website": "https://www.stokomani.fr/pages/boutique-stokomani-annemasse-74100"
      }
    },
    {
      "type": "Feature",
      "geometry": {
        "type": "Point",
        "coordinates": [
          2.502477,
          48.87938
        ]
      },
      "properties": {
        "brand": "Stokomani",
        "brand:wikidata": "Q22249328",
        "brand:wikipedia": "fr:Stokomani",
        "name": "Stokomani",
        "alt_name": "Stokomani Villemomble",
        "addr:housenumber": "43",
        "addr:street": "allée du plateau",
        "addr:postcode": "93250",
        "addr:city": "Villemomble",
        "fixme": "Please verify address: 43 allée du plateau",
        "opening_hours": "Mo-Sa 09:00-20:00; Su 10:00-19:00",
        "shop": "variety_store",
        "ref:FR:Stokomani:id": "182",
        "website": "https://www.stokomani.fr/pages/boutique-stokomani-villemomble-93250"
      }
    },
    {
      "type": "Feature",
      "geometry": {
        "type": "Point",
        "coordinates": [
          2.463106,
          47.099186
        ]
      },
      "properties": {
        "brand": "Stokomani",
        "brand:wikidata": "Q22249328",
        "brand:wikipedia": "fr:Stokomani",
        "name": "Stokomani",
        "alt_name": "Stokomani Saint Germain Du Puy",
        "addr:street": "Route de la Charité",
        "addr:postcode": "18390",
        "addr:city": "Saint-Germain-Du-Puy",
        "fixme": "Please verify address: Route de la Charité",
        "opening_hours": "Mo-Sa 09:00-19:00; Su 10:00-19:00",
        "shop": "variety_store",
        "ref:FR:Stokomani:id": "19",
        "phone": "+33 2 48 24 02 83",
        "website": "https://www.stokomani.fr/pages/boutique-stokomani-saint-germain-du-puy-18390"
      }
    },
    {
      "type": "Feature",
      "geometry": {
        "type": "Point",
        "coordinates": [
          -0.565103,
          44.87104
        ]
      },
      "properties": {
        "brand": "Stokomani",
        "brand:wikidata": "Q22249328",
        "brand:wikipedia": "fr:Stokomani",
        "name": "Stokomani",
        "alt_name": "Stokomani Bordeaux",
        "addr:housenumber": "213",
        "addr:street": "Boulevard Alfred Daney",
        "addr:postcode": "33000",
        "addr:city": "Bordeaux",
        "fixme": "Please verify address: 213, Boulevard Alfred Daney ,",
        "opening_hours": "Mo-Sa 09:00-19:30; Su 10:00-19:00",
        "shop": "variety_store",
        "ref:FR:Stokomani:id": "20",
        "phone": "+33 5 56 17 40 10",
        "website": "https://www.stokomani.fr/pages/boutique-stokomani-bordeaux-33000"
      }
    },
    {
      "type": "Feature",
      "geometry": {
        "type": "Point",
        "coordinates": [
          6.026326,
          43.13492
        ]
      },
      "properties": {
        "brand": "Stokomani",
        "brand:wikidata": "Q22249328",
        "brand:wikipedia": "fr:Stokomani",
        "name": "Stokomani",
        "alt_name": "Stokomani Toulon La Garde",
        "addr:street": "ZAC des 4 Chemins",
        "addr:postcode": "83130",
        "addr:city": "La Garde",
        "fixme": "Please verify address: ZAC des 4 Chemins, Avenue Robespierre",
        "opening_hours": "Mo-Sa 09:00-19:30",
        "shop": "variety_store",
        "ref:FR:Stokomani:id": "22",
        "phone": "+33 4 94 00 12 50",
        "website": "https://www.stokomani.fr/pages/boutique-stokomani-la-garde-83130"
      }
    },
    {
      "type": "Feature",
      "geometry": {
        "type": "Point",
        "coordinates": [
          -2.706119,
          47.64736
        ]
      },
      "properties": {
        "brand": "Stokomani",
        "brand:wikidata": "Q22249328",
        "brand:wikipedia": "fr:Stokomani",
        "name": "Stokomani",
        "alt_name": "Stokomani Theix",
        "addr:street": "Zone Atlantheix",
        "addr:postcode": "56450",
        "addr:city": "Theix",
        "fixme": "Please verify address: Zone Atlantheix, Rue Jacques Cartier",
        "opening_hours": "Mo-Sa 09:00-19:00",
        "shop": "variety_store",
        "ref:FR:Stokomani:id": "23",
        "phone": "+33 2 97 47 84 50",
        "website": "https://www.stokomani.fr/pages/boutique-stokomani-theix-56450"
      }
    },
    {
      "type": "Feature",
      "geometry": {
        "type": "Point",
        "coordinates": [
          3.256534,
          49.85593
        ]
      },
      "properties": {
        "brand": "Stokomani",
        "brand:wikidata": "Q22249328",
        "brand:wikipedia": "fr:Stokomani",
        "name": "Stokomani",
        "alt_name": "Stokomani Saint Quentin",
        "addr:street": "ZAC de la vallée – RD 1029",
        "addr:postcode": "02100",
        "addr:city": "Saint-Quentin",
        "fixme": "Please verify address: ZAC de la vallée – RD 1029",
        "opening_hours": "Mo-Sa 09:00-19:00",
        "shop": "variety_store",
        "ref:FR:Stokomani:id": "26",
        "phone": "+33 3 23 68 69 29",
        "website": "https://www.stokomani.fr/pages/boutique-stokomani-saint-quentin-02100"
      }
    },
    {
      "type": "Feature",
      "geometry": {
        "type": "Point",
        "coordinates": [
          2.685802,
          48.87326
        ]
      },
      "properties": {
        "brand": "Stokomani",
        "brand:wikidata": "Q22249328",
        "brand:wikipedia": "fr:Stokomani",
        "name": "Stokomani",
        "alt_name": "Stokomani Lagny Sur Marne",
        "addr:housenumber": "40",
        "addr:street": "RUE BRANLY",
        "addr:postcode": "77400",
        "addr:city": "Lagny-Sur-Marne",
        "fixme": "Please verify address: 40 RUE BRANLY",
        "opening_hours": "Mo-Sa 09:00-19:30",
        "shop": "variety_store",
        "ref:FR:Stokomani:id": "27",
        "phone": "+33 1 60 31 15 43",
        "website": "https://www.stokomani.fr/pages/boutique-stokomani-lagny-sur-marne-77400"
      }
    },
    {
      "type": "Feature",
      "geometry": {
        "type": "Point",
        "coordinates": [
          -1.691225,
          48.13839
        ]
      },
      "properties": {
        "brand": "Stokomani",
        "brand:wikidata": "Q22249328",
        "brand:wikipedia": "fr:Stokomani",
        "name": "Stokomani",
        "alt_name": "Stokomani Saint Gregoire",
        "addr:housenumber": "8",
        "addr:street": "rue de la Cerisaie",
        "addr:postcode": "35760",
        "addr:city": "Saint-Gregoire",
        "fixme": "Please verify address: 8 rue de la Cerisaie, CC du grand quartier",
        "opening_hours": "Mo-Sa 09:00-19:00",
        "shop": "variety_store",
        "ref:FR:Stokomani:id": "28",
        "phone": "+33 2 23 21 22 70",
        "website": "https://www.stokomani.fr/pages/boutique-stokomani-saint-gregoire-35760"
      }
    },
    {
      "type": "Feature",
      "geometry": {
        "type": "Point",
        "coordinates": [
          0.170766,
          48.03695
        ]
      },
      "properties": {
        "brand": "Stokomani",
        "brand:wikidata": "Q22249328",
        "brand:wikipedia": "fr:Stokomani",
        "name": "Stokomani",
        "alt_name": "Stokomani La Chapelle Saint Aubin",
        "addr:street": "Rue Louis Delage",
        "addr:postcode": "72650",
        "addr:city": "La Chapelle-Saint-Aubin",
        "fixme": "Please verify address: Rue Louis Delage, Zone C. du Moulin des Moines",
        "opening_hours": "Mo-Sa 09:00-19:30",
        "shop": "variety_store",
        "ref:FR:Stokomani:id": "29",
        "phone": "+33 2 43 20 39 27",
        "website": "https://www.stokomani.fr/pages/boutique-stokomani-la-chapelle-saint-aubin-72650"
      }
    },
    {
      "type": "Feature",
      "geometry": {
        "type": "Point",
        "coordinates": [
          2.115267,
          49.41365
        ]
      },
      "properties": {
        "brand": "Stokomani",
        "brand:wikidata": "Q22249328",
        "brand:wikipedia": "fr:Stokomani",
        "name": "Stokomani",
        "alt_name": "Stokomani Beauvais",
        "addr:street": "ZAC Du Ther",
        "addr:postcode": "60000",
        "addr:city": "Beauvais",
        "fixme": "Please verify address: ZAC Du Ther, Rue Bernard Palissy",
        "opening_hours": "Mo-Sa 09:00-19:30",
        "shop": "variety_store",
        "ref:FR:Stokomani:id": "3",
        "phone": "+33 3 44 02 98 85",
        "website": "https://www.stokomani.fr/pages/boutique-stokomani-beauvais-60000"
      }
    },
    {
      "type": "Feature",
      "geometry": {
        "type": "Point",
        "coordinates": [
          2.969938,
          50.410656
        ]
      },
      "properties": {
        "brand": "Stokomani",
        "brand:wikidata": "Q22249328",
        "brand:wikipedia": "fr:Stokomani",
        "name": "Stokomani",
        "alt_name": "Stokomani Henin Beaumont",
        "addr:street": "Avenue du Bord des Eaux",
        "addr:postcode": "62110",
        "addr:city": "Henin-Beaumont",
        "fixme": "Please verify address: Avenue du Bord des Eaux",
        "opening_hours": "Mo-Sa 09:00-19:30; Su 10:00-19:00",
        "shop": "variety_store",
        "ref:FR:Stokomani:id": "30",
        "phone": "+33 3 91 83 21 65",
        "website": "https://www.stokomani.fr/pages/boutique-stokomani-henin-beaumont-62110"
      }
    },
    {
      "type": "Feature",
      "geometry": {
        "type": "Point",
        "coordinates": [
          -2.786043,
          48.518795
        ]
      },
      "properties": {
        "brand": "Stokomani",
        "brand:wikidata": "Q22249328",
        "brand:wikipedia": "fr:Stokomani",
        "name": "Stokomani",
        "alt_name": "Stokomani Saint Brieuc",
        "addr:street": "Zone C \"Les Villages\"",
        "addr:postcode": "22000",
        "addr:city": "Saint-Brieuc",
        "fixme": "Please verify address: Zone C \"Les Villages\", 15-21 bd de l'Atlantique",
        "opening_hours": "Mo-Sa 09:00-19:00",
        "shop": "variety_store",
        "ref:FR:Stokomani:id": "31",
        "phone": "+33 2 96 01 06 00",
        "website": "https://www.stokomani.fr/pages/boutique-stokomani-saint-brieuc-22000"
      }
    },
    {
      "type": "Feature",
      "geometry": {
        "type": "Point",
        "coordinates": [
          4.790288,
          46.257595
        ]
      },
      "properties": {
        "brand": "Stokomani",
        "brand:wikidata": "Q22249328",
        "brand:wikipedia": "fr:Stokomani",
        "name": "Stokomani",
        "alt_name": "Stokomani Macon",
        "addr:street": "Lieudit « Les lites »",
        "addr:postcode": "71570",
        "addr:city": "Chaintre",
        "fixme": "Please verify address: Lieudit « Les lites », D906 – route des cadots",
        "opening_hours": "Mo-Sa 09:00-19:30",
        "shop": "variety_store",
        "ref:FR:Stokomani:id": "32",
        "phone": "+33 3 85 59 35 96",
        "website": "https://www.stokomani.fr/pages/boutique-stokomani-chaintre-71570"
      }
    },
    {
      "type": "Feature",
      "geometry": {
        "type": "Point",
        "coordinates": [
          5.993482,
          47.285385
        ]
      },
      "properties": {
        "brand": "Stokomani",
        "brand:wikidata": "Q22249328",
        "brand:wikipedia": "fr:Stokomani",
        "name": "Stokomani",
        "alt_name": "Stokomani Chatillon Le Duc",
        "addr:street": "ZAC VALENTIN",
        "addr:postcode": "25870",
        "addr:city": "Chatillon-Le-Duc",
        "fixme": "Please verify address: ZAC VALENTIN, 3 ROUTE DE CHATILLON",
        "opening_hours": "Mo-Sa 09:00-19:30",
        "shop": "variety_store",
        "ref:FR:Stokomani:id": "33",
        "phone": "+33 3 81 25 15 00",
        "website": "https://www.stokomani.fr/pages/boutique-stokomani-chatillon-le-duc-25870"
      }
    },
    {
      "type": "Feature",
      "geometry": {
        "type": "Point",
        "coordinates": [
          0.295436,
          46.548256
        ]
      },
      "properties": {
        "brand": "Stokomani",
        "brand:wikidata": "Q22249328",
        "brand:wikipedia": "fr:Stokomani",
        "name": "Stokomani",
        "alt_name": "Stokomani Croutelle",
        "addr:street": "Rue de la Saulaie",
        "addr:postcode": "86240",
        "addr:city": "Croutelle",
        "fixme": "Please verify address: Rue de la Saulaie",
        "opening_hours": "Mo-Sa 09:00-19:00",
        "shop": "variety_store",
        "ref:FR:Stokomani:id": "34",
        "phone": "+33 5 49 47 29 14",
        "website": "https://www.stokomani.fr/pages/boutique-stokomani-croutelle-86240"
      }
    },
    {
      "type": "Feature",
      "geometry": {
        "type": "Point",
        "coordinates": [
          0.706005,
          47.43163
        ]
      },
      "properties": {
        "brand": "Stokomani",
        "brand:wikidata": "Q22249328",
        "brand:wikipedia": "fr:Stokomani",
        "name": "Stokomani",
        "alt_name": "Stokomani Tours",
        "addr:housenumber": "368",
        "addr:street": "Avenue Maginot",
        "addr:postcode": "37000",
        "addr:city": "Tours",
        "fixme": "Please verify address: 368 Avenue Maginot",
        "opening_hours": "Mo-Sa 09:00-19:00",
        "shop": "variety_store",
        "ref:FR:Stokomani:id": "35",
        "phone": "+33 2 47 78 18 40",
        "website": "https://www.stokomani.fr/pages/boutique-stokomani-tours-37000"
      }
    },
    {
      "type": "Feature",
      "geometry": {
        "type": "Point",
        "coordinates": [
          3.216021,
          45.78542
        ]
      },
      "properties": {
        "brand": "Stokomani",
        "brand:wikidata": "Q22249328",
        "brand:wikipedia": "fr:Stokomani",
        "name": "Stokomani",
        "alt_name": "Stokomani Pont Du Chateau",
        "addr:street": "Route Nationale 89",
        "addr:postcode": "63430",
        "addr:city": "Pont-Du-Chateau",
        "fixme": "Please verify address: Route Nationale 89, ZAC de Champ Lamet",
        "opening_hours": "Mo-Sa 09:00-19:00",
        "shop": "variety_store",
        "ref:FR:Stokomani:id": "36",
        "phone": "+33 4 73 73 73 40",
        "website": "https://www.stokomani.fr/pages/boutique-stokomani-pont-du-chateau-63430"
      }
    },
    {
      "type": "Feature",
      "geometry": {
        "type": "Point",
        "coordinates": [
          -1.094568,
          46.101456
        ]
      },
      "properties": {
        "brand": "Stokomani",
        "brand:wikidata": "Q22249328",
        "brand:wikipedia": "fr:Stokomani",
        "name": "Stokomani",
        "alt_name": "Stokomani Angoulins-Sur- Mer",
        "addr:street": "Z.A des Ormeaux",
        "addr:postcode": "17690",
        "addr:city": "Angoulins",
        "fixme": "Please verify address: Z.A des Ormeaux, Rue du Moulin de la Pierre",
        "opening_hours": "Mo-Sa 09:00-19:00",
        "shop": "variety_store",
        "ref:FR:Stokomani:id": "37",
        "phone": "+33 5 46 27 57 17",
        "website": "https://www.stokomani.fr/pages/boutique-stokomani-angoulins-17690"
      }
    },
    {
      "type": "Feature",
      "geometry": {
        "type": "Point",
        "coordinates": [
          4.868621,
          43.920406
        ]
      },
      "properties": {
        "brand": "Stokomani",
        "brand:wikidata": "Q22249328",
        "brand:wikipedia": "fr:Stokomani",
        "name": "Stokomani",
        "alt_name": "Stokomani Avignon Sud",
        "addr:street": "Mistral 7",
        "addr:postcode": "84140",
        "addr:city": "Avignon",
        "fixme": "Please verify address: Mistral 7, 270 Avenue Marcou Delanglade",
        "opening_hours": "Mo-Sa 09:00-19:00",
        "shop": "variety_store",
        "ref:FR:Stokomani:id": "38",
        "phone": "+33 4 32 75 10 50",
        "website": "https://www.stokomani.fr/pages/boutique-stokomani-avignon-84140"
      }
    },
    {
      "type": "Feature",
      "geometry": {
        "type": "Point",
        "coordinates": [
          5.692905,
          45.144547
        ]
      },
      "properties": {
        "brand": "Stokomani",
        "brand:wikidata": "Q22249328",
        "brand:wikipedia": "fr:Stokomani",
        "name": "Stokomani",
        "alt_name": "Stokomani Echirolles",
        "addr:housenumber": "23",
        "addr:street": "rue de Comboire",
        "addr:postcode": "38130",
        "addr:city": "Echirolles",
        "fixme": "Please verify address: 23 rue de Comboire, ZAC de Comboire",
        "opening_hours": "Mo-Sa 09:00-19:30",
        "shop": "variety_store",
        "ref:FR:Stokomani:id": "39",
        "phone": "+33 4 38 12 46 30",
        "website": "https://www.stokomani.fr/pages/boutique-stokomani-echirolles-38130"
      }
    },
    {
      "type": "Feature",
      "geometry": {
        "type": "Point",
        "coordinates": [
          2.459315,
          49.230743
        ]
      },
      "properties": {
        "brand": "Stokomani",
        "brand:wikidata": "Q22249328",
        "brand:wikipedia": "fr:Stokomani",
        "name": "Stokomani",
        "alt_name": "Stokomani Saint-Maximin",
        "addr:street": "ZAC les Longères des Haies",
        "addr:postcode": "60740",
        "addr:city": "Saint-Maximin",
        "fixme": "Please verify address: ZAC les Longères des Haies, 152 Avenue de la Paix",
        "opening_hours": "Mo-Sa 09:00-19:30",
        "shop": "variety_store",
        "ref:FR:Stokomani:id": "4",
        "phone": "+33 3 44 66 41 00",
        "website": "https://www.stokomani.fr/pages/boutique-stokomani-saint-maximin-60740"
      }
    },
    {
      "type": "Feature",
      "geometry": {
        "type": "Point",
        "coordinates": [
          5.96676,
          45.56629
        ]
      },
      "properties": {
        "brand": "Stokomani",
        "brand:wikidata": "Q22249328",
        "brand:wikipedia": "fr:Stokomani",
        "name": "Stokomani",
        "alt_name": "Stokomani La Ravoire",
        "addr:housenumber": "135",
        "addr:street": "rue Pierre et Marie Curie",
        "addr:postcode": "73490",
        "addr:city": "La Ravoire",
        "fixme": "Please verify address: 135 rue Pierre et Marie Curie, Zone industrielle du Roc Noir",
        "opening_hours": "Mo-Sa 09:00-19:30",
        "shop": "variety_store",
        "ref:FR:Stokomani:id": "40",
        "phone": "+33 4 79 26 69 00",
        "website": "https://www.stokomani.fr/pages/boutique-stokomani-la-ravoire-73490"
      }
    },
    {
      "type": "Feature",
      "geometry": {
        "type": "Point",
        "coordinates": [
          6.101805,
          49.078995
        ]
      },
      "properties": {
        "brand": "Stokomani",
        "brand:wikidata": "Q22249328",
        "brand:wikipedia": "fr:Stokomani",
        "name": "Stokomani",
        "alt_name": "Stokomani Jouy Aux Arches",
        "addr:street": "RN 57 - Zone Indus TOURNEBRIDE",
        "addr:postcode": "57160",
        "addr:city": "Moulins-Les-Metz",
        "fixme": "Please verify address: RN 57 - Zone Indus TOURNEBRIDE",
        "opening_hours": "Mo-Sa 09:00-19:00",
        "shop": "variety_store",
        "ref:FR:Stokomani:id": "41",
        "phone": "+33 3 87 38 45 55",
        "website": "https://www.stokomani.fr/pages/boutique-stokomani-moulins-les-metz-57160"
      }
    },
    {
      "type": "Feature",
      "geometry": {
        "type": "Point",
        "coordinates": [
          4.046528,
          49.21219
        ]
      },
      "properties": {
        "brand": "Stokomani",
        "brand:wikidata": "Q22249328",
        "brand:wikipedia": "fr:Stokomani",
        "name": "Stokomani",
        "alt_name": "Stokomani Cormontreuil",
        "addr:street": "Rue de la Sentelle",
        "addr:postcode": "51350",
        "addr:city": "Cormontreuil",
        "fixme": "Please verify address: Rue de la Sentelle,",
        "opening_hours": "Mo-Sa 09:00-19:30",
        "shop": "variety_store",
        "ref:FR:Stokomani:id": "42",
        "phone": "+33 3 26 61 27 59",
        "website": "https://www.stokomani.fr/pages/boutique-stokomani-cormontreuil-51350"
      }
    },
    {
      "type": "Feature",
      "geometry": {
        "type": "Point",
        "coordinates": [
          7.310772,
          47.797398
        ]
      },
      "properties": {
        "brand": "Stokomani",
        "brand:wikidata": "Q22249328",
        "brand:wikipedia": "fr:Stokomani",
        "name": "Stokomani",
        "alt_name": "Stokomani Wittenheim",
        "addr:housenumber": "143",
        "addr:street": "rue des mines anna",
        "addr:postcode": "68270",
        "addr:city": "Wittenheim",
        "fixme": "Please verify address: 143 rue des mines anna",
        "opening_hours": "Mo-Sa 09:00-19:00",
        "shop": "variety_store",
        "ref:FR:Stokomani:id": "43",
        "phone": "+33 3 89 33 55 10",
        "website": "https://www.stokomani.fr/pages/boutique-stokomani-wittenheim-68270"
      }
    },
    {
      "type": "Feature",
      "geometry": {
        "type": "Point",
        "coordinates": [
          3.222041,
          50.678062
        ]
      },
      "properties": {
        "brand": "Stokomani",
        "brand:wikidata": "Q22249328",
        "brand:wikipedia": "fr:Stokomani",
        "name": "Stokomani",
        "alt_name": "Stokomani Lys-Lez-Lannoy",
        "addr:street": "Rue des Verdiers",
        "addr:postcode": "59390",
        "addr:city": "Lys-Lez-Lannoy",
        "fixme": "Please verify address: Rue des Verdiers,",
        "opening_hours": "Mo-Sa 09:00-19:30",
        "shop": "variety_store",
        "ref:FR:Stokomani:id": "44",
        "phone": "+33 3 28 34 29 60",
        "website": "https://www.stokomani.fr/pages/boutique-stokomani-lys-lez-lannoy-59390"
      }
    },
    {
      "type": "Feature",
      "geometry": {
        "type": "Point",
        "coordinates": [
          6.435857,
          46.350643
        ]
      },
      "properties": {
        "brand": "Stokomani",
        "brand:wikidata": "Q22249328",
        "brand:wikipedia": "fr:Stokomani",
        "name": "Stokomani",
        "alt_name": "Stokomani Thonon Les Bains",
        "addr:housenumber": "21",
        "addr:street": "Avenue du Pré Robert-Sud",
        "addr:postcode": "74200",
        "addr:city": "Anthy-Sur-Leman",
        "fixme": "Please verify address: 21 Avenue du Pré Robert-Sud",
        "opening_hours": "Mo-Sa 09:00-19:30",
        "shop": "variety_store",
        "ref:FR:Stokomani:id": "45",
        "phone": "+33 4 50 16 89 07",
        "website": "https://www.stokomani.fr/pages/boutique-stokomani-anthy-sur-leman-74200"
      }
    },
    {
      "type": "Feature",
      "geometry": {
        "type": "Point",
        "coordinates": [
          2.726175,
          50.306343
        ]
      },
      "properties": {
        "brand": "Stokomani",
        "brand:wikidata": "Q22249328",
        "brand:wikipedia": "fr:Stokomani",
        "name": "Stokomani",
        "alt_name": "Stokomani Arras - Duisans",
        "addr:street": "Promenade d'Artois Zone commerciale Arras",
        "addr:postcode": "62161",
        "addr:city": "Duisans",
        "fixme": "Please verify address: Promenade d'Artois Zone commerciale Arras",
        "opening_hours": "Mo-Sa 09:00-19:30",
        "shop": "variety_store",
        "ref:FR:Stokomani:id": "46",
        "phone": "+33 3 21 21 76 30",
        "website": "https://www.stokomani.fr/pages/boutique-stokomani-duisans-62161"
      }
    },
    {
      "type": "Feature",
      "geometry": {
        "type": "Point",
        "coordinates": [
          1.287814,
          45.882996
        ]
      },
      "properties": {
        "brand": "Stokomani",
        "brand:wikidata": "Q22249328",
        "brand:wikipedia": "fr:Stokomani",
        "name": "Stokomani",
        "alt_name": "Stokomani Limoges",
        "addr:street": "Rue Frédéric BASTIAT",
        "addr:postcode": "87000",
        "addr:city": "Limoges",
        "fixme": "Please verify address: Rue Frédéric BASTIAT",
        "opening_hours": "Mo-Sa 09:00-19:00",
        "shop": "variety_store",
        "ref:FR:Stokomani:id": "47",
        "phone": "+33 5 55 35 76 10",
        "website": "https://www.stokomani.fr/pages/boutique-stokomani-limoges-87000"
      }
    },
    {
      "type": "Feature",
      "geometry": {
        "type": "Point",
        "coordinates": [
          1.411177,
          43.55319
        ]
      },
      "properties": {
        "brand": "Stokomani",
        "brand:wikidata": "Q22249328",
        "brand:wikipedia": "fr:Stokomani",
        "name": "Stokomani",
        "alt_name": "Stokomani Toulouse",
        "addr:street": "Rue Jean Perrin,",
        "addr:postcode": "31000",
        "addr:city": "Toulouse",
        "fixme": "Please verify address: Rue Jean Perrin,",
        "opening_hours": "Mo-Sa 09:00-19:00",
        "shop": "variety_store",
        "ref:FR:Stokomani:id": "48",
        "phone": "+33 5 34 55 65 00",
        "website": "https://www.stokomani.fr/pages/boutique-stokomani-toulouse-31000"
      }
    },
    {
      "type": "Feature",
      "geometry": {
        "type": "Point",
        "coordinates": [
          -0.32056,
          49.16932
        ]
      },
      "properties": {
        "brand": "Stokomani",
        "brand:wikidata": "Q22249328",
        "brand:wikipedia": "fr:Stokomani",
        "name": "Stokomani",
        "alt_name": "Stokomani Mondeville",
        "addr:street": "Route de Paris",
        "addr:postcode": "14120",
        "addr:city": "Mondeville",
        "fixme": "Please verify address: Route de Paris, Chemin de la Cavée",
        "opening_hours": "Mo-Sa 09:00-19:00",
        "shop": "variety_store",
        "ref:FR:Stokomani:id": "49",
        "phone": "+33 2 31 35 71 80",
        "website": "https://www.stokomani.fr/pages/boutique-stokomani-mondeville-14120"
      }
    },
    {
      "type": "Feature",
      "geometry": {
        "type": "Point",
        "coordinates": [
          5.851128,
          43.120747
        ]
      },
      "properties": {
        "brand": "Stokomani",
        "brand:wikidata": "Q22249328",
        "brand:wikipedia": "fr:Stokomani",
        "name": "Stokomani",
        "alt_name": "Stokomani La Seyne Sur Mer",
        "addr:street": "Z.I. du Camp Laurent",
        "addr:postcode": "83500",
        "addr:city": "La Seyne-Sur-Mer",
        "fixme": "Please verify address: Z.I. du Camp Laurent,",
        "opening_hours": "Mo-Sa 09:00-19:00",
        "shop": "variety_store",
        "ref:FR:Stokomani:id": "5",
        "phone": "+33 4 94 63 02 70",
        "website": "https://www.stokomani.fr/pages/boutique-stokomani-la-seyne-sur-mer-83500"
      }
    },
    {
      "type": "Feature",
      "geometry": {
        "type": "Point",
        "coordinates": [
          1.918288,
          47.94691
        ]
      },
      "properties": {
        "brand": "Stokomani",
        "brand:wikidata": "Q22249328",
        "brand:wikipedia": "fr:Stokomani",
        "name": "Stokomani",
        "alt_name": "Stokomani Fleury Les Aubrais",
        "addr:street": "Place du Commerce",
        "addr:postcode": "45400",
        "addr:city": "Fleury-Les-Aubrais",
        "fixme": "Please verify address: Place du Commerce, 5 rue Frédéric et Irène Joliot Curie",
        "opening_hours": "Mo-Sa 09:00-19:30",
        "shop": "variety_store",
        "ref:FR:Stokomani:id": "50",
        "phone": "+33 2 38 57 37 30",
        "website": "https://www.stokomani.fr/pages/boutique-stokomani-fleury-les-aubrais-45400"
      }
    },
    {
      "type": "Feature",
      "geometry": {
        "type": "Point",
        "coordinates": [
          4.888694,
          45.81513
        ]
      },
      "properties": {
        "brand": "Stokomani",
        "brand:wikidata": "Q22249328",
        "brand:wikipedia": "fr:Stokomani",
        "name": "Stokomani",
        "alt_name": "Stokomani Rillieux La Pape",
        "addr:housenumber": "2",
        "addr:street": "avenue du loup pendu",
        "addr:postcode": "69140",
        "addr:city": "Rillieux-La-Pape",
        "fixme": "Please verify address: 2 avenue du loup pendu",
        "opening_hours": "Mo-Sa 09:00-19:30",
        "shop": "variety_store",
        "ref:FR:Stokomani:id": "51",
        "phone": "+33 4 72 01 10 80",
        "website": "https://www.stokomani.fr/pages/boutique-stokomani-rillieux-la-pape-69140"
      }
    },
    {
      "type": "Feature",
      "geometry": {
        "type": "Point",
        "coordinates": [
          5.029931,
          47.355206
        ]
      },
      "properties": {
        "brand": "Stokomani",
        "brand:wikidata": "Q22249328",
        "brand:wikipedia": "fr:Stokomani",
        "name": "Stokomani",
        "alt_name": "Stokomani Fontaine Les Dijon",
        "addr:housenumber": "5",
        "addr:street": "rue Georges Bourgoin",
        "addr:postcode": "21121",
        "addr:city": "Fontaine-Les-Dijon",
        "fixme": "Please verify address: 5 rue Georges Bourgoin, A côté du Géant",
        "opening_hours": "Mo-Sa 09:00-19:30",
        "shop": "variety_store",
        "ref:FR:Stokomani:id": "52",
        "phone": "+33 3 80 53 16 90",
        "website": "https://www.stokomani.fr/pages/boutique-stokomani-fontaine-les-dijon-21121"
      }
    },
    {
      "type": "Feature",
      "geometry": {
        "type": "Point",
        "coordinates": [
          6.12892,
          48.695255
        ]
      },
      "properties": {
        "brand": "Stokomani",
        "brand:wikidata": "Q22249328",
        "brand:wikipedia": "fr:Stokomani",
        "name": "Stokomani",
        "alt_name": "Stokomani Laxou",
        "addr:housenumber": "18",
        "addr:street": "AVENUE DE LA RESISTANCE",
        "addr:postcode": "54520",
        "addr:city": "Laxou",
        "fixme": "Please verify address: 18 AVENUE DE LA RESISTANCE",
        "opening_hours": "Mo-Sa 09:00-19:00",
        "shop": "variety_store",
        "ref:FR:Stokomani:id": "53",
        "phone": "+33 3 83 67 64 68",
        "website": "https://www.stokomani.fr/pages/boutique-stokomani-laxou-54520"
      }
    },
    {
      "type": "Feature",
      "geometry": {
        "type": "Point",
        "coordinates": [
          5.247019,
          45.58984
        ]
      },
      "properties": {
        "brand": "Stokomani",
        "brand:wikidata": "Q22249328",
        "brand:wikipedia": "fr:Stokomani",
        "name": "Stokomani",
        "alt_name": "Stokomani Bourgoin-Jallieu",
        "addr:street": "ZAC de la Maladière",
        "addr:postcode": "38300",
        "addr:city": "Bourgoin-Jallieu",
        "fixme": "Please verify address: ZAC de la Maladière, 1 rue E. Branly",
        "opening_hours": "Mo-Sa 09:00-19:30",
        "shop": "variety_store",
        "ref:FR:Stokomani:id": "54",
        "phone": "+33 4 37 03 26 80",
        "website": "https://www.stokomani.fr/pages/boutique-stokomani-bourgoin-jallieu-38300"
      }
    },
    {
      "type": "Feature",
      "geometry": {
        "type": "Point",
        "coordinates": [
          1.36617,
          43.643906
        ]
      },
      "properties": {
        "brand": "Stokomani",
        "brand:wikidata": "Q22249328",
        "brand:wikipedia": "fr:Stokomani",
        "name": "Stokomani",
        "alt_name": "Stokomani Blagnac",
        "addr:street": "ZAC du Granf Noble",
        "addr:postcode": "31700",
        "addr:city": "Blagnac",
        "fixme": "Please verify address: ZAC du Granf Noble, Impasse Roland Garros",
        "opening_hours": "Mo-Sa 09:00-19:30",
        "shop": "variety_store",
        "ref:FR:Stokomani:id": "55",
        "phone": "+33 5 34 36 22 90",
        "website": "https://www.stokomani.fr/pages/boutique-stokomani-blagnac-31700"
      }
    },
    {
      "type": "Feature",
      "geometry": {
        "type": "Point",
        "coordinates": [
          5.352502,
          43.3638
        ]
      },
      "properties": {
        "brand": "Stokomani",
        "brand:wikidata": "Q22249328",
        "brand:wikipedia": "fr:Stokomani",
        "name": "Stokomani",
        "alt_name": "Stokomani Marseille Grand Littoral",
        "addr:street": "Centre Commercial Grand Littoral",
        "addr:postcode": "13015",
        "addr:city": "Marseille",
        "fixme": "Please verify address: Centre Commercial Grand Littoral, 11 Avenue Saint Antoine",
        "opening_hours": "Mo-Sa 09:00-19:30",
        "shop": "variety_store",
        "ref:FR:Stokomani:id": "56",
        "phone": "+33 4 91 22 92 40",
        "website": "https://www.stokomani.fr/pages/boutique-stokomani-marseille-13015"
      }
    },
    {
      "type": "Feature",
      "geometry": {
        "type": "Point",
        "coordinates": [
          4.857084,
          44.9434
        ]
      },
      "properties": {
        "brand": "Stokomani",
        "brand:wikidata": "Q22249328",
        "brand:wikipedia": "fr:Stokomani",
        "name": "Stokomani",
        "alt_name": "Stokomani Saint Péray",
        "addr:street": "Zone des Murets II",
        "addr:postcode": "07130",
        "addr:city": "Saint-Peray",
        "fixme": "Please verify address: Zone des Murets II, av de Gross - Umstadt",
        "opening_hours": "Mo-Sa 09:00-19:30",
        "shop": "variety_store",
        "ref:FR:Stokomani:id": "57",
        "phone": "+33 4 75 62 97 97",
        "website": "https://www.stokomani.fr/pages/boutique-stokomani-saint-peray-07130"
      }
    },
    {
      "type": "Feature",
      "geometry": {
        "type": "Point",
        "coordinates": [
          6.095034,
          45.879223
        ]
      },
      "properties": {
        "brand": "Stokomani",
        "brand:wikidata": "Q22249328",
        "brand:wikipedia": "fr:Stokomani",
        "name": "Stokomani",
        "alt_name": "Stokomani Annecy - Seynod",
        "addr:housenumber": "46",
        "addr:street": "Boulevard Costa de BEAUREGARD",
        "addr:postcode": "74600",
        "addr:city": "Seynod",
        "fixme": "Please verify address: 46 Boulevard Costa de BEAUREGARD, Zac Arcaloz 2",
        "opening_hours": "Mo-Sa 09:00-19:30",
        "shop": "variety_store",
        "ref:FR:Stokomani:id": "58",
        "phone": "+33 4 50 10 73 90",
        "website": "https://www.stokomani.fr/pages/boutique-stokomani-seynod-74600"
      }
    },
    {
      "type": "Feature",
      "geometry": {
        "type": "Point",
        "coordinates": [
          0.191979,
          49.521507
        ]
      },
      "properties": {
        "brand": "Stokomani",
        "brand:wikidata": "Q22249328",
        "brand:wikipedia": "fr:Stokomani",
        "name": "Stokomani",
        "alt_name": "Stokomani Montivilliers",
        "addr:housenumber": "16",
        "addr:street": "route de Rouelles",
        "addr:postcode": "76700",
        "addr:city": "Harfleur",
        "fixme": "Please verify address: 16 route de Rouelles, Centre Commercial La Lézarde",
        "opening_hours": "Mo-Sa 09:00-19:30",
        "shop": "variety_store",
        "ref:FR:Stokomani:id": "59",
        "phone": "+33 2 35 55 15 55",
        "website": "https://www.stokomani.fr/pages/boutique-stokomani-harfleur-76700"
      }
    },
    {
      "type": "Feature",
      "geometry": {
        "type": "Point",
        "coordinates": [
          3.461752,
          50.338245
        ]
      },
      "properties": {
        "brand": "Stokomani",
        "brand:wikidata": "Q22249328",
        "brand:wikipedia": "fr:Stokomani",
        "name": "Stokomani",
        "alt_name": "Stokomani Prouvy",
        "addr:housenumber": "7",
        "addr:street": "route Nationale",
        "addr:postcode": "59121",
        "addr:city": "Prouvy",
        "fixme": "Please verify address: 7 route Nationale,",
        "opening_hours": "Mo-Sa 09:00-19:00",
        "shop": "variety_store",
        "ref:FR:Stokomani:id": "60",
        "phone": "+33 3 27 20 40 60",
        "website": "https://www.stokomani.fr/pages/boutique-stokomani-prouvy-59121"
      }
    },
    {
      "type": "Feature",
      "geometry": {
        "type": "Point",
        "coordinates": [
          1.372912,
          44.031536
        ]
      },
      "properties": {
        "brand": "Stokomani",
        "brand:wikidata": "Q22249328",
        "brand:wikipedia": "fr:Stokomani",
        "name": "Stokomani",
        "alt_name": "Stokomani Montauban",
        "addr:housenumber": "141-185",
        "addr:street": "Av de Paris",
        "addr:postcode": "82000",
        "addr:city": "Montauban",
        "fixme": "Please verify address: 141-185 Av de Paris,",
        "opening_hours": "Mo-Sa 09:00-19:00",
        "shop": "variety_store",
        "ref:FR:Stokomani:id": "61",
        "phone": "+33 5 63 63 63 00",
        "website": "https://www.stokomani.fr/pages/boutique-stokomani-montauban-82000"
      }
    },
    {
      "type": "Feature",
      "geometry": {
        "type": "Point",
        "coordinates": [
          -1.461186,
          47.186195
        ]
      },
      "properties": {
        "brand": "Stokomani",
        "brand:wikidata": "Q22249328",
        "brand:wikipedia": "fr:Stokomani",
        "name": "Stokomani",
        "alt_name": "Stokomani Basse Goulaine",
        "addr:housenumber": "10",
        "addr:street": "rue de l'Atlantique",
        "addr:postcode": "44115",
        "addr:city": "Basse-Goulaine",
        "fixme": "Please verify address: 10 rue de l'Atlantique",
        "opening_hours": "Mo-Sa 09:00-19:00",
        "shop": "variety_store",
        "ref:FR:Stokomani:id": "62",
        "phone": "+33 2 40 56 18 34",
        "website": "https://www.stokomani.fr/pages/boutique-stokomani-basse-goulaine-44115"
      }
    },
    {
      "type": "Feature",
      "geometry": {
        "type": "Point",
        "coordinates": [
          -0.327026,
          43.305798
        ]
      },
      "properties": {
        "brand": "Stokomani",
        "brand:wikidata": "Q22249328",
        "brand:wikipedia": "fr:Stokomani",
        "name": "Stokomani",
        "alt_name": "Stokomani Pau",
        "addr:street": "Centre Commercial Le Hameau",
        "addr:postcode": "64000",
        "addr:city": "Pau",
        "fixme": "Please verify address: Centre Commercial Le Hameau, 21 Bd du commandant René Mouchotte",
        "opening_hours": "Mo-Sa 09:00-19:00",
        "shop": "variety_store",
        "ref:FR:Stokomani:id": "63",
        "phone": "+33 5 59 14 33 00",
        "website": "https://www.stokomani.fr/pages/boutique-stokomani-pau-64000"
      }
    },
    {
      "type": "Feature",
      "geometry": {
        "type": "Point",
        "coordinates": [
          -0.652767,
          44.8298
        ]
      },
      "properties": {
        "brand": "Stokomani",
        "brand:wikidata": "Q22249328",
        "brand:wikipedia": "fr:Stokomani",
        "name": "Stokomani",
        "alt_name": "Stokomani Merignac",
        "addr:street": "Rue de Mirepin",
        "addr:postcode": "33700",
        "addr:city": "Merignac",
        "fixme": "Please verify address: Rue de Mirepin, CC Merignac Soleil",
        "opening_hours": "Mo-Sa 09:00-19:00",
        "shop": "variety_store",
        "ref:FR:Stokomani:id": "64",
        "phone": "+33 5 56 12 80 43",
        "website": "https://www.stokomani.fr/pages/boutique-stokomani-merignac-33700"
      }
    },
    {
      "type": "Feature",
      "geometry": {
        "type": "Point",
        "coordinates": [
          4.959535,
          45.716038
        ]
      },
      "properties": {
        "brand": "Stokomani",
        "brand:wikidata": "Q22249328",
        "brand:wikipedia": "fr:Stokomani",
        "name": "Stokomani",
        "alt_name": "Stokomani Saint Priest",
        "addr:street": "Mi-Plaine",
        "addr:postcode": "69800",
        "addr:city": "Saint-Priest",
        "fixme": "Please verify address: Mi-Plaine, 227-229 ROUTE DE Grenoble",
        "opening_hours": "Mo-Sa 09:00-19:30",
        "shop": "variety_store",
        "ref:FR:Stokomani:id": "65",
        "phone": "+33 4 72 20 11 90",
        "website": "https://www.stokomani.fr/pages/boutique-stokomani-saint-priest-69800"
      }
    },
    {
      "type": "Feature",
      "geometry": {
        "type": "Point",
        "coordinates": [
          2.907668,
          42.774864
        ]
      },
      "properties": {
        "brand": "Stokomani",
        "brand:wikidata": "Q22249328",
        "brand:wikipedia": "fr:Stokomani",
        "name": "Stokomani",
        "alt_name": "Stokomani Rivesaltes",
        "addr:street": "Centre Commercial Cap Roussillon",
        "addr:postcode": "66600",
        "addr:city": "Rivesaltes",
        "fixme": "Please verify address: Centre Commercial Cap Roussillon, Lieu-dit \"Mas de la Guarrigue Sud\"",
        "opening_hours": "Mo-Sa 09:00-19:30; Su 10:00-19:00",
        "shop": "variety_store",
        "ref:FR:Stokomani:id": "66",
        "phone": "+33 4 68 51 69 85",
        "website": "https://www.stokomani.fr/pages/boutique-stokomani-rivesaltes-66600"
      }
    },
    {
      "type": "Feature",
      "geometry": {
        "type": "Point",
        "coordinates": [
          4.361085,
          43.808575
        ]
      },
      "properties": {
        "brand": "Stokomani",
        "brand:wikidata": "Q22249328",
        "brand:wikipedia": "fr:Stokomani",
        "name": "Stokomani",
        "alt_name": "Stokomani Nimes",
        "addr:street": "Carré Sud Mas de Vignoles",
        "addr:postcode": "30000",
        "addr:city": "Nimes",
        "fixme": "Please verify address: Carré Sud Mas de Vignoles, Rue Jean Lauret",
        "opening_hours": "Mo-Sa 09:00-19:30",
        "shop": "variety_store",
        "ref:FR:Stokomani:id": "67",
        "phone": "+33 4 66 27 81 50",
        "website": "https://www.stokomani.fr/pages/boutique-stokomani-nimes-30000"
      }
    },
    {
      "type": "Feature",
      "geometry": {
        "type": "Point",
        "coordinates": [
          2.35014,
          48.622627
        ]
      },
      "properties": {
        "brand": "Stokomani",
        "brand:wikidata": "Q22249328",
        "brand:wikipedia": "fr:Stokomani",
        "name": "Stokomani",
        "alt_name": "Stokomani Sainte Geneviève Des Bois",
        "addr:housenumber": "19",
        "addr:street": "Avenue de la Croix Blanche",
        "addr:postcode": "91700",
        "addr:city": "Sainte-Genevieve-Des-Bois",
        "fixme": "Please verify address: 19 Avenue de la Croix Blanche",
        "opening_hours": "Mo-Sa 09:00-19:30; Su 10:00-19:00",
        "shop": "variety_store",
        "ref:FR:Stokomani:id": "68",
        "phone": "+33 1 69 84 78 50",
        "website": "https://www.stokomani.fr/pages/boutique-stokomani-sainte-genevieve-des-bois-91700"
      }
    },
    {
      "type": "Feature",
      "geometry": {
        "type": "Point",
        "coordinates": [
          -0.844789,
          47.072796
        ]
      },
      "properties": {
        "brand": "Stokomani",
        "brand:wikidata": "Q22249328",
        "brand:wikipedia": "fr:Stokomani",
        "name": "Stokomani",
        "alt_name": "Stokomani Cholet",
        "addr:housenumber": "24",
        "addr:street": "avenue Edmont Michelet",
        "addr:postcode": "49300",
        "addr:city": "Cholet",
        "fixme": "Please verify address: 24 avenue Edmont Michelet",
        "opening_hours": "Mo-Sa 09:00-19:00",
        "shop": "variety_store",
        "ref:FR:Stokomani:id": "69",
        "phone": "+33 2 41 49 56 60",
        "website": "https://www.stokomani.fr/pages/boutique-stokomani-cholet-49300"
      }
    },
    {
      "type": "Feature",
      "geometry": {
        "type": "Point",
        "coordinates": [
          -3.338451,
          47.77737
        ]
      },
      "properties": {
        "brand": "Stokomani",
        "brand:wikidata": "Q22249328",
        "brand:wikipedia": "fr:Stokomani",
        "name": "Stokomani",
        "alt_name": "Stokomani Lanester",
        "addr:housenumber": "43",
        "addr:street": "Rue Trudaine",
        "addr:postcode": "56600",
        "addr:city": "Lanester",
        "fixme": "Please verify address: 43 Rue Trudaine",
        "opening_hours": "Mo-Sa 09:00-19:30",
        "shop": "variety_store",
        "ref:FR:Stokomani:id": "7",
        "phone": "+33 2 97 84 80 62",
        "website": "https://www.stokomani.fr/pages/boutique-stokomani-lanester-56600"
      }
    },
    {
      "type": "Feature",
      "geometry": {
        "type": "Point",
        "coordinates": [
          4.348246,
          45.48273
        ]
      },
      "properties": {
        "brand": "Stokomani",
        "brand:wikidata": "Q22249328",
        "brand:wikipedia": "fr:Stokomani",
        "name": "Stokomani",
        "alt_name": "Stokomani Saint Etienne",
        "addr:housenumber": "103",
        "addr:street": "RD 1082 - Le Porchon",
        "addr:postcode": "42480",
        "addr:city": "La Fouillouse",
        "fixme": "Please verify address: 103 RD 1082 - Le Porchon, ZAC de Ratarieux",
        "opening_hours": "Mo-Sa 09:00-19:30",
        "shop": "variety_store",
        "ref:FR:Stokomani:id": "70",
        "phone": "+33 4 77 52 75 60",
        "website": "https://www.stokomani.fr/pages/boutique-stokomani-la-fouillouse-42480"
      }
    },
    {
      "type": "Feature",
      "geometry": {
        "type": "Point",
        "coordinates": [
          6.131033,
          49.34901
        ]
      },
      "properties": {
        "brand": "Stokomani",
        "brand:wikidata": "Q22249328",
        "brand:wikipedia": "fr:Stokomani",
        "name": "Stokomani",
        "alt_name": "Stokomani Terville",
        "addr:street": "Lieu dit « la petite ouette »",
        "addr:postcode": "57180",
        "addr:city": "Terville",
        "fixme": "Please verify address: Lieu dit « la petite ouette »",
        "opening_hours": "Mo-Sa 09:00-19:30",
        "shop": "variety_store",
        "ref:FR:Stokomani:id": "71",
        "phone": "+33 3 82 57 41 90",
        "website": "https://www.stokomani.fr/pages/boutique-stokomani-terville-57180"
      }
    },
    {
      "type": "Feature",
      "geometry": {
        "type": "Point",
        "coordinates": [
          6.473468,
          48.189114
        ]
      },
      "properties": {
        "brand": "Stokomani",
        "brand:wikidata": "Q22249328",
        "brand:wikipedia": "fr:Stokomani",
        "name": "Stokomani",
        "alt_name": "Stokomani Epinal",
        "addr:street": "ZAC les Terres St Jean",
        "addr:postcode": "88000",
        "addr:city": "Epinal",
        "fixme": "Please verify address: ZAC les Terres St Jean",
        "opening_hours": "Mo-Sa 09:00-19:00",
        "shop": "variety_store",
        "ref:FR:Stokomani:id": "72",
        "phone": "+33 3 29 29 50 10",
        "website": "https://www.stokomani.fr/pages/boutique-stokomani-epinal-88000"
      }
    },
    {
      "type": "Feature",
      "geometry": {
        "type": "Point",
        "coordinates": [
          4.882833,
          43.987896
        ]
      },
      "properties": {
        "brand": "Stokomani",
        "brand:wikidata": "Q22249328",
        "brand:wikipedia": "fr:Stokomani",
        "name": "Stokomani",
        "alt_name": "Stokomani Avignon Nord - Le Pontet",
        "addr:street": "Avenue Marc Lepoutre",
        "addr:postcode": "84130",
        "addr:city": "Le Pontet",
        "fixme": "Please verify address: Avenue Marc Lepoutre",
        "opening_hours": "Mo-Sa 09:00-19:00",
        "shop": "variety_store",
        "ref:FR:Stokomani:id": "73",
        "phone": "+33 4 90 33 01 00",
        "website": "https://www.stokomani.fr/pages/boutique-stokomani-le-pontet-84130"
      }
    },
    {
      "type": "Feature",
      "geometry": {
        "type": "Point",
        "coordinates": [
          0.174335,
          45.690594
        ]
      },
      "properties": {
        "brand": "Stokomani",
        "brand:wikidata": "Q22249328",
        "brand:wikipedia": "fr:Stokomani",
        "name": "Stokomani",
        "alt_name": "Stokomani Angoulême Champniers",
        "addr:street": "Lieu-dit Plantier de Denat",
        "addr:postcode": "16430",
        "addr:city": "Champniers",
        "fixme": "Please verify address: Lieu-dit Plantier de Denat",
        "opening_hours": "Mo-Sa 09:00-19:00",
        "shop": "variety_store",
        "ref:FR:Stokomani:id": "74",
        "phone": "+33 5 45 24 28 30",
        "website": "https://www.stokomani.fr/pages/boutique-stokomani-champniers-16430"
      }
    },
    {
      "type": "Feature",
      "geometry": {
        "type": "Point",
        "coordinates": [
          1.933145,
          48.753437
        ]
      },
      "properties": {
        "brand": "Stokomani",
        "brand:wikidata": "Q22249328",
        "brand:wikipedia": "fr:Stokomani",
        "name": "Stokomani",
        "alt_name": "Stokomani Coignieres",
        "addr:postcode": "78310",
        "addr:city": "Coignieres",
        "fixme": "Please verify address: Centre Commercial Les Portes de Chevreuse N10 Rue Laennec, , Rue du Gibet",
        "opening_hours": "Mo-Sa 09:00-19:30; Su 10:00-19:00",
        "shop": "variety_store",
        "ref:FR:Stokomani:id": "75",
        "phone": "+33 1 30 16 08 40",
        "website": "https://www.stokomani.fr/pages/boutique-stokomani-coignieres-78310"
      }
    },
    {
      "type": "Feature",
      "geometry": {
        "type": "Point",
        "coordinates": [
          -4.473133,
          48.42639
        ]
      },
      "properties": {
        "brand": "Stokomani",
        "brand:wikidata": "Q22249328",
        "brand:wikipedia": "fr:Stokomani",
        "name": "Stokomani",
        "alt_name": "Stokomani Brest",
        "addr:street": "RUE GRAHAM BELL",
        "addr:postcode": "29200",
        "addr:city": "Brest",
        "fixme": "Please verify address: RUE GRAHAM BELL, ZONE DE KERGARADEC",
        "opening_hours": "Mo-Sa 09:00-19:00",
        "shop": "variety_store",
        "ref:FR:Stokomani:id": "76",
        "phone": "+33 2 29 61 28 80",
        "website": "https://www.stokomani.fr/pages/boutique-stokomani-brest-29200"
      }
    },
    {
      "type": "Feature",
      "geometry": {
        "type": "Point",
        "coordinates": [
          6.240924,
          48.711853
        ]
      },
      "properties": {
        "brand": "Stokomani",
        "brand:wikidata": "Q22249328",
        "brand:wikipedia": "fr:Stokomani",
        "name": "Stokomani",
        "alt_name": "Stokomani Essey Les Nancy",
        "addr:postcode": "54270",
        "addr:city": "Essey-Les-Nancy",
        "fixme": "Please verify address: Zone de la Porte Verte, , 3 Rue Jean Ferrat,",
        "opening_hours": "Mo-Sa 09:00-19:00",
        "shop": "variety_store",
        "ref:FR:Stokomani:id": "77",
        "phone": "+33 3 83 30 97 98",
        "website": "https://www.stokomani.fr/pages/boutique-stokomani-essey-les-nancy-54270"
      }
    },
    {
      "type": "Feature",
      "geometry": {
        "type": "Point",
        "coordinates": [
          2.373426,
          48.75284
        ]
      },
      "properties": {
        "brand": "Stokomani",
        "brand:wikidata": "Q22249328",
        "brand:wikipedia": "fr:Stokomani",
        "name": "Stokomani",
        "alt_name": "Stokomani Thiais",
        "addr:housenumber": "2",
        "addr:street": "RUE DES ALOUETTES",
        "addr:postcode": "94320",
        "addr:city": "Thiais",
        "fixme": "Please verify address: 2 RUE DES ALOUETTES",
        "opening_hours": "Mo-Sa 09:00-20:00; Su 10:00-19:00",
        "shop": "variety_store",
        "ref:FR:Stokomani:id": "78",
        "phone": "+33 1 56 70 65 40",
        "website": "https://www.stokomani.fr/pages/boutique-stokomani-thiais-94320"
      }
    },
    {
      "type": "Feature",
      "geometry": {
        "type": "Point",
        "coordinates": [
          2.451215,
          48.609562
        ]
      },
      "properties": {
        "brand": "Stokomani",
        "brand:wikidata": "Q22249328",
        "brand:wikipedia": "fr:Stokomani",
        "name": "Stokomani",
        "alt_name": "Stokomani Corbeil Essonnes",
        "addr:street": "AVENUE DU 8 MAI",
        "addr:postcode": "91100",
        "addr:city": "Corbeil-Essonnes",
        "fixme": "Please verify address: AVENUE DU 8 MAI",
        "opening_hours": "Mo-Sa 09:00-20:00",
        "shop": "variety_store",
        "ref:FR:Stokomani:id": "79",
        "phone": "+33 1 60 90 12 00",
        "website": "https://www.stokomani.fr/pages/boutique-stokomani-corbeil-essonnes-91100"
      }
    },
    {
      "type": "Feature",
      "geometry": {
        "type": "Point",
        "coordinates": [
          2.616161,
          48.577164
        ]
      },
      "properties": {
        "brand": "Stokomani",
        "brand:wikidata": "Q22249328",
        "brand:wikipedia": "fr:Stokomani",
        "name": "Stokomani",
        "alt_name": "Stokomani Vert Saint Denis",
        "addr:street": "Lieu-dit \"La Fontaine Ronde\"",
        "addr:postcode": "77240",
        "addr:city": "Vert-Saint-Denis",
        "fixme": "Please verify address: Lieu-dit \"La Fontaine Ronde\"",
        "opening_hours": "Mo-Sa 09:00-19:30; Su 10:00-19:00",
        "shop": "variety_store",
        "ref:FR:Stokomani:id": "8",
        "phone": "+33 1 64 89 74 90",
        "website": "https://www.stokomani.fr/pages/boutique-stokomani-vert-saint-denis-77240"
      }
    },
    {
      "type": "Feature",
      "geometry": {
        "type": "Point",
        "coordinates": [
          5.359904,
          43.42133
        ]
      },
      "properties": {
        "brand": "Stokomani",
        "brand:wikidata": "Q22249328",
        "brand:wikipedia": "fr:Stokomani",
        "name": "Stokomani",
        "alt_name": "Stokomani Plan De Campagne",
        "addr:housenumber": "1",
        "addr:street": "PLACE DE L'EUROPE",
        "addr:postcode": "13480",
        "addr:city": "Cabries",
        "fixme": "Please verify address: 1 PLACE DE L'EUROPE",
        "opening_hours": "Mo-Sa 09:00-19:30; Su 10:00-19:00",
        "shop": "variety_store",
        "ref:FR:Stokomani:id": "80",
        "phone": "+33 4 42 74 95 10",
        "website": "https://www.stokomani.fr/pages/boutique-stokomani-cabries-13480"
      }
    },
    {
      "type": "Feature",
      "geometry": {
        "type": "Point",
        "coordinates": [
          6.143178,
          49.191437
        ]
      },
      "properties": {
        "brand": "Stokomani",
        "brand:wikidata": "Q22249328",
        "brand:wikipedia": "fr:Stokomani",
        "name": "Stokomani",
        "alt_name": "Stokomani Semecourt",
        "addr:street": "ZAC EURO MOSELLE",
        "addr:postcode": "57280",
        "addr:city": "Semecourt",
        "fixme": "Please verify address: ZAC EURO MOSELLE",
        "opening_hours": "Mo-Sa 09:00-19:00; Su 10:00-18:00",
        "shop": "variety_store",
        "ref:FR:Stokomani:id": "81",
        "phone": "+33 3 87 34 43 60",
        "website": "https://www.stokomani.fr/pages/boutique-stokomani-semecourt-57280"
      }
    },
    {
      "type": "Feature",
      "geometry": {
        "type": "Point",
        "coordinates": [
          4.689753,
          45.256695
        ]
      },
      "properties": {
        "brand": "Stokomani",
        "brand:wikidata": "Q22249328",
        "brand:wikipedia": "fr:Stokomani",
        "name": "Stokomani",
        "alt_name": "Stokomani Davezieux",
        "addr:housenumber": "425",
        "addr:street": "CHEMIN DU MAS - ZAC LE MAS OUEST",
        "addr:postcode": "07430",
        "addr:city": "Davezieux",
        "fixme": "Please verify address: 425 CHEMIN DU MAS - ZAC LE MAS OUEST",
        "opening_hours": "Mo-Sa 09:00-19:00",
        "shop": "variety_store",
        "ref:FR:Stokomani:id": "82",
        "phone": "+33 4 79 69 99 01",
        "website": "https://www.stokomani.fr/pages/boutique-stokomani-davezieux-07430"
      }
    },
    {
      "type": "Feature",
      "geometry": {
        "type": "Point",
        "coordinates": [
          -1.431733,
          46.70442
        ]
      },
      "properties": {
        "brand": "Stokomani",
        "brand:wikidata": "Q22249328",
        "brand:wikipedia": "fr:Stokomani",
        "name": "Stokomani",
        "alt_name": "Stokomani La Roche Sur Yon",
        "addr:street": "Rue Claude Chappe",
        "addr:postcode": "85000",
        "addr:city": "La Roche-Sur-Yon",
        "fixme": "Please verify address: Rue Claude Chappe",
        "opening_hours": "Mo-Sa 09:00-19:30",
        "shop": "variety_store",
        "ref:FR:Stokomani:id": "83",
        "phone": "+33 2 28 85 39 88",
        "website": "https://www.stokomani.fr/pages/boutique-stokomani-la-roche-sur-yon-85000"
      }
    },
    {
      "type": "Feature",
      "geometry": {
        "type": "Point",
        "coordinates": [
          4.736966,
          44.533203
        ]
      },
      "properties": {
        "brand": "Stokomani",
        "brand:wikidata": "Q22249328",
        "brand:wikipedia": "fr:Stokomani",
        "name": "Stokomani",
        "alt_name": "Stokomani Montelimar",
        "addr:housenumber": "122",
        "addr:street": "ROUTE DU CHATEAU NEUF",
        "addr:postcode": "26200",
        "addr:city": "Montelimar",
        "fixme": "Please verify address: 122 ROUTE DU CHATEAU NEUF",
        "opening_hours": "Mo-Sa 09:00-19:30",
        "shop": "variety_store",
        "ref:FR:Stokomani:id": "84",
        "phone": "+33 4 75 98 09 90",
        "website": "https://www.stokomani.fr/pages/boutique-stokomani-montelimar-26200"
      }
    },
    {
      "type": "Feature",
      "geometry": {
        "type": "Point",
        "coordinates": [
          4.095615,
          46.029503
        ]
      },
      "properties": {
        "brand": "Stokomani",
        "brand:wikidata": "Q22249328",
        "brand:wikipedia": "fr:Stokomani",
        "name": "Stokomani",
        "alt_name": "Stokomani Perreux",
        "addr:street": "RUE LE PONT DE RHINS - ZAC LES PLAINES",
        "addr:postcode": "42120",
        "addr:city": "Perreux",
        "fixme": "Please verify address: RUE LE PONT DE RHINS - ZAC LES PLAINES",
        "opening_hours": "Mo-Sa 09:00-19:00",
        "shop": "variety_store",
        "ref:FR:Stokomani:id": "85",
        "phone": "+33 4 77 78 35 99",
        "website": "https://www.stokomani.fr/pages/boutique-stokomani-perreux-42120"
      }
    },
    {
      "type": "Feature",
      "geometry": {
        "type": "Point",
        "coordinates": [
          4.852243,
          44.111446
        ]
      },
      "properties": {
        "brand": "Stokomani",
        "brand:wikidata": "Q22249328",
        "brand:wikipedia": "fr:Stokomani",
        "name": "Stokomani",
        "alt_name": "Stokomani Orange",
        "addr:street": "RUE CINSAULT",
        "addr:postcode": "84100",
        "addr:city": "Orange",
        "fixme": "Please verify address: RUE CINSAULT, CENTRE COMMERCIAL LES VIGNES",
        "opening_hours": "Mo-Sa 09:00-19:30",
        "shop": "variety_store",
        "ref:FR:Stokomani:id": "86",
        "phone": "+33 4 90 70 45 00",
        "website": "https://www.stokomani.fr/pages/boutique-stokomani-orange-84100"
      }
    },
    {
      "type": "Feature",
      "geometry": {
        "type": "Point",
        "coordinates": [
          4.092164,
          44.106323
        ]
      },
      "properties": {
        "brand": "Stokomani",
        "brand:wikidata": "Q22249328",
        "brand:wikipedia": "fr:Stokomani",
        "name": "Stokomani",
        "alt_name": "Stokomani Ales",
        "addr:housenumber": "846",
        "addr:street": "AVENUE OLIVIER DE SERRES - ROCADE SUD",
        "addr:postcode": "30100",
        "addr:city": "Ales",
        "fixme": "Please verify address: 846 AVENUE OLIVIER DE SERRES - ROCADE SUD",
        "opening_hours": "Mo-Sa 09:00-19:30",
        "shop": "variety_store",
        "ref:FR:Stokomani:id": "87",
        "phone": "+33 4 66 25 49 60",
        "website": "https://www.stokomani.fr/pages/boutique-stokomani-ales-30100"
      }
    },
    {
      "type": "Feature",
      "geometry": {
        "type": "Point",
        "coordinates": [
          -1.986707,
          48.621185
        ]
      },
      "properties": {
        "brand": "Stokomani",
        "brand:wikidata": "Q22249328",
        "brand:wikipedia": "fr:Stokomani",
        "name": "Stokomani",
        "alt_name": "Stokomani Saint Malo",
        "addr:street": "CENTRE COMMERCIAL RUE DE LA GRASSINAIS",
        "addr:postcode": "35400",
        "addr:city": "Saint-Malo",
        "fixme": "Please verify address: CENTRE COMMERCIAL RUE DE LA GRASSINAIS",
        "opening_hours": "Mo-Sa 09:00-19:00",
        "shop": "variety_store",
        "ref:FR:Stokomani:id": "88",
        "phone": "+33 2 99 82 88 99",
        "website": "https://www.stokomani.fr/pages/boutique-stokomani-saint-malo-35400"
      }
    },
    {
      "type": "Feature",
      "geometry": {
        "type": "Point",
        "coordinates": [
          2.818018,
          50.46108
        ]
      },
      "properties": {
        "brand": "Stokomani",
        "brand:wikidata": "Q22249328",
        "brand:wikipedia": "fr:Stokomani",
        "name": "Stokomani",
        "alt_name": "Stokomani Vendin Le Vieil",
        "addr:housenumber": "2",
        "addr:street": "Route de la Bassée",
        "addr:postcode": "62880",
        "addr:city": "Vendin-Le-Vieil",
        "fixme": "Please verify address: 2 Route de la Bassée",
        "opening_hours": "Mo-Sa 09:00-19:30; Su 10:00-19:00",
        "shop": "variety_store",
        "ref:FR:Stokomani:id": "89",
        "phone": "+33 3 91 84 18 75",
        "website": "https://www.stokomani.fr/pages/boutique-stokomani-vendin-le-vieil-62880"
      }
    },
    {
      "type": "Feature",
      "geometry": {
        "type": "Point",
        "coordinates": [
          2.584351,
          48.70663
        ]
      },
      "properties": {
        "brand": "Stokomani",
        "brand:wikidata": "Q22249328",
        "brand:wikipedia": "fr:Stokomani",
        "name": "Stokomani",
        "alt_name": "Stokomani Servon",
        "addr:street": "Parc d'activité commercial",
        "addr:postcode": "77170",
        "addr:city": "Servon",
        "fixme": "Please verify address: Parc d'activité commercial, ZAC du Noyer aux Perdrix",
        "opening_hours": "Mo-Sa 09:00-19:30; Su 10:00-19:00",
        "shop": "variety_store",
        "ref:FR:Stokomani:id": "90",
        "phone": "+33 1 64 88 14 61",
        "website": "https://www.stokomani.fr/pages/boutique-stokomani-servon-77170"
      }
    },
    {
      "type": "Feature",
      "geometry": {
        "type": "Point",
        "coordinates": [
          -1.630201,
          47.25529
        ]
      },
      "properties": {
        "brand": "Stokomani",
        "brand:wikidata": "Q22249328",
        "brand:wikipedia": "fr:Stokomani",
        "name": "Stokomani",
        "alt_name": "Stokomani Orvault",
        "addr:housenumber": "362",
        "addr:street": "ROUTE DE VANNES LE CROISY",
        "addr:postcode": "44700",
        "addr:city": "Orvault",
        "fixme": "Please verify address: 362 ROUTE DE VANNES LE CROISY",
        "opening_hours": "Mo-Sa 09:00-19:00",
        "shop": "variety_store",
        "ref:FR:Stokomani:id": "91",
        "phone": "+33 2 51 77 66 60",
        "website": "https://www.stokomani.fr/pages/boutique-stokomani-orvault-44700"
      }
    },
    {
      "type": "Feature",
      "geometry": {
        "type": "Point",
        "coordinates": [
          4.00341,
          49.282257
        ]
      },
      "properties": {
        "brand": "Stokomani",
        "brand:wikidata": "Q22249328",
        "brand:wikipedia": "fr:Stokomani",
        "name": "Stokomani",
        "alt_name": "Stokomani Saint Brice Courcelles",
        "addr:street": "RUE DU MONT CESAR ZONE D ACTIVITE DE LA CROIX MAURENCIENNE",
        "addr:postcode": "51370",
        "addr:city": "Saint-Brice-Courcelles",
        "fixme": "Please verify address: RUE DU MONT CESAR ZONE D ACTIVITE DE LA CROIX MAURENCIENNE",
        "opening_hours": "Mo-Sa 09:00-19:30",
        "shop": "variety_store",
        "ref:FR:Stokomani:id": "92",
        "phone": "+33 3 26 86 76 20",
        "website": "https://www.stokomani.fr/pages/boutique-stokomani-saint-brice-courcelles-51370"
      }
    },
    {
      "type": "Feature",
      "geometry": {
        "type": "Point",
        "coordinates": [
          2.368162,
          43.235397
        ]
      },
      "properties": {
        "brand": "Stokomani",
        "brand:wikidata": "Q22249328",
        "brand:wikipedia": "fr:Stokomani",
        "name": "Stokomani",
        "alt_name": "Stokomani Carcassonne",
        "addr:housenumber": "440",
        "addr:street": "RUE MAGELLAN ZONE DU PONT ROUGE",
        "addr:postcode": "11000",
        "addr:city": "Carcassonne",
        "fixme": "Please verify address: 440 RUE MAGELLAN ZONE DU PONT ROUGE",
        "opening_hours": "Mo-Sa 09:00-19:00",
        "shop": "variety_store",
        "ref:FR:Stokomani:id": "93",
        "phone": "+33 4 68 10 10 29",
        "website": "https://www.stokomani.fr/pages/boutique-stokomani-carcassonne-11000"
      }
    },
    {
      "type": "Feature",
      "geometry": {
        "type": "Point",
        "coordinates": [
          3.051669,
          50.550007
        ]
      },
      "properties": {
        "brand": "Stokomani",
        "brand:wikidata": "Q22249328",
        "brand:wikipedia": "fr:Stokomani",
        "name": "Stokomani",
        "alt_name": "Stokomani Seclin",
        "addr:street": "ZONE UNEXPO 52 RUE DE L INDUSTRIE",
        "addr:postcode": "59113",
        "addr:city": "Seclin",
        "fixme": "Please verify address: ZONE UNEXPO 52 RUE DE L INDUSTRIE",
        "opening_hours": "Mo-Sa 09:00-19:30",
        "shop": "variety_store",
        "ref:FR:Stokomani:id": "94",
        "phone": "+33 3 28 55 04 70",
        "website": "https://www.stokomani.fr/pages/boutique-stokomani-seclin-59113"
      }
    },
    {
      "type": "Feature",
      "geometry": {
        "type": "Point",
        "coordinates": [
          2.307338,
          49.921535
        ]
      },
      "properties": {
        "brand": "Stokomani",
        "brand:wikidata": "Q22249328",
        "brand:wikipedia": "fr:Stokomani",
        "name": "Stokomani",
        "alt_name": "Stokomani Amiens",
        "addr:street": "Shopping Promenade Coeur Picardie",
        "addr:postcode": "80000",
        "addr:city": "Amiens",
        "fixme": "Please verify address: Shopping Promenade Coeur Picardie, Carrefour, Rainneville, Avenue de l'Europe",
        "opening_hours": "Mo-Sa 09:00-19:30",
        "shop": "variety_store",
        "ref:FR:Stokomani:id": "95",
        "phone": "+33 3 22 49 01 87",
        "website": "https://www.stokomani.fr/pages/boutique-stokomani-amiens-80000"
      }
    },
    {
      "type": "Feature",
      "geometry": {
        "type": "Point",
        "coordinates": [
          2.348679,
          49.00793
        ]
      },
      "properties": {
        "brand": "Stokomani",
        "brand:wikidata": "Q22249328",
        "brand:wikipedia": "fr:Stokomani",
        "name": "Stokomani",
        "alt_name": "Stokomani Saint Brice Sous Foret",
        "addr:street": "ZONE D ACTIVITE LES PERRUCHES RUE DE PISCOP",
        "addr:postcode": "95350",
        "addr:city": "Saint-Brice-Sous-Foret",
        "fixme": "Please verify address: ZONE D ACTIVITE LES PERRUCHES RUE DE PISCOP",
        "opening_hours": "Mo-Sa 09:00-19:30; Su 10:00-19:00",
        "shop": "variety_store",
        "ref:FR:Stokomani:id": "96",
        "phone": "+33 1 39 94 71 10",
        "website": "https://www.stokomani.fr/pages/boutique-stokomani-saint-brice-sous-foret-95350"
      }
    },
    {
      "type": "Feature",
      "geometry": {
        "type": "Point",
        "coordinates": [
          2.258491,
          49.159523
        ]
      },
      "properties": {
        "brand": "Stokomani",
        "brand:wikidata": "Q22249328",
        "brand:wikipedia": "fr:Stokomani",
        "name": "Stokomani",
        "alt_name": "Stokomani Chambly",
        "addr:housenumber": "590",
        "addr:street": "rue Jean Renoir",
        "addr:postcode": "60230",
        "addr:city": "Chambly",
        "fixme": "Please verify address: 590 rue Jean Renoir, ZAC la porte sud de l'Oise",
        "opening_hours": "Mo-Sa 09:00-19:00",
        "shop": "variety_store",
        "ref:FR:Stokomani:id": "97",
        "phone": "+33 1 39 37 43 00",
        "website": "https://www.stokomani.fr/pages/boutique-stokomani-chambly-60230"
      }
    },
    {
      "type": "Feature",
      "geometry": {
        "type": "Point",
        "coordinates": [
          7.748294,
          48.828987
        ]
      },
      "properties": {
        "brand": "Stokomani",
        "brand:wikidata": "Q22249328",
        "brand:wikipedia": "fr:Stokomani",
        "name": "Stokomani",
        "alt_name": "Stokomani Schweighouse Sur Moder",
        "addr:street": "Z.I De La Sablière",
        "addr:postcode": "67590",
        "addr:city": "Schweighouse-Sur-Moder",
        "fixme": "Please verify address: Z.I De La Sablière, 13 Rue de la sablière",
        "opening_hours": "Mo-Sa 09:00-19:00",
        "shop": "variety_store",
        "ref:FR:Stokomani:id": "98",
        "phone": "+33 3 88 05 78 90",
        "website": "https://www.stokomani.fr/pages/boutique-stokomani-schweighouse-sur-moder-67590"
      }
    },
    {
      "type": "Feature",
      "geometry": {
        "type": "Point",
        "coordinates": [
          -4.082243,
          48.014484
        ]
      },
      "properties": {
        "brand": "Stokomani",
        "brand:wikidata": "Q22249328",
        "brand:wikipedia": "fr:Stokomani",
        "name": "Stokomani",
        "alt_name": "Stokomani Quimper",
        "addr:housenumber": "149",
        "addr:street": "route de Brest",
        "addr:postcode": "29000",
        "addr:city": "Quimper",
        "fixme": "Please verify address: 149 route de Brest, Zone de Gourvily",
        "opening_hours": "Mo-Sa 09:00-19:00",
        "shop": "variety_store",
        "ref:FR:Stokomani:id": "99",
        "phone": "+33 2 98 98 03 70",
        "website": "https://www.stokomani.fr/pages/boutique-stokomani-quimper-29000"
      }
    }
  ]
}